ID,title,description,streetaddress,city,state,amenityfeatures,type,unclearaddress,notes,dateadded,lastmodified
2,Golden Torch,,1915 5th Ave. N.,Birmingham,AL,,,,,8/29/2019 1:15pm,8/29/2019 1:19pm
3,Jewel Box,Dinkler-Tutwiler Hotel,2001 5th Ave N. ,Birmingham,AL,"(M) - Mixed Crowds,(PE) - Pretty elegant - jacket & tie may be required","Hotels,Bars/Clubs",,,8/29/2019 1:15pm,8/29/2019 1:20pm
4,Mammy's Pancake House,,2151 Highland Ave S.,Birmingham,AL,"""(R) - Restaurant, usually serving dinner. A '*' after this symbol does not necessarily indicate quality of food served, but popularity of the place. "",""(C) - Coffee, soft drinks and sometimes food -- usually open late after bars have closed""",Restaurant,,,8/29/2019 1:15pm,8/29/2019 1:20pm
8,Tito's ,(semi-private),1310 1st Ave. N. ,Birmingham,AL,"(S) - Shows - impersonators or record pantomime acts - often touristy,(D) - Dancing,(YC) - Young and/or collegiate types",Bars/Clubs,,,8/29/2019 1:15pm,8/29/2019 1:20pm
6,Pitt Grill,(after hours),2300 6th Ave S.  ,Birmingham,AL,"""(C) - Coffee, soft drinks and sometimes food -- usually open late after bars have closed""",Restaurant,,,8/29/2019 1:15pm,8/29/2019 1:24pm
7,Red Room,Redmont Hotel,2101 5th Ave. N. ,Birmingham,AL,,"Hotels,Bars/Clubs",,,8/29/2019 1:15pm,8/29/2019 1:20pm
5,Outer Focus,,2900 7th Ave. S. ,Birmingham,AL,"(B) - Blacks predominate,(*) - Very popular",Bars/Clubs,,,8/29/2019 1:15pm,8/29/2019 1:24pm
9,Heart of Dothan Motel Bar,,314 N. Foster,Dothan,AL,(M) - Mixed Crowds,"Bars/Clubs,Hotels",,,8/29/2019 1:15pm,8/29/2019 1:27pm
17,Stein & Still,,215 Conti St. ,Mobile,AL,(M) - Mixed Crowds,Bars/Clubs,,,8/29/2019 1:15pm,8/29/2019 1:27pm
13,Escape Lounge,,1313 Memorial Pkwy,Huntsville,AL,(*) - Very popular,Bars/Clubs,,,8/29/2019 1:15pm,8/31/2019 11:52am
11,Why Not Eat Here Cafe,,220 E. Moulton St.,Decatur,AL,,Restaurant,,,8/29/2019 1:15pm,8/29/2019 1:27pm
12,Black Forest,,3709 Governors Dr.  ,Huntsville,AL,,Bars/Clubs,,,8/29/2019 1:15pm,8/31/2019 11:52am
10,Pop's Cafe,Inquire Locally,,Dothan,AL,"""(R) - Restaurant, usually serving dinner. A '*' after this symbol does not necessarily indicate quality of food served, but popularity of the place. "",""(C) - Coffee, soft drinks and sometimes food -- usually open late after bars have closed"",(M) - Mixed Crowds",Restaurant,,,8/29/2019 1:15pm,8/29/2019 1:21pm
16,Princess House Lounge,,254 Government St. ,Mobile,AL,(*) - Very popular,Bars/Clubs,,,8/29/2019 1:15pm,8/29/2019 1:27pm
15,Flamingo Room,Mobile Steak House,170 S. St. Francis,Mobile,AL,(*) - Very popular,Bars/Clubs,,,8/29/2019 1:15pm,8/29/2019 1:27pm
14,Club Royal,,78 S. Royal,Mobile,AL,(M) - Mixed Crowds,Bars/Clubs,,,8/29/2019 1:15pm,8/29/2019 1:27pm
23,Peacock Lounge,,220 Central Ave,Hot Springs,AR,,,,,8/29/2019 1:15pm,8/30/2019 2:19pm
19,Chucker,,2121 6th St. ,Tuscaloosa,AL,(*) - Very popular,Bars/Clubs,,,8/29/2019 1:15pm,8/30/2019 8:40am
22,Mollie's,,360 Central Ave,Hot Springs,AR,"""(R) - Restaurant, usually serving dinner. A '*' after this symbol does not necessarily indicate quality of food served, but popularity of the place. "",(M) - Mixed Crowds",Restaurant,,,8/29/2019 1:15pm,8/30/2019 2:19pm
21,Squeeze Inn,,8 N. 6th St.,Ft. Smith,AR,,Hotels,,,8/29/2019 1:15pm,8/30/2019 2:19pm
24,The Club,,236 Quachita Ave,Hot Springs,AR,"(P) - Private club - Inquire locally to admission,(D) - Dancing,""(G) - Girls, but rarely exclusively"",(*) - Very popular",Bars/Clubs,,,8/29/2019 1:15pm,8/30/2019 2:19pm
20,Stafford Hotel,(Downstairs),3209 9th St,Tuscaloosa,AL,(M) - Mixed Crowds,Hotels,,,8/29/2019 1:15pm,8/30/2019 8:40am
33,Yum Yum Tree,(Hwy 1 in Holly HIll),703 Ridgewood,Daytona Beach,FL,(*) - Very popular,Bars/Clubs,,,8/29/2019 1:15pm,8/30/2019 8:50am
29,Nightengale,,24 S. Garden Ave,Clearwater,FL,(M) - Mixed Crowds,Bars/Clubs,,,8/29/2019 1:15pm,8/30/2019 8:50am
32,Hollywood Bar,,415 Main St. ,Daytona Beach,FL,"(S) - Shows - impersonators or record pantomime acts - often touristy,(*) - Very popular",Bars/Clubs,,,8/29/2019 1:15pm,8/30/2019 8:50am
31,Mouse Trap,,5600 N. Atlantic Ave,Cocoa Beach,FL,,Bars/Clubs,,,8/29/2019 1:15pm,8/30/2019 8:50am
36,Gulfstream Hotel,,214 S.W. 1st Ave,Ft. Lauderdale,FL,"(M) - Mixed Crowds,""(H) - Hotel, motel, or other overnight accomodations""",Hotels,,,8/29/2019 1:15pm,8/30/2019 8:49am
39,The Saloon,,219 S.W. 1st Ave,Ft. Lauderdale,FL,(*) - Very popular,Bars/Clubs,,,8/29/2019 1:15pm,8/30/2019 8:50am
40,Venture Inn,,1791 W. Broward Blvd,Ft. Lauderdale,FL,"(D) - Dancing,(YC) - Young and/or collegiate types,(*) - Very popular","Hotels,Bars/Clubs",,,8/29/2019 1:15pm,8/30/2019 8:50am
34,Elbo Room,(Ft. Lauderdale Beach),241 S. Atlantic ,Ft. Lauderdale,FL,"(YC) - Young and/or collegiate types,(M) - Mixed Crowds",Bars/Clubs,,,8/29/2019 1:15pm,8/30/2019 8:50am
38,The Gym Steam Baths ,,901 S.W. 27th ,Ft. Lauderdale,FL,,Baths,,,8/29/2019 1:15pm,8/30/2019 8:49am
47,Top's Annex,,2027 Pembroke Rd. ,Hollywood,FL,"(D) - Dancing,(YC) - Young and/or collegiate types,(*) - Very popular",Bars/Clubs,,Has an HIP designation but there is no abbreviation in toc for this. Need to see if there are more like this and come back to.,8/29/2019 1:15pm,8/30/2019 9:03am
41,Zanzibar,,214 S.W. 1st Ave.,Ft. Lauderdale,FL,,Bars/Clubs,,,8/29/2019 1:15pm,8/30/2019 8:50am
45,Keith's Cruise Room,(Old Dixie Hwy),813 S.E. 1st Ave.,Hallandale,FL,"(D) - Dancing,(*) - Very popular",Bars/Clubs,,,8/29/2019 1:15pm,8/30/2019 9:03am
49,Howard's,,238 W. Adams ,Jacksonville,FL,(M) - Mixed Crowds,Bars/Clubs,,,8/29/2019 1:15pm,8/30/2019 9:03am
46,Our Place,,800 N. Federal Hwy.,Hallandale,FL,"""(G) - Girls, but rarely exclusively""",Bars/Clubs,,,8/29/2019 1:15pm,8/30/2019 9:03am
48,Bo's Reef,,8606 Phillips Hwy ,Jacksonville,FL,"""(G) - Girls, but rarely exclusively"",(B) - Blacks predominate",Bars/Clubs,,,8/29/2019 1:15pm,8/30/2019 9:03am
44,Palace club,,4251 S. Main St ,Gainsville,FL,"(P) - Private club - Inquire locally to admission,(D) - Dancing,(S) - Shows - impersonators or record pantomime acts - often touristy,(*) - Very popular",Bars/Clubs,,,8/29/2019 1:15pm,8/30/2019 8:51am
51,Offbeat,,2952 Roosevelt Blvd,Jacksonville,FL,"(S) - Shows - impersonators or record pantomime acts - often touristy,(D) - Dancing,(*) - Very popular",Bars/Clubs,,,8/29/2019 1:15pm,8/30/2019 9:03am
52,Tides End,"(open Sundays)
",412 Boardwalk ,Jacksonville Beach,FL,(M) - Mixed Crowds,Bars/Clubs,,,8/29/2019 1:15pm,8/30/2019 9:03am
50,Knights Out,,9876 Atalntics Blvd,Jacksonville,FL,"(YC) - Young and/or collegiate types,(D) - Dancing,(*) - Very popular",Bars/Clubs,,,8/29/2019 1:15pm,8/30/2019 9:03am
54,Brown Derby,,601 Whitehead,Key West,FL,"(M) - Mixed Crowds,(RT) - 'Raunchy Types' - usually downtow-type establishments  - can mean 'rent or commecial'",Bars/Clubs,,,8/30/2019 9:00am,8/31/2019 12:02pm
56,John Brown's Bar,,224 Duval,Key West,FL,,Bars/Clubs,,,8/30/2019 9:00am,8/30/2019 9:09am
57,Music Box,,628 Lake Ave,Lake Worth,FL,(*) - Very popular,Bars/Clubs,,,8/30/2019 9:00am,8/30/2019 9:09am
55,Captain Tony's,,428 Green St,Key West,FL,"(M) - Mixed Crowds,(*) - Very popular",Bars/Clubs,,,8/30/2019 9:00am,8/30/2019 9:03am
58,Cactus Lounge,,2041 N.E. Biscanyne,Miami,FL,(*) - Very popular,Bars/Clubs,,,8/30/2019 9:00am,8/30/2019 9:09am
59,Candlelight,(Coconut grove),3131 Commodore Plaza,Miami,FL,"""(R) - Restaurant, usually serving dinner. A '*' after this symbol does not necessarily indicate quality of food served, but popularity of the place. "",(M) - Mixed Crowds,(PE) - Pretty elegant - jacket & tie may be required",Restaurant,,,8/30/2019 9:00am,8/30/2019 9:08am
60,Carnival,,137 N.E. 3rd Ave,Miami,FL,(RT) - 'Raunchy Types' - usually downtow-type establishments  - can mean 'rent or commecial',Bars/Clubs,,,8/30/2019 9:00am,8/31/2019 12:02pm
65,Fox Hole,,2000 N.E. 2nd Ave,Miami,FL,,Bars/Clubs,,,8/30/2019 9:00am,8/30/2019 9:09am
61,Country Store,(Coconut Grove),2880 Florida Ave,Miami,FL,"""(R) - Restaurant, usually serving dinner. A '*' after this symbol does not necessarily indicate quality of food served, but popularity of the place. "",(M) - Mixed Crowds,(PE) - Pretty elegant - jacket & tie may be required",Restaurant,,,8/30/2019 9:00am,8/30/2019 9:08am
62,Deluxe,,2800 N.W. 27th Ave,Miami,FL,(B) - Blacks predominate,Bars/Clubs,,,8/30/2019 9:00am,8/30/2019 9:09am
63,El Carol,(Coral Gables),930 Le Jeune Rd. ,Miami,FL,,Bars/Clubs,,,8/30/2019 9:00am,8/30/2019 9:09am
67,Hamlet,(Coconut Grove),3416 Main Hwy,Miami,FL,"(YC) - Young and/or collegiate types,(M) - Mixed Crowds,""(R) - Restaurant, usually serving dinner. A '*' after this symbol does not necessarily indicate quality of food served, but popularity of the place. """,Restaurant,,,8/30/2019 9:09am,8/30/2019 9:22am
68,Le Bistro,,312 S.E. 2nd Ave,Miami,FL,(M) - Mixed Crowds,Bars/Clubs,,,8/30/2019 9:09am,8/30/2019 9:27am
69,Le Moon Villas,(Coconut Grove),2661 Bayshore Dr,Miami,FL,"""(H) - Hotel, motel, or other overnight accomodations""",Hotels,,,8/30/2019 9:09am,8/30/2019 9:22am
70,Leprechaun ,"(W. Miami)
",7305 Bird Rd. ,Miami,FL,,Bars/Clubs,,,8/30/2019 9:09am,8/30/2019 9:27am
75,Sir John,,276 N.W. 6th,Miami,FL,"(B) - Blacks predominate,(M) - Mixed Crowds,(RT) - 'Raunchy Types' - usually downtow-type establishments  - can mean 'rent or commecial'",Bars/Clubs,,,8/30/2019 9:09am,8/31/2019 12:02pm
71,Mermaid Room,"(Behind Vic's (M) -- use side street entrance)
",101 N.E. 2nd Ave,Miami,FL,"(*) - Very popular,(RT) - 'Raunchy Types' - usually downtow-type establishments  - can mean 'rent or commecial'",Bars/Clubs,,,8/30/2019 9:09am,8/31/2019 12:02pm
73,Red Rooster,,2404 N.E. 2nd Ave,Miami,FL,,Bars/Clubs,,,8/30/2019 9:09am,8/30/2019 9:27am
72,Nook Beer Bar,(Coral Gables),255 Minorca,Miami,FL,"(YC) - Young and/or collegiate types,(*) - Very popular",Bars/Clubs,,,8/30/2019 9:09am,8/30/2019 9:27am
74,Regency of Miami Steam Baths ,,5 S.W. 2nd Ave,Miami,FL,,Baths,,,8/30/2019 9:09am,8/30/2019 9:12am
76,Studio,,2340 S.W. 32nd Ave,Miami,FL,"""(R) - Restaurant, usually serving dinner. A '*' after this symbol does not necessarily indicate quality of food served, but popularity of the place. """,Restaurant,,,8/30/2019 9:09am,8/30/2019 9:24am
77,Warehouse VIII,"(Upstairs -- use outside entrance on side street, or thru downstairs bar which is (M).)",3604 S.W. 8th St. ,Miami,FL,,Bars/Clubs,,,8/30/2019 9:09am,8/30/2019 9:27am
78,Alley,(Behind South Wind - enter thru rear parking lot),1685 Alton Rd. ,Miami Beach,FL,"(S) - Shows - impersonators or record pantomime acts - often touristy,(*) - Very popular",Bars/Clubs,,,8/30/2019 9:09am,8/30/2019 9:27am
79,Ambassadors III,,427 22nd St,Miami Beach,FL,"(D) - Dancing,(YC) - Young and/or collegiate types,(*) - Very popular",Bars/Clubs,,,8/30/2019 9:09am,8/30/2019 9:28am
80,Basin Street,,1610 Alton Rd.,Miami Beach,FL,,Bars/Clubs,,,8/30/2019 9:09am,8/30/2019 9:27am
81,Mayflower Lounge,(Go thru front bar to back room -- admission charge),1716 Alton Rd. ,Miami Beach,FL,"(YC) - Young and/or collegiate types,(*) - Very popular,(D) - Dancing",Bars/Clubs,,,8/30/2019 9:09am,8/30/2019 9:28am
82,Nite Owl,(same bldg. as Pin-Up),2228 Park Ave.,Miami Beach,FL,"""(G) - Girls, but rarely exclusively""",Bars/Clubs,,,8/30/2019 9:09am,8/30/2019 9:28am
85,Twenty-One Room (Frenchie's),(Seagull Hotel),21st at Ocean Dr. ,Miami Beach,FL,,Hotels,,,8/30/2019 9:09am,8/30/2019 9:22am
89,Ted's Place,,6120 Lillian Hwy,Pensacola,FL,"(M) - Mixed Crowds,(RT) - 'Raunchy Types' - usually downtow-type establishments  - can mean 'rent or commecial'",Bars/Clubs,,,8/30/2019 9:09am,8/31/2019 12:02pm
88,San Carlos Hotel Bar,,1 Palafox ,Pensacola,FL,"(M) - Mixed Crowds,(*) - Very popular",Hotels,,,8/30/2019 9:09am,8/30/2019 9:28am
86,Cactus Room,,60 N. Orange Ave,Orlando,FL,(*) - Very popular,Bars/Clubs,,,8/30/2019 9:09am,8/30/2019 9:28am
87,Palace Club,,4910 Edgewater Dr. ,Orlando,FL,"(P) - Private club - Inquire locally to admission,(D) - Dancing,(YC) - Young and/or collegiate types,(*) - Very popular",Bars/Clubs,,,8/30/2019 9:09am,8/30/2019 9:28am
83,Piccadilly Hotel Steam Baths,,220 23rd St,Miami Beach,FL,,"Baths,Hotels",,,8/30/2019 9:09am,8/31/2019 11:51am
90,Trader Jon's,,511 S. Palafox ,Pensacola,FL,,Bars/Clubs,,,8/30/2019 9:09am,8/30/2019 9:27am
84,Pin-Up,,2228 Park Ave. ,Miami Beach,FL,,Bars/Clubs,,,8/30/2019 9:09am,8/30/2019 9:27am
96,Ten Beach Drive,,10 Beach Drive,St. Petersburg,FL,(M) - Mixed Crowds,Bars/Clubs,,,8/30/2019 9:09am,8/30/2019 9:35am
94,Patio Inn,,6101 4th St. No. ,St. Petersburg,FL,"(S) - Shows - impersonators or record pantomime acts - often touristy,""(G) - Girls, but rarely exclusively""",Hotels,,,8/30/2019 9:09am,8/30/2019 9:34am
92,Edgewater Beach Motel,,631 North Shore Drive,St. Petersburg,FL,"""(H) - Hotel, motel, or other overnight accomodations""",Hotels,,,8/30/2019 9:09am,8/30/2019 9:34am
91,Anchor Bar,,172 Central Ave,St. Petersburg,FL,(M) - Mixed Crowds,Bars/Clubs,,,8/30/2019 9:09am,8/30/2019 9:35am
98,Body Shop,,14 S. Lime Ave,Sarasota,FL,"(P) - Private club - Inquire locally to admission,(D) - Dancing,(*) - Very popular",Bars/Clubs,,,8/30/2019 9:09am,8/30/2019 9:35am
97,Trade Winds,,233 Central Ave,St. Petersburg,FL,(M) - Mixed Crowds,Bars/Clubs,,,8/30/2019 9:09am,8/30/2019 9:35am
93,Eight-O-Nine Club,(St. Petersberg Beach),809 Gulf Blvd,St. Petersburg,FL,,Bars/Clubs,,,8/30/2019 9:09am,8/30/2019 9:35am
95,Sherwood,,7 N. 1st St.,St. Petersburg,FL,(*) - Very popular,Bars/Clubs,,,8/30/2019 9:09am,8/30/2019 9:35am
100,Landchess Lounge,,1335 Main St. ,Sarasota,FL,(M) - Mixed Crowds,Bars/Clubs,,,8/30/2019 9:09am,8/30/2019 9:35am
104,Carousel,($.50 adm. weekends),1806 W. Platt St. ,Tampa,FL,"(YC) - Young and/or collegiate types,(D) - Dancing,(*) - Very popular",Bars/Clubs,,,8/30/2019 9:09am,8/30/2019 9:35am
103,Adonts,,1100 Florida Ave ,Tampa,FL,"""(C) - Coffee, soft drinks and sometimes food -- usually open late after bars have closed"",(D) - Dancing,(YC) - Young and/or collegiate types",Bars/Clubs,,,8/30/2019 9:09am,8/30/2019 9:35am
101,Duval Hotel Bar,,415 N. Monroe ,Tallahassee,FL,"(M) - Mixed Crowds,(*) - Very popular",Hotels,,,8/30/2019 9:09am,8/30/2019 9:34am
102,Holiday Inn Bar,,1302 Apalachee Pkwy,Tallahassee,FL,"""(H) - Hotel, motel, or other overnight accomodations"",(M) - Mixed Crowds","Hotels,Bars/Clubs",,,8/30/2019 9:09am,12/7/2019 2:06pm
105,Cucujo's,,1725 W. Kennedy Blvd.,Tampa,FL,"""(G) - Girls, but rarely exclusively"",(M) - Mixed Crowds",Bars/Clubs,,,8/30/2019 9:09am,8/30/2019 9:50am
107,Kikiki,,723 Morgan,Tampa,FL,(*) - Very popular,Bars/Clubs,,,8/30/2019 9:09am,8/30/2019 9:50am
106,Golden Anchor,,4504 W. Kennedy Blvd,Tampa,FL,(M) - Mixed Crowds,Bars/Clubs,,,8/30/2019 9:09am,8/30/2019 9:50am
108,Ohio,,Tampa at Polk Sts.,Tampa,FL,(M) - Mixed Crowds,Bars/Clubs,,,8/30/2019 9:09am,8/30/2019 9:50am
109,Turf,,221 Datura,West Palm Beach,FL,(*) - Very popular,Bars/Clubs,,,8/30/2019 9:09am,8/30/2019 9:50am
110,Adrian's Steam Baths,,1000 Peachtree N.E. ,Atlanta,GA,,Baths,,,8/30/2019 9:35am,8/30/2019 9:39am
117,Club South Baths,,76 4th St N.W. ,Atlanta,GA,(*) - Very popular,Baths,,,8/30/2019 9:35am,8/30/2019 9:48am
112,Big Dipper,,738 Ponce de Leon,Atlanta,GA,"""(G) - Girls, but rarely exclusively"",(M) - Mixed Crowds,(RT) - 'Raunchy Types' - usually downtow-type establishments  - can mean 'rent or commecial'",Bars/Clubs,,,8/30/2019 9:35am,8/31/2019 12:02pm
114,Blue Room,,86 Cain N.W. ,Atlanta,GA,"(*) - Very popular,(RT) - 'Raunchy Types' - usually downtow-type establishments  - can mean 'rent or commecial'",Bars/Clubs,,,8/30/2019 9:35am,8/31/2019 12:02pm
113,Blue Lantern,,760 Ponce de Leon,Atlanta,GA,"""(G) - Girls, but rarely exclusively"",(M) - Mixed Crowds",Bars/Clubs,,,8/30/2019 9:35am,8/30/2019 9:50am
121,Joy Lounge,,557 Ponce de Leon,Atlanta,GA,"""(G) - Girls, but rarely exclusively"",(D) - Dancing,(YC) - Young and/or collegiate types,(*) - Very popular",Bars/Clubs,,,8/30/2019 9:35am,8/30/2019 9:50am
124,Mrs. P's ,Ponce De Leon Hotel,551 Pince de Leon,Atlanta,GA,"(S) - Shows - impersonators or record pantomime acts - often touristy,(*) - Very popular","Hotels,Bars/Clubs",,,8/30/2019 9:35am,8/30/2019 9:49am
119,European Health Club,,3001 N. Fulton Dr. ,Atlanta,GA,(*) - Very popular,Bars/Clubs,,,8/30/2019 9:35am,8/30/2019 9:50am
118,Cove,,586 Worcester,Atlanta,GA,"(YC) - Young and/or collegiate types,(D) - Dancing,(*) - Very popular",Bars/Clubs,,,8/30/2019 9:35am,8/30/2019 9:50am
120,Gene & Gabe's,"(popular SUndays)
",1578 Piedmont Ave. ,Atlanta,GA,"""(R) - Restaurant, usually serving dinner. A '*' after this symbol does not necessarily indicate quality of food served, but popularity of the place. "",(BYOB) - Bring your own bottle",Restaurant,,,8/30/2019 9:35am,8/30/2019 9:48am
122,Lion's Head,,1915 Peachtree Rd. N.E. ,Atlanta,GA,"""(R) - Restaurant, usually serving dinner. A '*' after this symbol does not necessarily indicate quality of food served, but popularity of the place. "",(M) - Mixed Crowds,(PE) - Pretty elegant - jacket & tie may be required,(RT) - 'Raunchy Types' - usually downtow-type establishments  - can mean 'rent or commecial'",Restaurant,,,8/30/2019 9:35am,8/31/2019 12:02pm
128,Red Dog Saloon,,3106 Peachtree Rd. N.E.,Atlanta,GA,"""(G) - Girls, but rarely exclusively"",(M) - Mixed Crowds",Bars/Clubs,,,8/30/2019 9:35am,8/30/2019 2:06pm
125,Piccolo,"(burned down -- may or may not reopen?)
",1129 Peachtree St. ,Atlanta,GA,,Bars/Clubs,,,8/30/2019 9:35am,8/30/2019 9:50am
126,Prince George Inn,,114 6th St. N.E. ,Atlanta,GA,"""(R) - Restaurant, usually serving dinner. A '*' after this symbol does not necessarily indicate quality of food served, but popularity of the place. "",(PE) - Pretty elegant - jacket & tie may be required,(*) - Very popular","Hotels,Restaurant",,,8/30/2019 9:35am,8/30/2019 9:49am
137,Johnnie Ganem's,(after hours),501 Habersham,Savannah,GA,"(M) - Mixed Crowds,""(R) - Restaurant, usually serving dinner. A '*' after this symbol does not necessarily indicate quality of food served, but popularity of the place. "",""(C) - Coffee, soft drinks and sometimes food -- usually open late after bars have closed""",Restaurant,,,8/30/2019 9:35am,8/30/2019 2:06pm
132,Fiesta Lounge,,1429 1st Ave.,Columbus,GA,"(*) - Very popular,(YC) - Young and/or collegiate types",Bars/Clubs,,,8/30/2019 9:35am,8/30/2019 2:06pm
136,DeSoto Hilton Hotel Bar,,15 E. Liberty,Savannah,GA,"(M) - Mixed Crowds,(PE) - Pretty elegant - jacket & tie may be required","Hotels,Bars/Clubs",,,8/30/2019 9:35am,8/30/2019 2:06pm
133,Anne & Jamie's Tic Toc,,408 Broadway,Macon,GA,"(D) - Dancing,(*) - Very popular",Bars/Clubs,,,8/30/2019 9:35am,8/30/2019 2:06pm
135,Colonial Lounge,,115 Albecorn,Savannah,GA,"(*) - Very popular,(RT) - 'Raunchy Types' - usually downtow-type establishments  - can mean 'rent or commecial'",Bars/Clubs,,,8/30/2019 9:35am,8/31/2019 12:02pm
138,Madison Square,(above basement),340 Bull,Savannah,GA,"""(R) - Restaurant, usually serving dinner. A '*' after this symbol does not necessarily indicate quality of food served, but popularity of the place. """,Restaurant,,,8/30/2019 9:35am,8/30/2019 2:06pm
134,Basement,,340 Bull,Savannah,GA,"(D) - Dancing,(*) - Very popular",Bars/Clubs,,,8/30/2019 9:35am,8/30/2019 2:06pm
140,Sign of the White Hart,,301 E. President St.,Savannah,GA,"""(R) - Restaurant, usually serving dinner. A '*' after this symbol does not necessarily indicate quality of food served, but popularity of the place. "",(M) - Mixed Crowds,(PE) - Pretty elegant - jacket & tie may be required",Restaurant,,,8/30/2019 9:35am,8/30/2019 2:06pm
139,Rio Lounge,,116 Drayton,Savannah,GA,"(M) - Mixed Crowds,(RT) - 'Raunchy Types' - usually downtow-type establishments  - can mean 'rent or commecial'",Bars/Clubs,,,8/30/2019 9:35am,8/31/2019 12:02pm
142,Kitten's Korner,,19 16th St.,Savannah Beach,GA,(M) - Mixed Crowds,Bars/Clubs,,,8/30/2019 2:07pm,8/30/2019 2:08pm
143,Mouse Trap,,1511 Butler,Savannah Beach,GA,(M) - Mixed Crowds,Bars/Clubs,,,8/30/2019 2:07pm,8/30/2019 2:08pm
146,Jachebo's,(Cellar or Downstairs club),Hwy 32 So. Ft. Mitchell,Covington,KY,"(P) - Private club - Inquire locally to admission,(D) - Dancing,(*) - Very popular",Bars/Clubs,,,8/30/2019 2:07pm,8/30/2019 2:20pm
150,Downtower,,320 W. Chestnut St. ,Louisville,KY,(*) - Very popular,Bars/Clubs,,,8/30/2019 2:07pm,8/30/2019 2:20pm
152,Queen Bee,,730 Logan,Louisville,KY,"(P) - Private club - Inquire locally to admission,(D) - Dancing,(S) - Shows - impersonators or record pantomime acts - often touristy,(*) - Very popular",Bars/Clubs,,,8/30/2019 2:07pm,8/30/2019 2:20pm
151,Masterson's Steak House,"(after hours)
",1803 S. 3rd St. ,Louisville,KY,"""(C) - Coffee, soft drinks and sometimes food -- usually open late after bars have closed"",(YC) - Young and/or collegiate types",Restaurant,,,8/30/2019 2:07pm,8/30/2019 2:19pm
149,Living Room,(closes 1am),24 E. Main St. ,Lexington,KY,(*) - Very popular,Bars/Clubs,,,8/30/2019 2:07pm,8/30/2019 2:20pm
158,Frances Hotel Bar,(downstairs),300 Harrison,Monroe,LA,,Hotels,,,8/30/2019 2:07pm,8/30/2019 2:26pm
155,The Den,,5569 Greenwell Spgs. Rd.,Baton Rouge,LA,(*) - Very popular,Bars/Clubs,,,8/30/2019 2:07pm,8/30/2019 2:26pm
153,Windson Hotel Steam Baths,,926 S. 5th St. ,Louisville,KY,,Baths,,,8/30/2019 2:07pm,8/30/2019 2:18pm
154,Bungalow,,557 3rd St,Baton Rouge,LA,(*) - Very popular,Bars/Clubs,,,8/30/2019 2:07pm,8/30/2019 2:26pm
165,Galley House,,542 Chartres St.,New Orleans,LA,(*) - Very popular,Bars/Clubs,,,8/30/2019 2:07pm,8/31/2019 10:34am
160,Canal Baths,,512 Gravier,New Orleans,LA,,Baths,,,8/30/2019 2:07pm,8/30/2019 2:26pm
161,Cavern's,,901 Bourbon St. ,New Orleans,LA,,Bars/Clubs,,,8/30/2019 2:07pm,8/30/2019 2:26pm
163,Fatted Calf,,727 St. Peter St. ,New Orleans,LA,"""(R) - Restaurant, usually serving dinner. A '*' after this symbol does not necessarily indicate quality of food served, but popularity of the place. "",(M) - Mixed Crowds",Restaurant,,,8/30/2019 2:07pm,8/31/2019 10:33am
164,French Bull,(also Zodiac Room),700 N. Rampart,New Orleans,LA,(P) - Private club - Inquire locally to admission,Bars/Clubs,,,8/30/2019 2:07pm,8/31/2019 10:34am
162,Coffee Pot,,714 St. Peter St. ,New Orleans,LA,"""(R) - Restaurant, usually serving dinner. A '*' after this symbol does not necessarily indicate quality of food served, but popularity of the place. """,Restaurant,,,8/30/2019 2:07pm,8/30/2019 2:26pm
168,Kookie's,,1210 N. Rampart,New Orleans,LA,"""(G) - Girls, but rarely exclusively""",Bars/Clubs,,,8/30/2019 2:07pm,8/31/2019 10:34am
171,Manny's Den,,740 Burgandy St. ,New Orleans,LA,,Bars/Clubs,,,8/30/2019 2:07pm,8/31/2019 10:34am
167,Grog,,718 N. Rampart,New Orleans,LA,"""(G) - Girls, but rarely exclusively""",Bars/Clubs,,,8/30/2019 2:07pm,8/31/2019 10:34am
172,Miss Juice's lounge,(Big Wanda's),615 Iberville,New Orleans,LA,,Bars/Clubs,,,8/30/2019 2:07pm,8/31/2019 10:34am
170,Lafitte's Annex,,740 Burgandy St. ,New Orleans,LA,,Bars/Clubs,,,8/30/2019 2:07pm,8/31/2019 10:34am
169,Lafitte's in Exile,,901 Bourbon St.,New Orleans,LA,(*) - Very popular,Bars/Clubs,,,8/30/2019 2:07pm,8/31/2019 10:34am
166,Golden Lantern,,1239 Royal St.,New Orleans,LA,,Bars/Clubs,,,8/30/2019 2:07pm,8/31/2019 10:34am
173,Mr. D's,,600 Dauphine St.,New Orleans,LA,"""(G) - Girls, but rarely exclusively"",(RT) - 'Raunchy Types' - usually downtow-type establishments  - can mean 'rent or commecial'",Bars/Clubs,,,8/30/2019 2:07pm,8/31/2019 12:02pm
180,Western Hills Motel Bar,(Bosier City),3515 E. Texas ,Shreveport,LA,(M) - Mixed Crowds,"Hotels,Bars/Clubs",,,8/30/2019 2:07pm,8/31/2019 10:33am
177,Speakeasy,,834 N. Rampart,New Orleans,LA,"(M) - Mixed Crowds,(S) - Shows - impersonators or record pantomime acts - often touristy",Bars/Clubs,,,8/30/2019 2:07pm,8/31/2019 10:34am
179,Bobby's Korner,,800 Louisiana ,Shreveport,LA,(*) - Very popular,Bars/Clubs,,,8/30/2019 2:07pm,8/31/2019 10:34am
175,Pete's Place,,800 Bourbon St. ,New Orleans,LA,"(YC) - Young and/or collegiate types,(*) - Very popular",Bars/Clubs,,,8/30/2019 2:07pm,8/31/2019 10:34am
178,Wanda's,,704 Iberville,New Orleans,LA,(RT) - 'Raunchy Types' - usually downtow-type establishments  - can mean 'rent or commecial',Bars/Clubs,,,8/30/2019 2:07pm,8/31/2019 12:02pm
181,Mary Mahoney's Old French House,,138 Magnolia St. ,Biloxi,MS,"""(R) - Restaurant, usually serving dinner. A '*' after this symbol does not necessarily indicate quality of food served, but popularity of the place. "",(M) - Mixed Crowds,(PE) - Pretty elegant - jacket & tie may be required",Restaurant,,,8/30/2019 2:07pm,8/31/2019 10:34am
174,Mom's Society Page,,819 St. Louis St. ,New Orleans,LA,"(*) - Very popular,(RT) - 'Raunchy Types' - usually downtow-type establishments  - can mean 'rent or commecial'",Bars/Clubs,,,8/30/2019 2:07pm,8/31/2019 12:02pm
185,Islander,,505 23rd Ave.,Meridian,MS,,Bars/Clubs,,,8/30/2019 2:07pm,8/31/2019 10:41am
183,Wilma's Entertainment Lounge,,2300 Hewes Ave.,Gulfport,MS,,Bars/Clubs,,,8/30/2019 2:07pm,8/31/2019 10:41am
187,Barringer Inn Bar,,426 N. Tyson,Charlotte,NC,(M) - Mixed Crowds,"Hotels,Bars/Clubs",,,8/30/2019 2:07pm,8/31/2019 10:41am
192,General Greene Bar,,253 N. Greene St.,Greensboro,NC,,Bars/Clubs,,,8/30/2019 2:07pm,8/31/2019 10:51am
191,Stein Room,Holiday Inn,422 Eastern Blvd,Fayetteville,NC,(M) - Mixed Crowds,"Hotels,Bars/Clubs",,,8/30/2019 2:07pm,8/31/2019 10:41am
200,Territorial Social Club,(Midge's),2717 Two Notch Rd. ,Columbia,SC,(*) - Very popular,Bars/Clubs,,,8/30/2019 2:07pm,8/31/2019 10:51am
201,The Lounge,,1103 Lady St. ,Columbia,SC,"(YC) - Young and/or collegiate types,(*) - Very popular",Bars/Clubs,,,8/30/2019 2:07pm,8/31/2019 10:51am
197,Stardust Lounge ,,33 Hayne,Charleston,SC,"(P) - Private club - Inquire locally to admission,(*) - Very popular",Bars/Clubs,,,8/30/2019 2:07pm,8/31/2019 10:51am
198,Wagon Wheel,,336 King St.,Charleston,SC,,Bars/Clubs,,,8/30/2019 2:07pm,8/31/2019 10:51am
205,Cross Keys,,1129 Market St. ,Chattanooga,TN,(*) - Very popular,,,,8/30/2019 2:07pm,8/31/2019 10:52am
206,Pizza Palace,,3101 Brainerd Rd.,Chattanooga,TN,(M) - Mixed Crowds,Restaurant,,,8/30/2019 2:07pm,8/31/2019 10:55am
203,Beach Towel,,403 1st Ave N. ,Myrtle Beach,SC,(*) - Very popular,Bars/Clubs,,,8/30/2019 2:07pm,8/31/2019 10:51am
211,Famous Door Lounge,,1786 Madison Ave,Memphis,TN,"""(G) - Girls, but rarely exclusively""",Bars/Clubs,,,8/31/2019 10:50am,8/31/2019 10:56am
212,Entre Nuit,,265 S. Cleveland,Memphis,TN,"""(R) - Restaurant, usually serving dinner. A '*' after this symbol does not necessarily indicate quality of food served, but popularity of the place. "",(*) - Very popular",Bars/Clubs,,,8/31/2019 10:50am,8/31/2019 10:56am
208,Andrew Jackson Hotel Bar,,918 Gay St.  S.W.,Knoxville,TN,(M) - Mixed Crowds,"Hotels,Bars/Clubs",,,8/31/2019 10:50am,8/31/2019 10:55am
213,Hi Hat Lounge,,604 Commerce,Nashville,TN,(M) - Mixed Crowds,Bars/Clubs,,,8/31/2019 10:50am,8/31/2019 10:56am
210,Huddle,,219 Cumberland Ave S.W. ,Knoxville,TN,(*) - Very popular,Bars/Clubs,,,8/31/2019 10:50am,8/31/2019 10:56am
218,Pearl Street Mother Pearl,,2422 S. 1st St.,Austin,TX,"""(G) - Girls, but rarely exclusively""",Bars/Clubs,,,8/31/2019 10:50am,8/31/2019 11:12am
215,Jungle Lounge,(best after midnight),715 Commerce,Nashville,TN,(*) - Very popular,Bars/Clubs,,,8/31/2019 10:50am,8/31/2019 10:56am
214,Juanita's,,713 Commerce,Nashville,TN,(*) - Very popular,Bars/Clubs,,,8/31/2019 10:50am,8/31/2019 10:56am
219,Pearl Street Warehouse,"(semi-private)($1.00 adm.) (use side door on 18th, off Lavaca)",1720 Lavaca,Austin,TX,"(YC) - Young and/or collegiate types,(D) - Dancing,(*) - Very popular",Bars/Clubs,,,8/31/2019 10:50am,8/31/2019 11:12am
216,Back Door Lounge,(Some (G) also) (Use back entrance -- ususally closes weekdays about 1am; also very cruisy by cars in this area.),408 E. 10th St.,Amarillo,TX,"(D) - Dancing,(*) - Very popular,""(G) - Girls, but rarely exclusively""","Bars/Clubs,Cruising Areas",,,8/31/2019 10:50am,12/7/2019 2:07pm
217,Apartment Bar,(No sign - looks like private house - use rear entrance) (this is near Guadalupe & 29th),2828 Rio Grande,Austin,TX,"(D) - Dancing,(*) - Very popular",Bars/Clubs,,,8/31/2019 10:50am,8/31/2019 11:12am
223,Maison Rouge,,1009 Santa Fe. ,Corpus Christi,TX,(*) - Very popular,Bars/Clubs,,,8/31/2019 10:50am,8/31/2019 11:12am
226,Bayou,,3717 Rawlins,Dallas,TX,"(D) - Dancing,(YC) - Young and/or collegiate types,(P) - Private club - Inquire locally to admission,(*) - Very popular",Bars/Clubs,,,8/31/2019 10:50am,8/31/2019 11:12am
229,Gallery One,,3113 Live Oak,Dallas,TX,,Bars/Clubs,,,8/31/2019 10:50am,8/31/2019 11:12am
227,Bev's,,4737 Maple,Dallas,TX,"(D) - Dancing,(P) - Private club - Inquire locally to admission",Bars/Clubs,,,8/31/2019 10:50am,8/31/2019 11:12am
225,Atlantis,,2116 N. Field at Cedar Spags.,Dallas,TX,"(D) - Dancing,(YC) - Young and/or collegiate types,(P) - Private club - Inquire locally to admission,(*) - Very popular",Bars/Clubs,,,8/31/2019 10:50am,8/31/2019 11:12am
228,Club Bon Soir,,5601 W. Lovers Lane,Dallas,TX,,Bars/Clubs,,,8/31/2019 10:50am,8/31/2019 11:12am
230,Gene's Music Box,(also (C) after hours),307 S. Akard,Dallas,TX,"""(C) - Coffee, soft drinks and sometimes food -- usually open late after bars have closed"",(RT) - 'Raunchy Types' - usually downtow-type establishments  - can mean 'rent or commecial'",Bars/Clubs,,,8/31/2019 10:50am,8/31/2019 12:02pm
222,Ronnie's Bamboo Room,,219 N. Frazier,Conroe,TX,,Bars/Clubs,,,8/31/2019 10:50am,8/31/2019 11:12am
224,Aquarius,(after hours),4729 Maple,Dallas,TX,"(D) - Dancing,(YC) - Young and/or collegiate types,(P) - Private club - Inquire locally to admission,(*) - Very popular",Bars/Clubs,,,8/31/2019 10:50am,8/31/2019 11:12am
236,Ronsue's,(called Ronnie Sue's),3236 McKinney,Dallas,TX,(*) - Very popular,Bars/Clubs,,,8/31/2019 10:50am,8/31/2019 11:12am
232,Horseshoe,,1305 Commerce,Dallas,TX,(M) - Mixed Crowds,Bars/Clubs,,,8/31/2019 10:50am,8/31/2019 11:12am
234,Lil Tiff's,,2906 N. Henderson,Dallas,TX,"""(G) - Girls, but rarely exclusively""",Bars/Clubs,,,8/31/2019 10:50am,8/31/2019 11:12am
235,Lone Star Drive In,"(after hours)
",6412 Lemmon,Dallas,TX,"""(C) - Coffee, soft drinks and sometimes food -- usually open late after bars have closed""",Other,,,8/31/2019 10:50am,8/31/2019 11:12am
233,Jeno's,,4818 Gaston,Dallas,TX,(M) - Mixed Crowds,Bars/Clubs,,,8/31/2019 10:50am,8/31/2019 11:12am
238,T.J.'s,"(That Joint)
",3307 McKinney,Dallas,TX,(*) - Very popular,Bars/Clubs,,,8/31/2019 10:50am,8/31/2019 11:12am
239,Trio Coffee Shop,(after hours),3541 McKinney,Dallas,TX,,Restaurant,,,8/31/2019 10:50am,8/31/2019 11:12am
240,Villa Fontana,near Live Oak,1315 Skiles,Dallas,TX,(*) - Very popular,Bars/Clubs,,,8/31/2019 10:50am,8/31/2019 11:12am
241,Apartment,,815 Myrtle,El Paso,TX,,Bars/Clubs,,,8/31/2019 10:50am,8/31/2019 11:49am
242,Checkmate,,716 E. San Antonio,El Paso,TX,"(D) - Dancing,(*) - Very popular",Bars/Clubs,,,8/31/2019 10:50am,8/31/2019 11:49am
237,Swinger,,4419 Live Oak,Dallas,TX,(*) - Very popular,Bars/Clubs,,,8/31/2019 10:50am,8/31/2019 11:12am
243,Club Pigalle,,613 E. San Antonio,El Paso,TX,(S) - Shows - impersonators or record pantomime acts - often touristy,Bars/Clubs,,,8/31/2019 10:50am,8/31/2019 11:49am
244,D & M Bar,,501 S. Mesa,El Paso,TX,"""(G) - Girls, but rarely exclusively"",(M) - Mixed Crowds",Bars/Clubs,,,8/31/2019 10:50am,8/31/2019 11:49am
246,Le Milord,,606 Magoffin,El Paso,TX,(*) - Very popular,Bars/Clubs,,,8/31/2019 10:50am,8/31/2019 11:49am
248,El Toga,,5563 Jacksboro Hwy.,Ft. Worth,TX,"""(G) - Girls, but rarely exclusively"",(P) - Private club - Inquire locally to admission,(D) - Dancing,(*) - Very popular",Bars/Clubs,,,8/31/2019 11:13am,8/31/2019 11:49am
249,Old House,(8 mi. W. on U.S. 80 & 180),9905 Weatherford Hwy.,Ft. Worth,TX,"(P) - Private club - Inquire locally to admission,(D) - Dancing,(*) - Very popular",Bars/Clubs,,,8/31/2019 11:13am,8/31/2019 11:49am
250,Other Place,,3026 W. Lancaster,Ft. Worth,TX,(*) - Very popular,Bars/Clubs,,,8/31/2019 11:17am,8/31/2019 11:49am
256,Athen's,(Waterfront Docks),8037 Clinton Dr.,Houston,TX,"(M) - Mixed Crowds,(RT) - 'Raunchy Types' - usually downtow-type establishments  - can mean 'rent or commecial'",Bars/Clubs,,,8/31/2019 11:17am,8/31/2019 12:02pm
253,Kon Tiki,,215 19th St.,Galveston,TX,"(P) - Private club - Inquire locally to admission,(D) - Dancing,(*) - Very popular",Bars/Clubs,,,8/31/2019 11:17am,8/31/2019 11:50am
251,Ruby's Drive Inn,(after hours),9901 Weatherford Hwy.,Ft. Worth,TX,"""(C) - Coffee, soft drinks and sometimes food -- usually open late after bars have closed"",""(R) - Restaurant, usually serving dinner. A '*' after this symbol does not necessarily indicate quality of food served, but popularity of the place. """,Restaurant,,,8/31/2019 11:17am,8/31/2019 11:37am
254,Lafitte's,"(after hours)
 (25th)",411 Rosenberg,Galveston,TX,(P) - Private club - Inquire locally to admission,Bars/Clubs,,,8/31/2019 11:17am,8/31/2019 11:50am
255,Art Wren's,(after hours),616 Westheimer,Houston,TX,"""(C) - Coffee, soft drinks and sometimes food -- usually open late after bars have closed""",Bars/Clubs,,,8/31/2019 11:17am,8/31/2019 11:50am
257,Blue Star,(after hours),800 Elgin,Houston,TX,"""(C) - Coffee, soft drinks and sometimes food -- usually open late after bars have closed""",Bars/Clubs,,,8/31/2019 11:17am,8/31/2019 11:50am
252,Six-Fifty-One Club,,651 S. Jennings,Ft. Worth,TX,(*) - Very popular,Bars/Clubs,,,8/31/2019 11:17am,8/31/2019 11:49am
264,La Boheme,,1504 Westheimer,Houston,TX,,Bars/Clubs,,,8/31/2019 11:17am,8/31/2019 11:50am
261,Exile,,1011 Bell,Houston,TX,(*) - Very popular,Bars/Clubs,,,8/31/2019 11:17am,8/31/2019 11:50am
263,Gold Room,,2802 Austin,Houston,TX,"(B) - Blacks predominate,(*) - Very popular",Bars/Clubs,,,8/31/2019 11:17am,8/31/2019 11:50am
262,Galleon,,2720 Richmond Ave,Houston,TX,(*) - Very popular,Bars/Clubs,,,8/31/2019 11:17am,8/31/2019 11:50am
259,Club Romulus,,2151 Richmond Ave.,Houston,TX,"(P) - Private club - Inquire locally to admission,(D) - Dancing,(YC) - Young and/or collegiate types,(*) - Very popular",Bars/Clubs,,,8/31/2019 11:17am,8/31/2019 11:50am
266,La Carafe,(Old Market Sq),813 Congress,Houston,TX,"(M) - Mixed Crowds,(PE) - Pretty elegant - jacket & tie may be required",Bars/Clubs,,,8/31/2019 11:17am,8/31/2019 11:50am
267,Les Quartre Saisons,(Old Market Sq),316 Milam,Houston,TX,"(M) - Mixed Crowds,(PE) - Pretty elegant - jacket & tie may be required",Bars/Clubs,,,8/31/2019 11:17am,8/31/2019 11:50am
268,Midtown Lounge,,2923 Main St. ,Houston,TX,,Bars/Clubs,,,8/31/2019 11:17am,8/31/2019 11:50am
269,Numbers,(Seagull),1003 California,Houston,TX,,Bars/Clubs,,,8/31/2019 11:17am,8/31/2019 11:50am
265,La Caja,(back patio popular on Sunday afternoons),1104 Tuam,Houston,TX,(*) - Very popular,Bars/Clubs,,,8/31/2019 11:17am,8/31/2019 11:50am
270,Pink Elephant,,1218 Leland,Houston,TX,(RT) - 'Raunchy Types' - usually downtow-type establishments  - can mean 'rent or commecial',Bars/Clubs,,,8/31/2019 11:17am,8/31/2019 12:02pm
271,Plantation Club,(use back entrance from Chelsea),4701 Montrose,Houston,TX,"(YC) - Young and/or collegiate types,(D) - Dancing,(P) - Private club - Inquire locally to admission,(*) - Very popular",Bars/Clubs,,,8/31/2019 11:17am,8/31/2019 11:50am
276,Round Table,,507 Westheimer,Houston,TX,,Bars/Clubs,,,8/31/2019 11:17am,8/31/2019 11:50am
272,Red Room,,612 Hadley,Houston,TX,(*) - Very popular,Bars/Clubs,,,8/31/2019 11:17am,8/31/2019 11:50am
274,Romulus,(see Club Romulus),2151 Richmond Ave,Houston,TX,(*) - Very popular,Bars/Clubs,,,8/31/2019 11:17am,8/31/2019 11:50am
273,Roaring Sixties,,2305 S. Shepherd,Houston,TX,"""(G) - Girls, but rarely exclusively""",Bars/Clubs,,,8/31/2019 11:17am,8/31/2019 11:50am
277,Scene I.,,1904 S. Shepherd,Houston,TX,,Bars/Clubs,,,8/31/2019 11:17am,8/31/2019 11:50am
280,Tradewind's,,706 Elgin,Houston,TX,,Bars/Clubs,,,8/31/2019 11:17am,8/31/2019 11:50am
283,Duffy's,,5 S. 16th St. ,McAllen,TX,(M) - Mixed Crowds,Bars/Clubs,,,8/31/2019 11:17am,8/31/2019 11:50am
282,Regency III Country Club,(off Hwy. 59),15312 Lee Road,Humble,TX,,Bars/Clubs,,,8/31/2019 11:17am,8/31/2019 11:50am
281,Woodrow Hotel,,1412 Fannin,Houston,TX,"(M) - Mixed Crowds,""(H) - Hotel, motel, or other overnight accomodations""","Hotels,Bars/Clubs",,,8/31/2019 11:17am,8/31/2019 11:40am
279,Surf,(best Sun. aft.),2909 Main,Houston,TX,,Bars/Clubs,,,8/31/2019 11:17am,8/31/2019 11:50am
278,Simpson's Dining Car,"(after hours)
",1413 Main,Houston,TX,"""(C) - Coffee, soft drinks and sometimes food -- usually open late after bars have closed"",""(R) - Restaurant, usually serving dinner. A '*' after this symbol does not necessarily indicate quality of food served, but popularity of the place. """,Restaurant,,,8/31/2019 11:17am,8/31/2019 11:39am
291,Cork Room,,411 N. St. Mary's,San Antonio,TX,,Bars/Clubs,,,8/31/2019 11:17am,8/31/2019 11:50am
288,Arena Club,,3123 Broadway,San Antonio,TX,"(YC) - Young and/or collegiate types,(*) - Very popular",Bars/Clubs,,,8/31/2019 11:17am,8/31/2019 11:50am
289,Buddha Lounge,,2315 San pedro,San Antonio,TX,"""(G) - Girls, but rarely exclusively""",Bars/Clubs,,,8/31/2019 11:17am,8/31/2019 11:50am
284,Friendly Lounge,,106 E. Hwy.,McAllen,TX,,Bars/Clubs,,,8/31/2019 11:17am,8/31/2019 11:50am
290,Christopher,,722 S. St Mary's,San Antonio,TX,"(D) - Dancing,(*) - Very popular",Bars/Clubs,,,8/31/2019 11:17am,8/31/2019 11:50am
287,Skylite Bar,,315 N. Jackson,Odessa,TX,(*) - Very popular,Bars/Clubs,,,8/31/2019 11:17am,8/31/2019 11:50am
292,El Jardin,,106 Navarro,San Antonio,TX,(*) - Very popular,Bars/Clubs,,,8/31/2019 11:17am,8/31/2019 11:50am
294,Paul's Grove,(weekends),about 25 mi. near Helotes,San Antonio,TX,"(P) - Private club - Inquire locally to admission,(D) - Dancing,(*) - Very popular,(YC) - Young and/or collegiate types",Bars/Clubs,,,8/31/2019 11:17am,8/31/2019 11:50am
293,Mary Ellan's,(also some (G) ),139 Fredericksburg Rd.,San Antonio,TX,"""(G) - Girls, but rarely exclusively""",Bars/Clubs,,,8/31/2019 11:17am,8/31/2019 11:50am
305,Tradewinds,,717 Franklin Rd. S.W. ,Roanoke,VA,"(M) - Mixed Crowds,""(G) - Girls, but rarely exclusively""",Bars/Clubs,,,8/31/2019 11:17am,8/31/2019 11:50am
300,Continental,,111 W. Tazewell,Norfolk,VA,(*) - Very popular,Bars/Clubs,,,8/31/2019 11:17am,8/31/2019 11:50am
304,Travelers Grill,,317 5th St.,Richmond,VA,(*) - Very popular,Restaurant,,,8/31/2019 11:17am,8/31/2019 11:48am
303,Tiger Lounge,,7726 Hampton,Norfolk,VA,"(M) - Mixed Crowds,(RT) - 'Raunchy Types' - usually downtow-type establishments  - can mean 'rent or commecial'",Bars/Clubs,,,8/31/2019 11:17am,8/31/2019 12:02pm
302,Ritz Bar,,135 Brooke,Norfolk,VA,"(YC) - Young and/or collegiate types,(*) - Very popular",Bars/Clubs,,,8/31/2019 11:17am,8/31/2019 11:50am