ID,title,description,streetaddress,city,state,amenityfeatures,type,unclearaddress,notes,dateadded,lastmodified
3,Pete's,,816 Opalika Rd,Auburn,AL,(M) - Mixed or partially straight,Bars/Clubs,,,10/25/2019 8:58am,11/10/2019 1:29pm
4,Chances R Lounge,"

",208 N. 23rd St. ,Birmingham,AL,"(D) - Dancing,(S) - Shows . . . impersonators or record pantomime acts . . . often touristy",Bars/Clubs,,,10/25/2019 8:58am,11/10/2019 1:29pm
5,Coming Attractions,,318 S. 14th St. ,Birmingham,AL,,Bars/Clubs,,,10/25/2019 8:58am,11/10/2019 1:29pm
8,Matador,,208 N. 22nd St.,Birmingham,AL,,Bars/Clubs,,,10/25/2019 8:58am,11/10/2019 1:30pm
6,Gizmo,,909 S. 22nd St.,Birmingham,AL,,Bars/Clubs,,,10/25/2019 8:58am,11/10/2019 1:29pm
13,Upstairs Bar,"Heart of Dothan Motel
",314 N. Foster,Dothan,AL,(M) - Mixed or partially straight,"Bars/Clubs,Hotels",,,10/25/2019 8:58am,12/15/2019 4:52pm
17,Jet Star,,3413 S. Memorial Parkway,Huntsville,AL,(*) - Very popular,Bars/Clubs,,,10/25/2019 8:58am,11/10/2019 1:30pm
16,Escape Lounge,(unfriendly management),1313 Memorial Parkway,Huntsville,AL,(M) - Mixed or partially straight,Bars/Clubs,,,10/25/2019 8:58am,11/10/2019 1:30pm
20,Goldenrod Social Club,,155 Government St.,Mobile,AL,"(YC) - Young and/or collegiate types,""(C) - Coffee, soft drinks and sometimes snacks"",(AH) - After Hours,(WE) - Weekends,(*) - Very popular",Bars/Clubs,,,10/25/2019 8:58am,11/10/2019 1:38pm
22,Princess House Lounge,,254 Government St. ,Mobile,AL,"(M) - Mixed or partially straight,""(RT) - 'Raunchy types' - Hustlers, drags and other downtown type places - often hustlers"",(B) - Blacks frequent,""(G) - Girls/Ms, but seldom exclusively"",(S) - Shows . . . impersonators or record pantomime acts . . . often touristy",Bars/Clubs,,,10/25/2019 8:58am,11/10/2019 1:38pm
19,Fireside,,54 S. Conception,Mobile,AL,"(YC) - Young and/or collegiate types,(D) - Dancing,(*) - Very popular",Bars/Clubs,,,10/25/2019 8:58am,11/10/2019 1:38pm
26,Chucker's,,2121 6th St.,Tuscaloosa,AL,"(M) - Mixed or partially straight,(YC) - Young and/or collegiate types",Bars/Clubs,,,10/25/2019 8:58am,11/6/2019 5:57am
30,George's Lounge,,519 W. Dickson,Fayetteville,AR,"(M) - Mixed or partially straight,(YC) - Young and/or collegiate types,(*) - Very popular",Bars/Clubs,,,10/25/2019 8:58am,11/6/2019 6:01am
34,Peacock Lounge,,220 Central Ave,Hot Springs,AR,,Bars/Clubs,,,10/25/2019 8:58am,11/6/2019 6:01am
35,Royal Lion Club,(Open Th-F-Sat only) ,236 Quachita ,Hot Springs,AR,"(P) - Private club - Inquire locally to admission,(D) - Dancing,""(G) - Girls/Ms, but seldom exclusively""",Bars/Clubs,,,10/25/2019 8:58am,11/6/2019 6:01am
44,Our Place,,4430 N. Banana River Rd,Cocoa Beach,FL,,Bars/Clubs,,,10/25/2019 8:58am,11/6/2019 6:05am
42,New State Bar,,16 S. Garden Ave.,Clearwater,FL,,Bars/Clubs,,,10/25/2019 8:58am,11/6/2019 6:05am
41,Drop in Lounge,,2915 Gulf-to-Bay Blvd,Clearwater,FL,(*) - Very popular,Bars/Clubs,,,10/25/2019 8:58am,11/6/2019 6:05am
49,Bull Pen,"('Midnight Cowboys')
",516 Main St.,Daytona Beach,FL,(*) - Very popular,Bars/Clubs,,,10/25/2019 8:58am,11/8/2019 1:40pm
46,The Landing,,2351 Federal Hwy,Dania,FL,,Bars/Clubs,,,10/25/2019 8:58am,11/8/2019 1:40pm
51,Damien's Yum Yum Tree,"(Holly Hill)
",703 N. Ridgewood ,Daytona Beach,FL,"""(G) - Girls/Ms, but seldom exclusively"",(D) - Dancing,(S) - Shows . . . impersonators or record pantomime acts . . . often touristy,(*) - Very popular",Bars/Clubs,,,10/25/2019 8:58am,11/8/2019 1:40pm
53,Hollywood Lounge,415 Main St.,415 Main St.,Daytona Beach,FL,"(YC) - Young and/or collegiate types,(D) - Dancing,(S) - Shows . . . impersonators or record pantomime acts . . . often touristy,(*) - Very popular",Bars/Clubs,,,10/25/2019 8:58am,11/8/2019 1:40pm
61,Full Moon Lounge,,708 N. Federal Hwy,Ft. Lauderdale,FL,,Bars/Clubs,,,10/25/2019 8:58am,11/8/2019 1:40pm
60,Everglades,(S. Federal Hwy),1931 S.E. 6th Ave,Ft. Lauderdale,FL,,Bars/Clubs,,,10/25/2019 8:58am,11/8/2019 1:40pm
63,Grotto,,1914 E. Oakland,Ft. Lauderdale,FL,(D) - Dancing,Bars/Clubs,,,10/25/2019 8:58am,11/8/2019 1:40pm
68,Nero's Massage Salon,,1919 S. Federal Hwy,Ft. Lauderdale,FL,,Bars/Clubs,,,10/25/2019 8:58am,11/8/2019 1:40pm
73,Tunnel Bar,,545 S.E. 6th Ave,Ft. Lauderdale,FL,(D) - Dancing,Bars/Clubs,,,10/25/2019 8:58am,11/8/2019 1:40pm
72,Saloon,"(thru arcade)
",219 S.W. 1st Ave,Ft. Lauderdale,FL,"(OC) - Older/More Mature Crowd,(*) - Very popular",Bars/Clubs,,,10/25/2019 8:58am,11/8/2019 1:40pm
69,Odds & Ends,(Oakland Park) ,3148 N.E. 12th Ave.,Ft. Lauderdale,FL,"(*) - Very popular,""(G) - Girls/Ms, but seldom exclusively""",Bars/Clubs,,,10/25/2019 8:58am,11/8/2019 1:40pm
75,Zanzibar,,214 S.W. 1st Ave,Ft. Lauderdale,FL,(OC) - Older/More Mature Crowd,Bars/Clubs,,,10/25/2019 8:58am,11/8/2019 1:40pm
82,Melody Club,,4130 N.W. 6th St. ,Gainsville,FL,(*) - Very popular,Bars/Clubs,,,10/25/2019 8:58am,11/8/2019 1:40pm
86,Back Room,(is in the back room),800 N. Federal Hwy,Hallandale,FL,"""(G) - Girls/Ms, but seldom exclusively"",(D) - Dancing",Bars/Clubs,,,10/25/2019 8:58am,11/8/2019 1:40pm
81,Club,,1514 Jackson,Ft. Myers,FL,"(P) - Private club - Inquire locally to admission,(YC) - Young and/or collegiate types,(D) - Dancing,(BYOB) - Bring your own bottle,(*) - Very popular",Bars/Clubs,,,10/25/2019 8:58am,11/8/2019 1:40pm
88,Keith's Cruise Room,(Old Dixie Hwy) (Disco) (go-go boys),813 S.E. 1st Ave,Hallandale,FL,"(YC) - Young and/or collegiate types,(D) - Dancing,(*) - Very popular",Bars/Clubs,,,10/25/2019 8:58am,11/8/2019 1:40pm
89,Patsy's Club 79,,766 E. 25th St.,Hilaleah,FL,"""(G) - Girls/Ms, but seldom exclusively"",(M) - Mixed or partially straight",Bars/Clubs,,,10/25/2019 8:58am,11/8/2019 1:40pm
87,Five-O-One Club,,501 N. Federal Hwy,Hallandale,FL,"(S) - Shows . . . impersonators or record pantomime acts . . . often touristy,(D) - Dancing",Bars/Clubs,,,10/25/2019 8:58am,11/8/2019 1:40pm
90,Ivy Inn,,1224 S. Dixie Hwy,Hollywood,FL,,Bars/Clubs,,,10/25/2019 8:58am,11/8/2019 1:40pm
92,Odds 'n' Ends Executive Room,,715 S.W. 21st Ave,Hollywood,FL,,Bars/Clubs,,,10/25/2019 8:58am,11/8/2019 1:40pm
94,Top's,(disco),2027 Pembroke Rd.,Hollywood,FL,"(D) - Dancing,(S) - Shows . . . impersonators or record pantomime acts . . . often touristy",Bars/Clubs,,,10/25/2019 8:58am,11/8/2019 1:40pm
96,Brothers,,484 May St. ,Jacksonville,FL,"(W) - Western or coyboy types,(YC) - Young and/or collegiate types,(D) - Dancing",Bars/Clubs,,,10/25/2019 8:58am,11/8/2019 1:40pm
93,Tee Jay's ,"(disco)
",2100 N. Dixie Hwy,Hollywood,FL,"(YC) - Young and/or collegiate types,(D) - Dancing,""(C) - Coffee, soft drinks and sometimes snacks"",(AH) - After Hours",Bars/Clubs,,,10/25/2019 8:58am,11/8/2019 1:40pm
100,French Quarter,(disco),527 Main St.,Jacksonville,FL,"(YC) - Young and/or collegiate types,(D) - Dancing,(S) - Shows . . . impersonators or record pantomime acts . . . often touristy,(*) - Very popular",Bars/Clubs,,,10/25/2019 8:58am,11/8/2019 1:40pm
101,Inner Sanctum ,,2952 Roosevelt ,Jacksonville,FL,,Bars/Clubs,,,10/25/2019 8:58am,11/8/2019 1:40pm
108,Top of the Tides,(upstairs),411 1st St.,Jacksonville Beach,FL,"(YC) - Young and/or collegiate types,(D) - Dancing,(S) - Shows . . . impersonators or record pantomime acts . . . often touristy,(*) - Very popular",Bars/Clubs,,,11/6/2019 6:38am,11/8/2019 1:40pm
107,Bo's Crowbar,,504 N. 1st St.,Jacksonville Beach,FL,"(YC) - Young and/or collegiate types,(D) - Dancing,(*) - Very popular",Bars/Clubs,,,11/6/2019 6:38am,11/8/2019 1:40pm
111,Delmonico's ,,218 Duval,Key West,FL,"(YC) - Young and/or collegiate types,""(G) - Girls/Ms, but seldom exclusively"",(D) - Dancing,(*) - Very popular",Bars/Clubs,,,11/6/2019 6:38am,11/8/2019 1:40pm
118,Music Box,,628 Lake Ave,Lake Worth,FL,(*) - Very popular,Bars/Clubs,,,11/6/2019 6:38am,11/8/2019 1:40pm
119,My Brother's Place,,13437 Gulf Blvd.,Madeira Beach,FL,,Bars/Clubs,,,11/6/2019 6:38am,11/8/2019 1:40pm
123,Carnival ,(Latins),137 N.E. 3rd Ave,Miami,FL,"""(RT) - 'Raunchy types' - Hustlers, drags and other downtown type places - often hustlers""",Bars/Clubs,,,11/6/2019 6:38am,11/8/2019 1:40pm
127,El Carol,,930 Le Jeune Rd.,Miami,FL,(OC) - Older/More Mature Crowd,Bars/Clubs,,,11/6/2019 6:39am,11/8/2019 1:40pm
128,Fox Hole,,2000 N.E. 2nd Ave,Miami,FL,(OC) - Older/More Mature Crowd,Bars/Clubs,,,11/6/2019 6:39am,11/8/2019 1:40pm
130,Hayloft,(Disco),3673 Bird Rd. ,Miami,FL,"(HIP) - Heads frequent,(YC) - Young and/or collegiate types,(D) - Dancing,(*) - Very popular",Bars/Clubs,,,11/6/2019 6:39am,11/8/2019 1:40pm
132,Leprechan,,7305 Bird Rd,Miami,FL,"(E) - Entertainment,(OC) - Older/More Mature Crowd",Bars/Clubs,,,11/6/2019 6:39am,11/8/2019 1:40pm
134,Mermaid,(popular days & until 5 a.m. - back room at Vic's (M) - can use side door),101 N.E. 2nd Ave,Miami,FL,"""(RT) - 'Raunchy types' - Hustlers, drags and other downtown type places - often hustlers"",(OC) - Older/More Mature Crowd,(*) - Very popular",Bars/Clubs,,,11/6/2019 6:39am,11/8/2019 1:40pm
136,Nook Beer Bar,(closes 12 midnight)(Coral Gables),255 Minorca,Miami,FL,"(D) - Dancing,(*) - Very popular",Bars/Clubs,,,11/6/2019 6:39am,11/8/2019 1:40pm
135,Midway,,2322 N.E. 2nd Ave,Miami,FL,(OC) - Older/More Mature Crowd,Bars/Clubs,,,11/6/2019 6:39am,11/8/2019 1:40pm
137,Rack,"(Mon. - Fri., closes at 1am, Sat. at 2am, & Sundayat 7pm) Dallas Park Hotel
",231 S.E. 1st Ave,Miami,FL,"""(SM) - Some motorcycle. Don't confuse with 'M-S,' which means mixed crowds - shows. "",(W) - Western or coyboy types,(*) - Very popular",Bars/Clubs,,,11/6/2019 6:39am,11/8/2019 1:40pm
138,Ramrod,(Looks promising),1001 N.E. 2nd Ave,Miami,FL,"(W) - Western or coyboy types,""(SM) - Some motorcycle. Don't confuse with 'M-S,' which means mixed crowds - shows. """,Bars/Clubs,,,11/6/2019 6:39am,11/8/2019 1:40pm
144,The 'Y',(Disco)(go-go boys) (this is another attempt at the old Le Club Menage -1 blk W. of Biscayne Nr. 79th St.),8099 N.E. 5th Ct. ,Miami,FL,(D) - Dancing,Bars/Clubs,,,11/7/2019 9:58am,11/8/2019 1:40pm
139,Red Rooster ,,2404 N.E. 2nd Ave,Miami,FL,(OC) - Older/More Mature Crowd,Bars/Clubs,,,11/7/2019 9:58am,11/8/2019 1:40pm
145,Warehouse VIII,"(Fantastic complex, includes (D) bar on 8th, Tool Room (W)(SM)* thru rear parking lot & indoor & outdoor rooftop bars with side entrance on 36th St. open till 5am)",3600 S.W. 8th St. ,Miami,FL,"(D) - Dancing,(*) - Very popular",Bars/Clubs,,,11/7/2019 9:58am,11/8/2019 1:40pm
152,Basin Street,,1610 Alton Rd.,Miami Beach,FL,"(D) - Dancing,(S) - Shows . . . impersonators or record pantomime acts . . . often touristy",Bars/Clubs,,,11/7/2019 9:58am,11/8/2019 1:40pm
160,Pin Up,,2228 Park Ave.,Miami Beach,FL,(*) - Very popular,Bars/Clubs,,,11/7/2019 9:58am,11/8/2019 1:40pm
157,Miss Kay's ,,2232 Park Ave.,Miami Beach,FL,"""(G) - Girls/Ms, but seldom exclusively"",(D) - Dancing,(*) - Very popular",Bars/Clubs,,,11/7/2019 9:58am,11/8/2019 1:40pm
156,Mayflower Lounge,,1716 Alton rd.,Miami Beach,FL,,Bars/Clubs,,,11/7/2019 9:58am,11/8/2019 1:40pm
159,New Alley Room,"(behind South Wind, enter thru rear parking lot)",1685 Alton Rd.,Miami Beach,FL,"(D) - Dancing,(S) - Shows . . . impersonators or record pantomime acts . . . often touristy",Bars/Clubs,,,11/7/2019 9:58am,11/8/2019 1:40pm
165,Annex,,60 N. Orange Ave,Orlando,FL,"""(RT) - 'Raunchy types' - Hustlers, drags and other downtown type places - often hustlers""",Bars/Clubs,,,11/7/2019 9:58am,11/8/2019 1:40pm
167,Cactus Room,,121 N. Bumby,Orlando,FL,"(D) - Dancing,(S) - Shows . . . impersonators or record pantomime acts . . . often touristy,""(G) - Girls/Ms, but seldom exclusively""",Bars/Clubs,,,11/7/2019 9:58am,11/8/2019 1:40pm
162,21st St Art Theatre,,2039 Collins,Miami Beach,FL,,Bars/Clubs,,,11/7/2019 9:58am,11/8/2019 1:40pm
161,Salamander,(Latins)(the last of the once great Ambassadors III),427 22nd St.,Miami Beach,FL,"(P) - Private club - Inquire locally to admission,(M) - Mixed or partially straight,(D) - Dancing",Bars/Clubs,,,11/7/2019 9:58am,11/8/2019 1:40pm
168,Diamon Head Lounge,,134 Magnolia,Orlando,FL,"(YC) - Young and/or collegiate types,(D) - Dancing,(S) - Shows . . . impersonators or record pantomime acts . . . often touristy,(*) - Very popular",Bars/Clubs,,,11/7/2019 9:58am,11/8/2019 1:40pm
170,Odds & Ends Tavern,"(some W, Sm - open Sundays)",4910 Edgewater Dr.,Orlando,FL,"(W) - Western or coyboy types,""(SM) - Some motorcycle. Don't confuse with 'M-S,' which means mixed crowds - shows. """,Bars/Clubs,,,11/7/2019 9:58am,11/8/2019 1:40pm
174,Fiesta Room,,110 Harrison Ave,Panama City,FL,"(D) - Dancing,(*) - Very popular",Bars/Clubs,,,11/7/2019 9:58am,11/8/2019 1:40pm
172,Palace Club,"(open Sundays & Wed, thru Sat.)",1000 Humphries ,Orlando,FL,"(P) - Private club - Inquire locally to admission,(YC) - Young and/or collegiate types,(D) - Dancing,""(RT) - 'Raunchy types' - Hustlers, drags and other downtown type places - often hustlers"",""(G) - Girls/Ms, but seldom exclusively"",(*) - Very popular",Bars/Clubs,,,11/7/2019 9:58am,11/8/2019 1:40pm
184,Trader Jon's,(sailors),511 N. Pelafox,Pansacola,FL,(M) - Mixed or partially straight,Bars/Clubs,,,11/7/2019 9:58am,11/8/2019 1:40pm
183,Ted's Place,,6120 Lillian Hwy.,Pansacola,FL,"""(G) - Girls/Ms, but seldom exclusively"",""(RT) - 'Raunchy types' - Hustlers, drags and other downtown type places - often hustlers""",Bars/Clubs,,,11/7/2019 9:58am,11/8/2019 1:40pm
180,Quiet Village Inn,,3701 E. Cervantes,Pansacola,FL,(*) - Very popular,Bars/Clubs,,,11/7/2019 9:58am,11/8/2019 1:40pm
182,Red Garter,,271 S. Colfax,Pansacola,FL,"(S) - Shows . . . impersonators or record pantomime acts . . . often touristy,(D) - Dancing,""(G) - Girls/Ms, but seldom exclusively"",(B) - Blacks frequent",Bars/Clubs,,,11/7/2019 9:58am,11/8/2019 1:40pm
188,White Lion,,20 Cuna,St. Augustine,FL,(M) - Mixed or partially straight,Bars/Clubs,,,11/7/2019 9:58am,11/8/2019 1:40pm
186,Ruthie's Fun Palace ,,702 S.W. McNabe Rd.,Pompano Beach,FL,,Bars/Clubs,,,11/7/2019 9:58am,11/8/2019 1:40pm
187,Tradewinds,,124 Charlotte,St. Augustine,FL,(M) - Mixed or partially straight,Bars/Clubs,,,11/7/2019 9:58am,11/8/2019 1:40pm
189,809 Club,(St. Petersburg Beach),809 Gulf Blvd,St. Petersburg,FL,"(P) - Private club - Inquire locally to admission,(HIP) - Heads frequent,(YC) - Young and/or collegiate types,(S) - Shows . . . impersonators or record pantomime acts . . . often touristy,""(G) - Girls/Ms, but seldom exclusively""",Bars/Clubs,,,11/7/2019 9:58am,11/8/2019 1:40pm
190,Kitty's ,,1020 S. 4th St.,St. Petersburg,FL,"(YC) - Young and/or collegiate types,(D) - Dancing,(*) - Very popular",Bars/Clubs,,,11/7/2019 9:58am,11/8/2019 1:40pm
191,Marilyn's Closet,,8302 N. 4th St.,St. Petersburg,FL,"(M) - Mixed or partially straight,(YC) - Young and/or collegiate types,(S) - Shows . . . impersonators or record pantomime acts . . . often touristy,""(G) - Girls/Ms, but seldom exclusively""",Bars/Clubs,,,11/7/2019 9:58am,11/8/2019 1:40pm
192,Sherwood,"(some W, SM, - may be opening (D) in bar in rear)",7 N. 1st St.,St. Petersburg,FL,"(W) - Western or coyboy types,""(SM) - Some motorcycle. Don't confuse with 'M-S,' which means mixed crowds - shows. """,Bars/Clubs,,,11/7/2019 9:58am,11/8/2019 1:40pm
197,Carousel,($1.50 min.)(Disco),1806 W. Platt,Tampa,FL,"(B) - Blacks frequent,(YC) - Young and/or collegiate types,(D) - Dancing,""(G) - Girls/Ms, but seldom exclusively""",Bars/Clubs,,,11/7/2019 9:58am,11/8/2019 1:40pm
203,Golden Anchor,,110 E. Waters Ave.,Tampa,FL,(M) - Mixed or partially straight,Bars/Clubs,,,11/7/2019 9:58am,11/8/2019 1:40pm
204,Kikiki Saloon,,909 N. Tampa St.,Tampa,FL,"(OC) - Older/More Mature Crowd,(W) - Western or coyboy types,""(SM) - Some motorcycle. Don't confuse with 'M-S,' which means mixed crowds - shows. "",(*) - Very popular",Bars/Clubs,,,11/7/2019 9:58am,11/8/2019 1:40pm
200,Cucujo's ,($1.00 cover charge),1725 W. Kennedy Blvd,Tampa,FL,"""(G) - Girls/Ms, but seldom exclusively"",(S) - Shows . . . impersonators or record pantomime acts . . . often touristy,(WE) - Weekends",Bars/Clubs,,,11/7/2019 9:58am,11/8/2019 1:40pm
205,Ohio Bar,,102 Polk,Tampa,FL,"""(RT) - 'Raunchy types' - Hustlers, drags and other downtown type places - often hustlers"",""(SM) - Some motorcycle. Don't confuse with 'M-S,' which means mixed crowds - shows. """,Bars/Clubs,,,11/7/2019 11:01am,11/8/2019 1:40pm
206,Rene's,($1.50 min WE),2605 W. Kennedy,Tampa,FL,"(W) - Western or coyboy types,(YC) - Young and/or collegiate types,(D) - Dancing,(*) - Very popular",Bars/Clubs,,,11/7/2019 11:01am,11/8/2019 1:40pm
219,Harper's,,539 W. Fairbanks,Winter Park,FL,"(YC) - Young and/or collegiate types,(*) - Very popular",Bars/Clubs,,,11/7/2019 11:01am,11/8/2019 1:40pm
216,Turf West,,823 Belvedere Rd.,West Palm Beach,FL,"(YC) - Young and/or collegiate types,(D) - Dancing,(*) - Very popular",Bars/Clubs,,,11/7/2019 11:01am,11/8/2019 1:40pm
212,Other Place,(looks promising),736 Belvedere Rd,West Palm Beach,FL,,Bars/Clubs,,,11/7/2019 11:01am,11/8/2019 1:40pm
215,Turf North,,1901 N. Dixie Hwy,West Palm Beach,FL,,Bars/Clubs,,,11/7/2019 11:01am,11/8/2019 1:40pm
214,Turf Bar,,221 Datura,West Palm Beach,FL,"(OC) - Older/More Mature Crowd,(*) - Very popular",Bars/Clubs,,,11/7/2019 11:01am,11/8/2019 1:40pm
231,Blue Room,,86 Cain N.W.,Atlanta,GA,"(OC) - Older/More Mature Crowd,(B) - Blacks frequent,""(RT) - 'Raunchy types' - Hustlers, drags and other downtown type places - often hustlers""",Bars/Clubs,,,11/7/2019 11:01am,11/8/2019 1:41pm
228,Armory,near 6th,834 Juniper N.E.,Atlanta,GA,(*) - Very popular,Bars/Clubs,,,11/7/2019 11:01am,11/8/2019 1:41pm
230,Bayou Landing ,"(Disco)(at Bennett, an alley by Tenneco Gas Station)",2110 Peachtree Rd. N.W.,Atlanta,GA,"(YC) - Young and/or collegiate types,(D) - Dancing,(*) - Very popular",Bars/Clubs,,,11/7/2019 11:01am,11/8/2019 1:41pm
241,Gallus 49,,49 6th St. N.E.,Atlanta,GA,,Bars/Clubs,,,11/7/2019 11:01am,11/8/2019 1:41pm
239,Dupree's Tavern,,716 Ponce de Leon,Atlanta,GA,"""(RT) - 'Raunchy types' - Hustlers, drags and other downtown type places - often hustlers"",""(G) - Girls/Ms, but seldom exclusively""",Bars/Clubs,,,11/7/2019 11:01am,11/8/2019 1:41pm
234,Chuck's Rathskellar,,3771 Rosewell Rd. N.E.,Atlanta,GA,"(YC) - Young and/or collegiate types,(D) - Dancing,(*) - Very popular",Bars/Clubs,,,11/7/2019 11:01am,11/8/2019 1:41pm
237,Cove,,586 Worchester Dr. N.E. ,Atlanta,GA,(D) - Dancing,Bars/Clubs,,,11/7/2019 11:01am,11/8/2019 1:41pm
248,Mrs. P's,,551 Ponce de Leon N.E. ,Atlanta,GA,"(W) - Western or coyboy types,""(SM) - Some motorcycle. Don't confuse with 'M-S,' which means mixed crowds - shows. "",(*) - Very popular",Bars/Clubs,,,11/7/2019 11:01am,11/8/2019 1:41pm
250,Onyx,"(good afternoons)
",341 W. Peachtree St. N.W. ,Atlanta,GA,"(W) - Western or coyboy types,(D) - Dancing,(*) - Very popular",Bars/Clubs,,,11/7/2019 11:01am,11/8/2019 1:41pm
254,Riviera Hyatt House Bar,,1630 Peachtree St. N.W. ,Atlanta,GA,"(M) - Mixed or partially straight,(PE) - Pretty elegant - often or tie",Bars/Clubs,,,11/7/2019 2:14pm,11/8/2019 1:41pm
255,Sweet Gum Head,(Disco),2284 Cheshire Bridge Rd. N.E. ,Atlanta,GA,"(YC) - Young and/or collegiate types,(D) - Dancing,(S) - Shows . . . impersonators or record pantomime acts . . . often touristy,""(G) - Girls/Ms, but seldom exclusively"",(WE) - Weekends,(*) - Very popular",Bars/Clubs,,,11/7/2019 2:14pm,11/8/2019 1:41pm
263,Animal Farm,,Near Gordon Hwy,Augusta,GA,"(D) - Dancing,""(G) - Girls/Ms, but seldom exclusively""",Bars/Clubs,,,11/7/2019 2:14pm,11/7/2019 2:18pm
270,Harborside,,401 E. River,Savannah,GA,"(M) - Mixed or partially straight,(PE) - Pretty elegant - often or tie",Bars/Clubs,,,11/7/2019 2:14pm,11/7/2019 2:34pm
268,Basement,(Opens 8pm),340 Bull at Charlton,Savannah,GA,"(D) - Dancing,""(RT) - 'Raunchy types' - Hustlers, drags and other downtown type places - often hustlers"",""(G) - Girls/Ms, but seldom exclusively"",(B) - Blacks frequent,(*) - Very popular",Bars/Clubs,,,11/7/2019 2:14pm,11/7/2019 2:34pm
265,Rebel Room,,1001 Greene,Columbus,GA,(M) - Mixed or partially straight,Bars/Clubs,,,11/7/2019 2:14pm,11/7/2019 2:18pm
266,Ann's Tic Toc,,408 Broadway,Macon,GA,"(D) - Dancing,""(G) - Girls/Ms, but seldom exclusively""",Bars/Clubs,,,11/7/2019 2:14pm,11/7/2019 2:34pm
267,We Three Lounge,,434 Cotton Ave,Macon,GA,"(D) - Dancing,(*) - Very popular",Bars/Clubs,,,11/7/2019 2:14pm,11/7/2019 2:34pm
278,Kitten's Korner,,19 16th St.,Savannah Beach,GA,(M) - Mixed or partially straight,Bars/Clubs,,,11/7/2019 2:14pm,11/7/2019 2:34pm
281,The Place,,Madison Pike - Hwy 1 7 in S. Ft. Mitchell,Covington,KY,"(P) - Private club - Inquire locally to admission,(D) - Dancing,""(G) - Girls/Ms, but seldom exclusively"",""(RT) - 'Raunchy types' - Hustlers, drags and other downtown type places - often hustlers""",Bars/Clubs,,,11/7/2019 2:14pm,11/8/2019 8:50am
282,Freewhellin,,201 S. Limestone,Lexington,KY,"(M) - Mixed or partially straight,(HIP) - Heads frequent,""(RT) - 'Raunchy types' - Hustlers, drags and other downtown type places - often hustlers""",Bars/Clubs,,,11/7/2019 2:14pm,11/8/2019 8:50am
284,Library,"(disco)
",388 Woodland Ave.,Lexington,KY,"(M) - Mixed or partially straight,(YC) - Young and/or collegiate types,(D) - Dancing",Bars/Clubs,,,11/7/2019 2:14pm,11/8/2019 8:50am
291,Julep Lounge,,655 S. 4th St.,Louisville,KY,"""(RT) - 'Raunchy types' - Hustlers, drags and other downtown type places - often hustlers"",(D) - Dancing,(*) - Very popular",Bars/Clubs,,,11/7/2019 2:14pm,11/10/2019 1:38pm
289,Badlands Territory,(Five rooms with something for just about everyone),116 E. Main St,Louisville,KY,"(W) - Western or coyboy types,(YC) - Young and/or collegiate types,(D) - Dancing,(*) - Very popular",Bars/Clubs,,,11/7/2019 2:14pm,11/8/2019 1:40pm
301,Nick's Talk of the Town,(Unisex) (Disco),513 Monmouth St.,Louisville,KY,(YC) - Young and/or collegiate types,Bars/Clubs,,,11/8/2019 8:53am,11/8/2019 1:39pm
306,Dock,,111 Riverside Mall,Alexandria,LA,"(YC) - Young and/or collegiate types,(D) - Dancing,(*) - Very popular",Bars/Clubs,,,11/8/2019 8:53am,11/8/2019 1:39pm
307,George's Place,,860 St. Louis St.,Alexandria,LA,"(D) - Dancing,(B) - Blacks frequent",Bars/Clubs,,,11/8/2019 8:53am,11/8/2019 1:39pm
308,Mirror Room,,311 North Blvd.,Alexandria,LA,"(OC) - Older/More Mature Crowd,(D) - Dancing",Bars/Clubs,,,11/8/2019 8:55am,11/8/2019 1:39pm
316,Abbey,,1123 Decatur St.,New Orleans,LA,(M) - Mixed or partially straight,Bars/Clubs,,,11/8/2019 8:55am,11/8/2019 1:39pm
312,Owl's Perch,"(WE)
(only)",2400 Moss St.,Lafayette,LA,(WE) - Weekends,Bars/Clubs,,,11/8/2019 8:55am,11/8/2019 1:39pm
315,Kon Tiki,,100 Old Baster Rd,Monroe,LA,(*) - Very popular,Bars/Clubs,,,11/8/2019 8:55am,11/8/2019 1:39pm
311,C'Est la Guerre,,206 E. Vermilion,Lafayette,LA,"(YC) - Young and/or collegiate types,(D) - Dancing,(S) - Shows . . . impersonators or record pantomime acts . . . often touristy,(*) - Very popular",Bars/Clubs,,,11/8/2019 8:55am,11/8/2019 1:39pm
320,Bourbon Pub,(Ever since Dixie's closed LaFitte's had it all. That changed with a bang when the 'Pub' opened.),801 Bourbon St.,New Orleans,LA,"(YC) - Young and/or collegiate types,(*) - Very popular",Bars/Clubs,,,11/8/2019 8:55am,11/8/2019 1:39pm
318,Annex,,740 Burgundy,New Orleans,LA,"(B) - Blacks frequent,(*) - Very popular",Bars/Clubs,,,11/8/2019 8:55am,11/8/2019 1:39pm
317,Anita's ,,514 Ursulines,New Orleans,LA,"""(G) - Girls/Ms, but seldom exclusively"",""(RT) - 'Raunchy types' - Hustlers, drags and other downtown type places - often hustlers""",Bars/Clubs,,,11/8/2019 8:55am,11/8/2019 1:39pm
321,Brady's,,700 N. Rampart St.,New Orleans,LA,"(D) - Dancing,""(G) - Girls/Ms, but seldom exclusively"",(*) - Very popular",Bars/Clubs,,,11/8/2019 8:55am,11/8/2019 1:39pm
326,Club Midship,,606 Iberville,New Orleans,LA,"""(RT) - 'Raunchy types' - Hustlers, drags and other downtown type places - often hustlers""",Bars/Clubs,,,11/8/2019 8:55am,11/8/2019 1:39pm
336,Lafitte's In Exile,,901 Bourbon St.,New Orleans,LA,(*) - Very popular,Bars/Clubs,,,11/8/2019 8:55am,11/8/2019 1:39pm
333,Golden Lantern,,1239 Royal St.,New Orleans,LA,"(W) - Western or coyboy types,""(SM) - Some motorcycle. Don't confuse with 'M-S,' which means mixed crowds - shows. "",(*) - Very popular",Bars/Clubs,,,11/8/2019 8:55am,11/8/2019 1:39pm
332,Gene's Hideaway,,608 Iberville,New Orleans,LA,"(M) - Mixed or partially straight,""(RT) - 'Raunchy types' - Hustlers, drags and other downtown type places - often hustlers""",Bars/Clubs,,,11/8/2019 8:55am,11/8/2019 1:39pm
335,Grog,,718 N. Rampart St.,New Orleans,LA,"""(G) - Girls/Ms, but seldom exclusively"",(*) - Very popular",Bars/Clubs,,,11/8/2019 8:55am,11/8/2019 1:39pm
334,Good Friends,,740 Dauphine,New Orleans,LA,(M) - Mixed or partially straight,Bars/Clubs,,,11/8/2019 8:55am,11/8/2019 1:39pm
330,FInale II,,642 N. Rampart St.,New Orleans,LA,(*) - Very popular,Bars/Clubs,,,11/8/2019 8:55am,11/8/2019 1:39pm
337,Loft,(Looks promising)(above Scottie's Cabaret - stairway outside on right),728 Rampart St.,New Orleans,LA,"(W) - Western or coyboy types,""(SM) - Some motorcycle. Don't confuse with 'M-S,' which means mixed crowds - shows. """,Bars/Clubs,,,11/8/2019 8:55am,11/8/2019 1:39pm
331,Galley House,(good afternoons too),542 Chartres St.,New Orleans,LA,(*) - Very popular,Bars/Clubs,,,11/8/2019 8:55am,11/8/2019 1:39pm
343,Pete's '800',,800 Bourbon St.,New Orleans,LA,"(HIP) - Heads frequent,(YC) - Young and/or collegiate types,(D) - Dancing,(*) - Very popular",Bars/Clubs,,,11/8/2019 8:55am,11/8/2019 1:39pm
344,Post Office,"(Opens 4pm)[Occasional (S)]
",940 St. Louis St.,New Orleans,LA,"(D) - Dancing,(*) - Very popular,(S) - Shows . . . impersonators or record pantomime acts . . . often touristy",Bars/Clubs,,,11/8/2019 8:55am,11/8/2019 1:39pm
345,Scottie's Cabaret,"[(S) in front, back bar and 'Loft' upstairs]
",728 Rampart St.,New Orleans,LA,(S) - Shows . . . impersonators or record pantomime acts . . . often touristy,Bars/Clubs,,,11/8/2019 8:55am,11/8/2019 1:39pm
351,Travis II,,820 N. Rampart St.,New Orleans,LA,,Bars/Clubs,,,11/8/2019 8:55am,11/8/2019 1:39pm
347,Society Page,('Mom's),819 St. Louis St. ,New Orleans,LA,"""(RT) - 'Raunchy types' - Hustlers, drags and other downtown type places - often hustlers""",Bars/Clubs,,,11/8/2019 8:55am,11/8/2019 1:39pm
350,Travis's,(Opens 12 noon),834 N. Rampart St.,New Orleans,LA,(D) - Dancing,Bars/Clubs,,,11/8/2019 8:55am,11/8/2019 1:39pm
355,Wanda's,('Midnight Cownboys'),704 Iberville,New Orleans,LA,"""(RT) - 'Raunchy types' - Hustlers, drags and other downtown type places - often hustlers""",Bars/Clubs,,,11/8/2019 8:55am,11/8/2019 1:39pm
352,Unisex,(Tourist trap with nude go go girls & boys),520 Bourbon St.,New Orleans,LA,,Bars/Clubs,,,11/8/2019 8:55am,11/8/2019 1:39pm
367,Florentine Room,(Disco),728 Austin Place,Shreveport,LA,"(P) - Private club - Inquire locally to admission,(YC) - Young and/or collegiate types,(D) - Dancing,""(G) - Girls/Ms, but seldom exclusively"",(*) - Very popular",Bars/Clubs,,,11/8/2019 8:56am,11/8/2019 10:06am
369,Fire & Range Lounge,[some (S) - Plan to start opening at noon - $1.00 adm.],222 Pat Harrison Ave.,Biloxi,MS,"(P) - Private club - Inquire locally to admission,(YC) - Young and/or collegiate types,(D) - Dancing,(*) - Very popular,(S) - Shows . . . impersonators or record pantomime acts . . . often touristy",Bars/Clubs,,,11/8/2019 8:56am,11/10/2019 1:38pm
366,Bobby's Korner,,800 Louisiana,Shreveport,LA,"(OC) - Older/More Mature Crowd,(*) - Very popular",Bars/Clubs,,,11/8/2019 8:56am,11/8/2019 10:05am
377,Downtowner,,225 E. Capitol,Jackson,MS,"(M) - Mixed or partially straight,""(H) - Hotel, motel, or other overnight accomodations""","Bars/Clubs,Hotels",,,11/8/2019 8:56am,12/15/2019 4:52pm
378,Mae's Cabaret,(Opens 8pm Th-Fri - Sat only - BYOB),102 S. Parish,Jackson,MS,"(P) - Private club - Inquire locally to admission,(D) - Dancing,(YC) - Young and/or collegiate types,(*) - Very popular",Bars/Clubs,,,11/8/2019 8:56am,11/10/2019 1:38pm
385,Castaways,,310 Ingalles Ave.,Pascagoula,MS,(M) - Mixed or partially straight,Bars/Clubs,,,11/8/2019 8:56am,11/10/2019 1:38pm
379,Raincheck Lounge,,1905 W. Northside Dr.,Jackson,MS,"(D) - Dancing,""(G) - Girls/Ms, but seldom exclusively""",Bars/Clubs,,,11/8/2019 8:56am,11/10/2019 1:38pm
390,After Dark Lounge,,80 Asheland Ave.,Asheville,NC,"(P) - Private club - Inquire locally to admission,(YC) - Young and/or collegiate types,(D) - Dancing,(*) - Very popular",Bars/Clubs,,,11/8/2019 8:56am,11/8/2019 10:39am
397,Oleen's Lounge,(Disco),1831 South Blvd.,Charlotte,NC,"(S) - Shows . . . impersonators or record pantomime acts . . . often touristy,(D) - Dancing,(YC) - Young and/or collegiate types",Bars/Clubs,,,11/8/2019 8:56am,11/8/2019 10:24am
398,Scorpio Lounge,(Disco) (Semi P),2301 Freedom Dr. ,Charlotte,NC,"(YC) - Young and/or collegiate types,""(G) - Girls/Ms, but seldom exclusively"",(D) - Dancing,(P) - Private club - Inquire locally to admission,(*) - Very popular",Bars/Clubs,,,11/8/2019 8:56am,11/8/2019 10:39am
396,J.D.'s ,,825 W. Morehead,Charlotte,NC,"(D) - Dancing,(*) - Very popular",Bars/Clubs,,,11/8/2019 8:56am,11/8/2019 10:24am
407,Holiday Inn Bar,,442 Eastern Blvd,Fayetteville,NC,(M) - Mixed or partially straight,"Bars/Clubs,Hotels",,,11/8/2019 10:24am,12/15/2019 4:52pm
408,Red Carpet Lounge,,457 Russel St.,Fayetteville,NC,"(P) - Private club - Inquire locally to admission,(D) - Dancing,(BYOB) - Bring your own bottle,(*) - Very popular",Bars/Clubs,,,11/8/2019 10:24am,11/8/2019 10:41am
409,Tap Room,Prince Charles Hotel,430 Hay St. ,Fayetteville,NC,(M) - Mixed or partially straight,Bars/Clubs,,,11/8/2019 10:24am,11/8/2019 10:41am
413,Libra Lounge,,2506 Battleground,Greensboro,NC,"(P) - Private club - Inquire locally to admission,""(G) - Girls/Ms, but seldom exclusively"",(*) - Very popular",Bars/Clubs,,,11/8/2019 10:24am,11/8/2019 10:41am
415,Renaissance,($3.00 adm.),2130 Lawndale Dr.,Greensboro,NC,"(P) - Private club - Inquire locally to admission,(YC) - Young and/or collegiate types,(D) - Dancing,(*) - Very popular",Bars/Clubs,,,11/8/2019 10:24am,11/8/2019 10:41am
414,Pied Piper Lounge,(Lawndale Shopping Center),2132 Lawndale Dr.,Greensboro,NC,"(M) - Mixed or partially straight,(D) - Dancing",Bars/Clubs,,,11/8/2019 10:24am,11/8/2019 10:41am
418,Mouse Trap,,1622 Glenwood Ave.,Raleigh,NC,"(P) - Private club - Inquire locally to admission,(D) - Dancing,(YC) - Young and/or collegiate types,(*) - Very popular",Bars/Clubs,,,11/8/2019 10:24am,11/8/2019 10:41am
421,Basin Street South,,16 Hayne Street,Charleston,SC,"(D) - Dancing,(S) - Shows . . . impersonators or record pantomime acts . . . often touristy,""(G) - Girls/Ms, but seldom exclusively"",(*) - Very popular",Bars/Clubs,,,11/8/2019 10:24am,11/8/2019 10:41am
420,Club One-Ten,between Dock & Orange,110 S. Front St.,Wilmington,NC,"(M) - Mixed or partially straight,(*) - Very popular",Bars/Clubs,,,11/8/2019 10:24am,11/8/2019 10:41am
429,H & M Club,(Open until 4 or 5 am) (Disco),2300 Two Notch Road,Columbia,SC,"(P) - Private club - Inquire locally to admission,(YC) - Young and/or collegiate types,(D) - Dancing,(*) - Very popular",Bars/Clubs,,,11/8/2019 10:24am,11/10/2019 1:38pm
422,Camelot,"(2 floors - no sign, but don't miss) (Disco)",81 Hasell,Charleston,SC,"(YC) - Young and/or collegiate types,(D) - Dancing,(*) - Very popular",Bars/Clubs,,,11/8/2019 10:24am,11/8/2019 10:41am
430,Lost & Found,,1232 Assembly St.,Columbia,SC,"""(RT) - 'Raunchy types' - Hustlers, drags and other downtown type places - often hustlers""",Bars/Clubs,,,11/8/2019 10:24am,11/10/2019 1:38pm
428,Fortress,,5729 Shakespeare Rd.,Columbia,SC,"""(G) - Girls/Ms, but seldom exclusively""",Bars/Clubs,,,11/8/2019 10:24am,11/10/2019 1:38pm
424,Wagon Wheel,,336 King St.,Charleston,SC,"(M) - Mixed or partially straight,(OC) - Older/More Mature Crowd",Bars/Clubs,,,11/8/2019 10:24am,11/10/2019 1:38pm
431,O'Grays Lounge,,1636 Sumter St.,Columbia,SC,"(P) - Private club - Inquire locally to admission,(YC) - Young and/or collegiate types,(*) - Very popular,(E) - Entertainment",Bars/Clubs,,,11/8/2019 10:24am,11/10/2019 1:38pm
444,Cross Keys,(Key club),,Chattanooga,TN,(P) - Private club - Inquire locally to admission,Bars/Clubs,,,11/8/2019 10:24am,11/8/2019 11:00am
446,Powder Puff,(Disco),,Chattanooga,TN,"(YC) - Young and/or collegiate types,(D) - Dancing,(P) - Private club - Inquire locally to admission,(*) - Very popular",Bars/Clubs,,,11/8/2019 10:24am,11/8/2019 11:00am
454,Shed,,453 Parkway,Gatlinburg,TN,(M) - Mixed or partially straight,Bars/Clubs,,,11/8/2019 10:53am,11/8/2019 10:59am
459,Colony,(Disco),105 S.W. Union St.,Knoxville,TN,"(YC) - Young and/or collegiate types,(D) - Dancing,(*) - Very popular",Bars/Clubs,,,11/8/2019 10:53am,11/8/2019 11:24am
463,B.J.'s ,,1382 Poplar Ave,Memphis,TN,"""(G) - Girls/Ms, but seldom exclusively""",Bars/Clubs,,,11/8/2019 10:53am,11/8/2019 11:24am
460,Hideaway,,207 Gay St.,Knoxville,TN,"(M) - Mixed or partially straight,""(RT) - 'Raunchy types' - Hustlers, drags and other downtown type places - often hustlers"",(S) - Shows . . . impersonators or record pantomime acts . . . often touristy,""(G) - Girls/Ms, but seldom exclusively"",(*) - Very popular",Bars/Clubs,,,11/8/2019 10:53am,11/8/2019 11:24am
461,Huddle,,219 W. Cumberland Ave,Knoxville,TN,"(M) - Mixed or partially straight,""(RT) - 'Raunchy types' - Hustlers, drags and other downtown type places - often hustlers""",Bars/Clubs,,,11/8/2019 10:53am,11/8/2019 11:25am
465,Closet,,112 Jackson,Memphis,TN,"(P) - Private club - Inquire locally to admission,(YC) - Young and/or collegiate types,(D) - Dancing,(*) - Very popular",Bars/Clubs,,,11/8/2019 10:53am,11/8/2019 11:24am
466,Entree Lounge,,265 S. Cleveland ,Memphis,TN,"(D) - Dancing,(S) - Shows . . . impersonators or record pantomime acts . . . often touristy",Bars/Clubs,,,11/8/2019 10:53am,11/8/2019 11:24am
469,Score,,1208 Lamar,Memphis,TN,"(YC) - Young and/or collegiate types,(D) - Dancing,(*) - Very popular",Bars/Clubs,,,11/8/2019 10:53am,11/8/2019 11:24am
468,Psyche Out,,76 N. Cleveland,Memphis,TN,"(YC) - Young and/or collegiate types,""(G) - Girls/Ms, but seldom exclusively"",(*) - Very popular",Bars/Clubs,,,11/8/2019 10:53am,11/8/2019 11:24am
478,Other Side,"at 5th
",410 Lea,Nashville,TN,"(YC) - Young and/or collegiate types,""(G) - Girls/Ms, but seldom exclusively"",(B) - Blacks frequent,(D) - Dancing,(*) - Very popular",Bars/Clubs,,,11/8/2019 10:53am,11/8/2019 11:23am
474,Hi Hat Lounge,('Midnight Cowboys'),604 Commerce St.,Nashville,TN,(M) - Mixed or partially straight,Bars/Clubs,,,11/8/2019 10:53am,11/8/2019 11:24am
475,Juanita's ,,713 Commerce St.,Nashville,TN,(*) - Very popular,Bars/Clubs,,,11/8/2019 10:53am,11/8/2019 11:24am
481,Skyline,,1507 W. 10th St.,Amarillo,TX,"(D) - Dancing,""(G) - Girls/Ms, but seldom exclusively"",(*) - Very popular",Bars/Clubs,,,11/8/2019 10:53am,11/8/2019 11:36am
486,Austin Country,"at Red River. (Hottest Bar Austin has ever had - open until 3am on Saturdays, also (C)AH)",600 E. 7th,Austin,TX,"(HIP) - Heads frequent,(YC) - Young and/or collegiate types,(D) - Dancing,(*) - Very popular",Bars/Clubs,,,11/8/2019 10:53am,11/8/2019 11:36am
489,New Apartment,(no neon - looks like a private house - park in back and use rear door.) nr. Guadalupe & 29th,2828 Rio Grande,Austin,TX,"(D) - Dancing,""(G) - Girls/Ms, but seldom exclusively"",(*) - Very popular",Bars/Clubs,,,11/8/2019 10:53am,11/8/2019 11:36am
490,Pearl St. Warehouse,(use side door on 18th),1720 Lavaca,Austin,TX,"(M) - Mixed or partially straight,(D) - Dancing",Bars/Clubs,,,11/8/2019 10:53am,11/8/2019 11:36am
504,The Box,,4950 Ayers,Corpus Christi,TX,"(YC) - Young and/or collegiate types,(D) - Dancing,(*) - Very popular",Bars/Clubs,,,11/8/2019 10:53am,11/8/2019 11:53am
497,Gusher Room,Ridgewood Shopping Center,2576 I-10,Beaumont,TX,"(M) - Mixed or partially straight,(E) - Entertainment",Bars/Clubs,,,11/8/2019 10:53am,11/8/2019 11:36am
500,Chez Paris,,2207 Ayers,Corpus Christi,TX,"(D) - Dancing,""(G) - Girls/Ms, but seldom exclusively"",(*) - Very popular",Bars/Clubs,,,11/8/2019 10:53am,11/8/2019 11:36am
498,Off main Bar,,201 Liberty Ave.,Beaumont,TX,(*) - Very popular,Bars/Clubs,,,11/8/2019 10:53am,11/8/2019 11:36am
503,Odd Couple,,4606 Ayers,Corpus Christi,TX,"(W) - Western or coyboy types,(D) - Dancing,(*) - Very popular",Bars/Clubs,,,11/8/2019 10:53am,11/8/2019 11:36am
501,Jolly Jack,(Latins),411 Peoples St.,Corpus Christi,TX,(M) - Mixed or partially straight,Bars/Clubs,,,11/8/2019 10:53am,11/8/2019 11:36am
512,Bon Soir,,4527 Cole,Dallas,TX,"(D) - Dancing,(E) - Entertainment",Bars/Clubs,,,11/8/2019 11:38am,11/8/2019 11:52am
510,Barrel ('One Way In'),,2406 Fitzhugh,Dallas,TX,"""(G) - Girls/Ms, but seldom exclusively"",(D) - Dancing",Bars/Clubs,,,11/8/2019 11:38am,11/8/2019 11:53am
508,Act III,,3113 Live Oak,Dallas,TX,"(OC) - Older/More Mature Crowd,(D) - Dancing",Bars/Clubs,,,11/8/2019 11:38am,11/8/2019 11:53am
520,Forest,(looks promising),3236 McKinney,Dallas,TX,(D) - Dancing,Bars/Clubs,,,11/8/2019 11:38am,11/8/2019 11:52am
513,Castle,,3019 N. Haskell,Dallas,TX,"(M) - Mixed or partially straight,""(G) - Girls/Ms, but seldom exclusively"",(B) - Blacks frequent",Bars/Clubs,,,11/8/2019 11:38am,11/8/2019 11:53am
519,Entre Nuit,,3116 Live Oak,Dallas,TX,"""(RT) - 'Raunchy types' - Hustlers, drags and other downtown type places - often hustlers"",""(G) - Girls/Ms, but seldom exclusively"",(D) - Dancing",Bars/Clubs,,,11/8/2019 11:38am,11/8/2019 11:52am
521,Gene's Music Bar,[also (C)AH-WE],307 S. Akard,Dallas,TX,"(OC) - Older/More Mature Crowd,""(RT) - 'Raunchy types' - Hustlers, drags and other downtown type places - often hustlers"",""(C) - Coffee, soft drinks and sometimes snacks"",(AH) - After Hours,(WE) - Weekends",Bars/Clubs,,,11/8/2019 11:38am,11/8/2019 11:50am
518,Encore,,4516 McKinney,Dallas,TX,"(D) - Dancing,(*) - Very popular",Bars/Clubs,,,11/8/2019 11:38am,11/8/2019 11:52am
517,Crews Inn,,3220 N. Fitzhugh,Dallas,TX,"(D) - Dancing,(*) - Very popular",Bars/Clubs,,,11/8/2019 11:38am,11/8/2019 11:52am
522,HIghland Lounge,,3018 Monticello,Dallas,TX,"""(G) - Girls/Ms, but seldom exclusively""",Bars/Clubs,,,11/8/2019 11:38am,11/8/2019 11:52am
527,Ramrod,(afternoons),3224 N. Fitzhugh,Dallas,TX,(*) - Very popular,Bars/Clubs,,,11/8/2019 11:38am,11/8/2019 11:52am
529,Sun Dance Kid,,4025 Maple,Dallas,TX,"(W) - Western or coyboy types,""(SM) - Some motorcycle. Don't confuse with 'M-S,' which means mixed crowds - shows. "",(*) - Very popular",Bars/Clubs,,,11/8/2019 11:38am,11/8/2019 11:52am
525,Marlboro,,4100 Maple,Dallas,TX,(W) - Western or coyboy types,Bars/Clubs,,,11/8/2019 11:38am,11/8/2019 11:52am
530,Terry's Ranch,,4117 Maple,Dallas,TX,"(W) - Western or coyboy types,(YC) - Young and/or collegiate types,(D) - Dancing,(*) - Very popular",Bars/Clubs,,,11/8/2019 11:38am,11/8/2019 11:52am
531,Three Plus You,"at Cedar Springs
",3014 Throckmorton,Dallas,TX,"""(G) - Girls/Ms, but seldom exclusively"",(D) - Dancing,(*) - Very popular",Bars/Clubs,,,11/8/2019 11:38am,11/8/2019 11:52am
526,Plantation,"(Disco)
",3717 Rawlings,Dallas,TX,"(YC) - Young and/or collegiate types,(D) - Dancing,(*) - Very popular",Bars/Clubs,,,11/8/2019 11:38am,11/8/2019 11:52am
528,Studio 9 Theatre,,4817 Bryan,Dallas,TX,,Bars/Clubs,,,11/8/2019 11:38am,11/8/2019 11:52am
532,T.J.'s,,3307 McKinney,Dallas,TX,"""(G) - Girls/Ms, but seldom exclusively"",(D) - Dancing,(*) - Very popular",Bars/Clubs,,,11/8/2019 11:38am,11/8/2019 11:52am
534,Villa Fontana ,,1315 Skiles,Dallas,TX,(OC) - Older/More Mature Crowd,Bars/Clubs,,,11/8/2019 11:38am,11/8/2019 11:52am
550,Pigalle Club,"(Latins)
",441 E. Franklin,El Paso,TX,(OC) - Older/More Mature Crowd,Bars/Clubs,,,11/8/2019 11:38am,11/10/2019 1:38pm
546,Club Olympico,,210 Avenida Lerdo,Ciudad Juarez,TX,,Bars/Clubs,,,11/8/2019 11:38am,11/10/2019 1:38pm
543,Apartment,,815 Myrtle,El Paso,TX,,Bars/Clubs,,,11/8/2019 11:38am,11/10/2019 1:38pm
548,Le Milord,(Latins),606 Magoffin,El Paso,TX,,Bars/Clubs,,,11/8/2019 11:38am,11/10/2019 1:38pm
547,Diamond Lil Club,(Latins),708 E. San Antonio,El Paso,TX,"(D) - Dancing,""(G) - Girls/Ms, but seldom exclusively"",(*) - Very popular",Bars/Clubs,,,11/8/2019 11:38am,11/10/2019 1:38pm
549,New Pet Shop,(Disco)(Sunday Brunch - Liquor),800 E. San Antonio,El Paso,TX,"(YC) - Young and/or collegiate types,(D) - Dancing,(*) - Very popular",Bars/Clubs,,,11/8/2019 11:38am,11/10/2019 1:38pm
558,Regency ,,1812 Hemphill,Ft. Worth,TX,"(YC) - Young and/or collegiate types,(D) - Dancing,(*) - Very popular",Bars/Clubs,,,11/8/2019 11:59am,11/8/2019 12:11pm
556,Purple Lady,,3029 S. Main,Ft. Worth,TX,"""(G) - Girls/Ms, but seldom exclusively""",Bars/Clubs,,,11/8/2019 11:59am,11/8/2019 12:11pm
560,T.J.'s Back Door,"(Liquor)
",5563 Jacksboro Hwy.,Ft. Worth,TX,"(D) - Dancing,""(G) - Girls/Ms, but seldom exclusively""",Bars/Clubs,,,11/8/2019 11:59am,11/8/2019 12:11pm
555,Other Place,,2308 W. 7th,Ft. Worth,TX,(*) - Very popular,Bars/Clubs,,,11/8/2019 11:59am,11/8/2019 12:11pm
559,Six-Fifty-One Club,(Liquor),651 S. Jennings,Ft. Worth,TX,(*) - Very popular,Bars/Clubs,,,11/8/2019 11:59am,11/8/2019 12:11pm
557,Rawhide,,4016 White Settlement Rd.,Ft. Worth,TX,"(W) - Western or coyboy types,(*) - Very popular",Bars/Clubs,,,11/8/2019 11:59am,11/8/2019 12:11pm
567,Fruit Jar,,2214 Mechanic,Galveston,TX,"(OC) - Older/More Mature Crowd,(D) - Dancing",Bars/Clubs,,,11/8/2019 11:59am,11/8/2019 12:27pm
569,Kon Tiki,,214 Tremont,Galveston,TX,"(YC) - Young and/or collegiate types,(D) - Dancing,(S) - Shows . . . impersonators or record pantomime acts . . . often touristy,(*) - Very popular",Bars/Clubs,,,11/8/2019 11:59am,11/8/2019 12:27pm
576,Aesop's Tables,,507 Westheimer,Houston,TX,(M) - Mixed or partially straight,Bars/Clubs,,,11/8/2019 11:59am,11/8/2019 12:27pm
571,Mary's ,,2502 Q,Galveston,TX,,Bars/Clubs,,,11/8/2019 11:59am,11/8/2019 12:27pm
573,Seawall Hotel,,1711 Ave O,Galveston,TX,"""(H) - Hotel, motel, or other overnight accomodations""","Bars/Clubs,Hotels",,,11/8/2019 11:59am,12/15/2019 4:51pm
578,Athens Grill,(Seamen),8037 Clinton,Houston,TX,"(M) - Mixed or partially straight,""(RT) - 'Raunchy types' - Hustlers, drags and other downtown type places - often hustlers""",Bars/Clubs,,,11/8/2019 11:59am,11/8/2019 12:27pm
572,Robert's LaFitte,,409 Rosenberg,Galveston,TX,"(S) - Shows . . . impersonators or record pantomime acts . . . often touristy,(WE) - Weekends,(*) - Very popular",Bars/Clubs,,,11/8/2019 11:59am,11/8/2019 12:27pm
584,Dirty Sally's,(Opens 7am - good days),900 Lovett,Houston,TX,"(D) - Dancing,(*) - Very popular",Bars/Clubs,,,11/8/2019 11:59am,11/8/2019 12:26pm
579,Bayou Landing,,2020 Kipling,Houston,TX,"(HIP) - Heads frequent,(YC) - Young and/or collegiate types,(D) - Dancing",Bars/Clubs,,,11/8/2019 11:59am,11/8/2019 12:27pm
583,Detour,,1504 Westheimer,Houston,TX,,Bars/Clubs,,,11/8/2019 11:59am,11/8/2019 12:26pm
581,Briar Patch,,2294 W. Holcombe Blvd.,Houston,TX,"(OC) - Older/More Mature Crowd,(*) - Very popular",Bars/Clubs,,,11/8/2019 11:59am,11/8/2019 12:27pm
589,Golden Spur,(Beer only),2400 Brazos,Houston,TX,"(W) - Western or coyboy types,(*) - Very popular",Bars/Clubs,,,11/8/2019 11:59am,11/8/2019 12:26pm
591,Gray's Lounge,(Lena's),2923 Main St.,Houston,TX,"""(RT) - 'Raunchy types' - Hustlers, drags and other downtown type places - often hustlers""",Bars/Clubs,,,11/8/2019 11:59am,11/8/2019 12:26pm
587,Farm House Club,"(Disco) [5 bars, (C)(AH)(WE) swim pool]",2710 Albany,Houston,TX,"(YC) - Young and/or collegiate types,(D) - Dancing,(*) - Very popular",Bars/Clubs,,,11/8/2019 11:59am,11/8/2019 12:26pm
586,Exile,(Open afternoons),1011 Bell,Houston,TX,"(W) - Western or coyboy types,""(RT) - 'Raunchy types' - Hustlers, drags and other downtown type places - often hustlers"",""(SM) - Some motorcycle. Don't confuse with 'M-S,' which means mixed crowds - shows. "",(OC) - Older/More Mature Crowd,(*) - Very popular",Bars/Clubs,,,11/8/2019 11:59am,11/8/2019 12:26pm
590,Gold Room,,2802 Austin,Houston,TX,"(B) - Blacks frequent,(*) - Very popular",Bars/Clubs,,,11/8/2019 11:59am,11/8/2019 12:26pm
588,Galleon,(Long time super cruise bar),2720 Richmond,Houston,TX,"(YC) - Young and/or collegiate types,(*) - Very popular","Bars/Clubs,Cruising Areas",,,11/8/2019 11:59am,12/15/2019 4:50pm
596,Just Marion's & Lynn's,,817 Fairview,Houston,TX,"""(G) - Girls/Ms, but seldom exclusively"",(*) - Very popular",Bars/Clubs,,,11/8/2019 11:59am,11/8/2019 12:41pm
595,Inside Outside,(Could be a winner),1318 Westheimer,Houston,TX,"(HIP) - Heads frequent,(YC) - Young and/or collegiate types,(D) - Dancing",Bars/Clubs,,,11/8/2019 11:59am,11/8/2019 12:41pm
599,Lamp Post,,2417 Times,Houston,TX,"""(G) - Girls/Ms, but seldom exclusively"",(D) - Dancing",Bars/Clubs,,,11/8/2019 11:59am,11/8/2019 12:41pm
598,La Carafe,(Old Market Sq.),813 Congress,Houston,TX,(M) - Mixed or partially straight,Bars/Clubs,,,11/8/2019 11:59am,11/8/2019 12:41pm
597,La Caja,,1104 Tuam,Houston,TX,"(W) - Western or coyboy types,""(RT) - 'Raunchy types' - Hustlers, drags and other downtown type places - often hustlers"",(OC) - Older/More Mature Crowd",Bars/Clubs,,,11/8/2019 11:59am,11/8/2019 12:41pm
600,Les Quatre Saisons,(Old Market Sq.),813 Congress,Houston,TX,"(M) - Mixed or partially straight,(PE) - Pretty elegant - often or tie",Bars/Clubs,,,11/8/2019 11:59am,11/8/2019 12:41pm
602,Mary's Bar,,1022 Westheimer,Houston,TX,(W) - Western or coyboy types,Bars/Clubs,,,11/8/2019 11:59am,11/8/2019 12:41pm
601,Locker,(Use rear entrance),1732 Westheimer,Houston,TX,"""(SM) - Some motorcycle. Don't confuse with 'M-S,' which means mixed crowds - shows. "",(W) - Western or coyboy types",Bars/Clubs,,,11/8/2019 11:59am,11/8/2019 12:41pm
607,Numbers,,1003 California ,Houston,TX,"(W) - Western or coyboy types,""(SM) - Some motorcycle. Don't confuse with 'M-S,' which means mixed crowds - shows. """,Bars/Clubs,,,11/8/2019 11:59am,11/8/2019 12:41pm
612,Ranch Hi Lite,Frontenac Plaza,6800 S. Main St.,Houston,TX,"(D) - Dancing,(*) - Very popular",Bars/Clubs,,,11/8/2019 11:59am,11/8/2019 12:40pm
611,Prufrock's ,,424 Westheimer,Houston,TX,(M) - Mixed or partially straight,Bars/Clubs,,,11/8/2019 11:59am,11/8/2019 12:40pm
608,Odds & Ends ,,612 Hadley,Houston,TX,(*) - Very popular,Bars/Clubs,,,11/8/2019 11:59am,11/8/2019 12:41pm
609,Pink Elephant ,,1218 Leeland,Houston,TX,"""(RT) - 'Raunchy types' - Hustlers, drags and other downtown type places - often hustlers""",Bars/Clubs,,,11/8/2019 11:59am,11/8/2019 12:41pm
618,Surf,"(closes 12 midnight)
",2909 Main St. ,Houston,TX,"""(RT) - 'Raunchy types' - Hustlers, drags and other downtown type places - often hustlers""",Bars/Clubs,,,11/8/2019 11:59am,11/8/2019 12:40pm
614,Second Sun,(Disco),534 Westheimer,Houston,TX,"(YC) - Young and/or collegiate types,(D) - Dancing,(*) - Very popular,(B) - Blacks frequent,""(G) - Girls/Ms, but seldom exclusively""",Bars/Clubs,,,11/8/2019 11:59am,11/8/2019 12:40pm
619,Wonders,,3207 Montrose,Houston,TX,"(HIP) - Heads frequent,(YC) - Young and/or collegiate types,""(RT) - 'Raunchy types' - Hustlers, drags and other downtown type places - often hustlers"",(S) - Shows . . . impersonators or record pantomime acts . . . often touristy,(D) - Dancing",Bars/Clubs,,,11/8/2019 11:59am,11/8/2019 12:40pm
628,David's Warehouse,,2402 Marshall St.,Lubbock,TX,(*) - Very popular,Bars/Clubs,,,11/8/2019 11:59am,11/8/2019 1:05pm
630,Friendly Lounge,,106 East Hwy.,McAllen,TX,,Bars/Clubs,,,11/8/2019 11:59am,11/8/2019 1:05pm
629,Duffy's Tavern,,5 S. 16th St.,McAllen,TX,(*) - Very popular,Bars/Clubs,,,11/8/2019 11:59am,11/8/2019 1:05pm
633,Cork Room,(Some Latins - closes 12pm),411 N. St. Marys,San Antonio,TX,,Bars/Clubs,,,11/8/2019 11:59am,11/8/2019 1:05pm
632,Skylight Bar,,415 N. Jackson,Odessa,TX,(M) - Mixed or partially straight,Bars/Clubs,,,11/8/2019 11:59am,11/8/2019 1:05pm
635,Dessert Fox,(Latins),309 W. Market,San Antonio,TX,,Bars/Clubs,,,11/8/2019 12:41pm,11/8/2019 1:05pm
639,El Safari,(Latins),13194 S. Hwy. 81,San Antonio,TX,"(HIP) - Heads frequent,""(RT) - 'Raunchy types' - Hustlers, drags and other downtown type places - often hustlers"",(D) - Dancing,(S) - Shows . . . impersonators or record pantomime acts . . . often touristy",Bars/Clubs,,,11/8/2019 12:41pm,11/8/2019 1:05pm
637,El Jardin ,(Patio)(Good Sunday Afternoons),106 Navarro,San Antonio,TX,"(OC) - Older/More Mature Crowd,(*) - Very popular",Bars/Clubs,,,11/8/2019 12:41pm,11/8/2019 1:05pm
641,Gay Silhouette,(Latins),2522 Culebra,San Antonio,TX,"(HIP) - Heads frequent,""(RT) - 'Raunchy types' - Hustlers, drags and other downtown type places - often hustlers""",Bars/Clubs,,,11/8/2019 12:41pm,11/8/2019 1:05pm
638,El Macho,(Liquor),425 N. St. Marys,San Antonio,TX,"(M) - Mixed or partially straight,""(RT) - 'Raunchy types' - Hustlers, drags and other downtown type places - often hustlers""",Bars/Clubs,,,11/8/2019 12:41pm,11/8/2019 1:05pm
640,Frisco Lounge,,147 E. Travis,San Antonio,TX,"""(RT) - 'Raunchy types' - Hustlers, drags and other downtown type places - often hustlers"",(*) - Very popular",Bars/Clubs,,,11/8/2019 12:41pm,11/8/2019 1:05pm
646,Mary's Lounge,,460 S. St. Mary's St.,San Antonio,TX,,Bars/Clubs,,,11/8/2019 12:41pm,11/8/2019 1:05pm
647,Rio Lado Motel,,1100 N. St. Marys,San Antonio,TX,"(M) - Mixed or partially straight,""(H) - Hotel, motel, or other overnight accomodations""","Bars/Clubs,Hotels",,,11/8/2019 12:41pm,12/15/2019 4:51pm
649,Spanish Harlem,(Latins)(sign says 'Follies'),359 W. Josephine St,San Antonio,TX,"(D) - Dancing,(S) - Shows . . . impersonators or record pantomime acts . . . often touristy",Bars/Clubs,,,11/8/2019 12:41pm,11/8/2019 1:05pm
644,Hypothesis,(Liquor),2012 N. Broadway,San Antonio,TX,"""(G) - Girls/Ms, but seldom exclusively"",(D) - Dancing,(*) - Very popular",Bars/Clubs,,,11/8/2019 12:41pm,11/8/2019 1:05pm
645,Mary Ellen's,,815 Fredericksburg Rd.,San Antonio,TX,"""(G) - Girls/Ms, but seldom exclusively""",Bars/Clubs,,,11/8/2019 12:41pm,11/8/2019 1:05pm
648,San Antonio Country,"(Disco)[5 room 'super bar' with some (W)(HIP)(YC)(B)(Unisex) and whatever. Liquor too.]
",1122 N. St. Marys,San Antonio,TX,"(D) - Dancing,(*) - Very popular",Bars/Clubs,,,11/8/2019 12:41pm,11/8/2019 1:05pm
651,Victoria Lounge,(Latins),1136 E. Durango ,San Antonio,TX,(D) - Dancing,Bars/Clubs,,,11/8/2019 12:41pm,11/8/2019 1:05pm
655,Louise's,,,Victoria,TX,,Bars/Clubs,,,11/8/2019 12:41pm,11/8/2019 12:49pm
662,Red Barn,,3627 Columbia Pike,Arlington,VA,(M) - Mixed or partially straight,Bars/Clubs,,,11/8/2019 12:41pm,11/8/2019 1:32pm
660,Club 315,,315 N. Scott,Wichita Falls,TX,,Bars/Clubs,,,11/8/2019 12:41pm,11/8/2019 1:04pm
659,Carousel,,703 Travis,Wichita Falls,TX,,Bars/Clubs,,,11/8/2019 12:41pm,11/8/2019 1:04pm
676,Round the Corner,,313 W. Butte St.,Norfolk,VA,,Bars/Clubs,,,11/8/2019 12:58pm,11/8/2019 1:32pm
671,Lancer's,,7726 Hampton,Norfolk,VA,"(M) - Mixed or partially straight,""(RT) - 'Raunchy types' - Hustlers, drags and other downtown type places - often hustlers""",Bars/Clubs,,,11/8/2019 12:58pm,11/8/2019 1:32pm
672,Mickey,,135 Brooke Ave,Norfolk,VA,"(YC) - Young and/or collegiate types,(D) - Dancing,(*) - Very popular",Bars/Clubs,,,11/8/2019 12:58pm,11/8/2019 1:32pm
675,Ritz Bar,,131 Brooke Ave.,Norfolk,VA,(*) - Very popular,Bars/Clubs,,,11/8/2019 12:58pm,11/8/2019 1:32pm
684,Four-O-Nine Club,,409 W. Broad St.,Richmond,VA,"(P) - Private club - Inquire locally to admission,(YC) - Young and/or collegiate types,(D) - Dancing,(WE) - Weekends,(*) - Very popular",Bars/Clubs,,,11/8/2019 1:06pm,11/10/2019 1:38pm
683,Dial Tone,Richmond Shopping Center,3526 W. Cary,Richmond,VA,"(YC) - Young and/or collegiate types,(*) - Very popular",Bars/Clubs,,,11/8/2019 1:06pm,11/10/2019 1:38pm
689,Tradewinds,,717 Franklin Rd S.W. ,Roanoke,VA,(*) - Very popular,Bars/Clubs,,,11/8/2019 1:06pm,11/10/2019 1:38pm
458,Battle Ax Lounge,Holiday Inn Downtown. at Blount,2000 Chapman Hwy,Knoxville,TN,(M) - Mixed or partially straight,"Bars/Clubs,Hotels",,,11/8/2019 10:53am,11/8/2019 11:04am
70,Poop Deck ,"Marlin Beach Hotel - downstairs. (Ft. Lauderdale Beach) (Disco)
",17 S. Atlantic Blvd,Ft. Lauderdale,FL,"(HIP) - Heads frequent,""(SM) - Some motorcycle. Don't confuse with 'M-S,' which means mixed crowds - shows. "",(D) - Dancing,""(R) - Restaurant, usually serving dinner. A '*' after this symbol does not necessarily indicate quality of food served, but popularity of the place. "",(*) - Very popular","Bars/Clubs,Restaurant,Hotels",,,10/25/2019 8:58am,12/15/2019 4:51pm
142,Sebastian's,(Disco),2490 S.W. 17th A ve at U.S. Hwy. 1,Miami,FL,"""(R) - Restaurant, usually serving dinner. A '*' after this symbol does not necessarily indicate quality of food served, but popularity of the place. "",(D) - Dancing,(*) - Very popular","Bars/Clubs,Restaurant",,,11/7/2019 9:58am,11/8/2019 1:40pm
194,Sand Box,(8 mi. S. of Sarasota on U.S. 41 - Osprey),1002 S. Osprey,Sarasota,FL,"(YC) - Young and/or collegiate types,(D) - Dancing,(S) - Shows . . . impersonators or record pantomime acts . . . often touristy,""(R) - Restaurant, usually serving dinner. A '*' after this symbol does not necessarily indicate quality of food served, but popularity of the place. "",(*) - Very popular","Bars/Clubs,Restaurant",,,11/7/2019 9:58am,11/8/2019 1:40pm
236,Club III,,1139 W. Peachtree St. N.W.,Atlanta,GA,"(YC) - Young and/or collegiate types,(D) - Dancing,""(R) - Restaurant, usually serving dinner. A '*' after this symbol does not necessarily indicate quality of food served, but popularity of the place. "",(*) - Very popular","Bars/Clubs,Restaurant",,,11/7/2019 11:01am,11/10/2019 1:35pm
293,Pawn Shop,(at Shelby),801 Broadway,Louisville,KY,"(S) - Shows . . . impersonators or record pantomime acts . . . often touristy,(D) - Dancing,""(C) - Coffee, soft drinks and sometimes snacks"",""(R) - Restaurant, usually serving dinner. A '*' after this symbol does not necessarily indicate quality of food served, but popularity of the place. "",(AH) - After Hours","Bars/Clubs,Restaurant",,,11/7/2019 2:14pm,11/8/2019 1:40pm
585,Dirty Sally's Pacific Street Station,,805 Pacific,Houston,TX,"(S) - Shows . . . impersonators or record pantomime acts . . . often touristy,""(R) - Restaurant, usually serving dinner. A '*' after this symbol does not necessarily indicate quality of food served, but popularity of the place. "",(*) - Very popular","Bars/Clubs,Restaurant",,,11/8/2019 11:59am,11/10/2019 1:35pm
593,Hi Kamp Klub,,3400 Travis,Houston,TX,"(S) - Shows . . . impersonators or record pantomime acts . . . often touristy,""(R) - Restaurant, usually serving dinner. A '*' after this symbol does not necessarily indicate quality of food served, but popularity of the place. "",(D) - Dancing,(*) - Very popular","Bars/Clubs,Restaurant",,,11/8/2019 11:59am,11/10/2019 1:35pm
50,Club Daytona Baths,(burned - supposedly reopening spring of '75),709 Main St.,Daytona Beach,FL,,Baths,,,10/25/2019 8:58am,11/8/2019 1:40pm
64,Gym Health Club,(Baths),901 S.W. 27th Ave,Ft. Lauderdale,FL,"(YC) - Young and/or collegiate types,(*) - Very popular",Baths,,,10/25/2019 8:58am,11/8/2019 1:40pm
91,Locker Room ,(Baths) (3 floors - use rear entrance),1914 Hollywood Blvd,Hollywood,FL,(*) - Very popular,Baths,,,10/25/2019 8:58am,11/8/2019 1:40pm
98,Club Jacksonville Baths,,1939 Hendricks Ave,Jacksonville,FL,(*) - Very popular,Baths,,,10/25/2019 8:58am,11/8/2019 1:40pm
124,Club Miami Baths,(also includes Pleasure Chest 'toy shop'),2991 Coral Way,Miami,FL,(*) - Very popular,Baths,,,11/6/2019 6:38am,11/8/2019 1:40pm
140,Regency Health Center,(Baths - upstairs),5 S.W. 2nd Ave,Miami,FL,"(B) - Blacks frequent,""(RT) - 'Raunchy types' - Hustlers, drags and other downtown type places - often hustlers""",Baths,,,11/7/2019 9:58am,11/8/2019 1:40pm
179,1500 Club Baths,"(supposedly opening here for some time now, but some locals think it may not.)",1500 N. Pelafox,Pansacola,FL,,Baths,,,11/7/2019 9:58am,11/8/2019 1:40pm
199,Club Tampa Baths,,215 N. 11th St.,Tampa,FL,(*) - Very popular,Baths,,,11/7/2019 9:58am,11/8/2019 1:40pm
235,Club South Baths,,76 4th St N.W.,Atlanta,GA,,Baths,,,11/7/2019 11:01am,11/8/2019 1:41pm
245,Locker Room,(Baths) (Looks promising),2325 Cheshire Bridge Rd. N.E. ,Atlanta,GA,,Baths,,,11/7/2019 11:01am,11/8/2019 1:41pm
269,Bayshore Steam Baths,"(Sun from 1p.m., closes 11 p.m. daily)",403 E. Bay at Habersham,Savannah,GA,(*) - Very popular,Baths,,,11/7/2019 2:14pm,11/7/2019 2:33pm
290,Bonne Sante Steam Baths,,959 Baxter Ave,Louisville,KY,(*) - Very popular,Baths,,,11/7/2019 2:14pm,11/8/2019 1:40pm
296,Windsor Hotel Steam Baths,,926 S. 5th St.,Louisville,KY,,"Baths,Hotels",,,11/7/2019 2:14pm,12/15/2019 4:51pm
324,Canal Baths,,512 Gravier St.,New Orleans,LA,(*) - Very popular,Baths,,,11/8/2019 8:55am,11/8/2019 1:39pm
327,Club New Orleans Baths,,512 Toulouse Ave,New Orleans,LA,(*) - Very popular,Baths,,,11/8/2019 8:55am,11/8/2019 1:39pm
395,Club Charlotte Baths,,1013 W. Morehead,Charlotte,NC,(*) - Very popular,Baths,,,11/8/2019 8:56am,11/8/2019 10:23am
509,Bahcelors Quarter Baths,('wild' Tues. nights),3114 Live Oak,Dallas,TX,(*) - Very popular,Baths,,,11/8/2019 11:38am,11/8/2019 11:48am
515,Club Baths of Dallas,,2616 Swiss Ave,Dallas,TX,"(YC) - Young and/or collegiate types,(*) - Very popular",Baths,,,11/8/2019 11:38am,11/8/2019 11:49am
545,Banos Roma,,881 Ignacio Mejia,Ciudad Juarez,TX,,Baths,,,11/8/2019 11:38am,11/8/2019 11:58am
544,Banos Jordan,,557 Delgalldo,Ciudad Juarez,TX,,Baths,,,11/8/2019 11:38am,11/8/2019 11:58am
568,Gym Baths,,220 23rd St,Galveston,TX,(*) - Very popular,Baths,,,11/8/2019 11:59am,11/10/2019 1:28pm
582,Club Houston Baths,,2205 Fannin,Houston,TX,"(YC) - Young and/or collegiate types,(*) - Very popular",Baths,,,11/8/2019 11:59am,11/8/2019 12:24pm
606,Mr. Frizby's Baths,,3401 Milam,Houston,TX,,Baths,,,11/8/2019 11:59am,11/8/2019 12:33pm
48,Chateau de Valencia,,128 N. Atlantic,Daytona Beach,FL,"""(H) - Hotel, motel, or other overnight accomodations""",Hotels,,,10/25/2019 8:58am,11/8/2019 1:40pm
55,Sea Mist Motel,(Daytona Beach Shores),2657 S. Atlantic ,Daytona Beach,FL,"""(H) - Hotel, motel, or other overnight accomodations""",Hotels,,,10/25/2019 8:58am,11/8/2019 1:40pm
59,Bela-Mar Apt.-Motel,,3801 N. Ocean Blvd,Ft. Lauderdale,FL,"""(H) - Hotel, motel, or other overnight accomodations""",Hotels,,,10/25/2019 8:58am,11/8/2019 1:40pm
62,Galt riviera Motel,,3811 N. Ocean Blvd,Ft. Lauderdale,FL,"""(H) - Hotel, motel, or other overnight accomodations""",Hotels,,,10/25/2019 8:58am,11/8/2019 1:40pm
110,Big Ruby's Guest House,,617 Whitehead,Key West,FL,"""(H) - Hotel, motel, or other overnight accomodations""",Hotels,,,11/6/2019 6:38am,11/8/2019 1:40pm
113,Key Lime Village,,727 Truman Ave,Key West,FL,"""(H) - Hotel, motel, or other overnight accomodations""",Hotels,,,11/6/2019 6:38am,11/8/2019 1:40pm
114,Key Lodge Motel,,1004 Duval at Truman,Key West,FL,"""(H) - Hotel, motel, or other overnight accomodations""",Hotels,,,11/6/2019 6:38am,11/8/2019 1:40pm
117,Lakeside Villas Motel,,1255 Lake Shore Way,Lake Alfred,FL,"(M) - Mixed or partially straight,""(H) - Hotel, motel, or other overnight accomodations""",Hotels,,,11/6/2019 6:38am,11/8/2019 1:40pm
126,Crown & Lion,,8000 Biscayne Blvd,Miami,FL,"""(H) - Hotel, motel, or other overnight accomodations""",Hotels,,,11/6/2019 6:39am,11/8/2019 1:40pm
213,Southwind Motel,,2701 N. Broadway,West Palm Beach,FL,"(M) - Mixed or partially straight,""(H) - Hotel, motel, or other overnight accomodations""",Hotels,,,11/7/2019 11:01am,11/8/2019 1:40pm
252,Ponce de Leon Hotel,,551 Ponce de Leon N.E.,Atlanta,GA,"(M) - Mixed or partially straight,""(H) - Hotel, motel, or other overnight accomodations""",Hotels,,,11/7/2019 2:14pm,11/8/2019 1:41pm
286,Y.M.C.A.,,239 E. High St.,Lexington,KY,"(M) - Mixed or partially straight,""(H) - Hotel, motel, or other overnight accomodations""",Hotels,,,11/7/2019 2:14pm,11/8/2019 8:50am
341,Noble Arms Guest House,,1006 Royal St.,New Orleans,LA,"""(H) - Hotel, motel, or other overnight accomodations""",Hotels,,,11/8/2019 8:55am,11/8/2019 1:39pm
353,Ursuline's Guest House,,708 Ursulines,New Orleans,LA,"""(H) - Hotel, motel, or other overnight accomodations""",Hotels,,,11/8/2019 8:55am,11/8/2019 1:39pm
354,Vieux Carre Motor Lounge,,920 N. Rampart St.,New Orleans,LA,"(M) - Mixed or partially straight,""(H) - Hotel, motel, or other overnight accomodations""",Hotels,,,11/8/2019 8:55am,11/8/2019 1:39pm
356,Y.M.C.A,,936 St. Charles St.,New Orleans,LA,"(M) - Mixed or partially straight,""(H) - Hotel, motel, or other overnight accomodations""",Hotels,,,11/8/2019 8:55am,11/8/2019 1:39pm
401,Y.M.C.A,,400 E. Morehead,Charlotte,NC,"(M) - Mixed or partially straight,""(H) - Hotel, motel, or other overnight accomodations""",Hotels,,,11/8/2019 10:24am,11/8/2019 10:34am
570,Lafitte Hotel,(men only)(above Robert's LaFitte),4019 Rosenberg,Galveston,TX,"""(H) - Hotel, motel, or other overnight accomodations""",Hotels,,,11/8/2019 11:59am,11/8/2019 12:22pm
677,Y.M.C.A.,,130 Brooke Ave.,Norfolk,VA,"(M) - Mixed or partially straight,""(H) - Hotel, motel, or other overnight accomodations""",Hotels,,,11/8/2019 12:58pm,11/8/2019 1:32pm
685,Y.M.C.A.,,2 W. Franklin St.,Richmond,VA,"(M) - Mixed or partially straight,""(H) - Hotel, motel, or other overnight accomodations""",Hotels,,,11/8/2019 1:06pm,11/10/2019 1:28pm
28,Stafford Hotel Bar,,3209 9th St,Tuscaloosa,AL,(M) - Mixed or partially straight,"Hotels,Bars/Clubs",,,10/25/2019 8:58am,11/6/2019 5:57am
66,Marlin Beach Hotel,"(swim pool)
",17 S. Atlantic Blvd,Ft. Lauderdale,FL,"(*) - Very popular,""(H) - Hotel, motel, or other overnight accomodations""","Hotels,Bars/Clubs",,,10/25/2019 8:58am,11/8/2019 1:40pm
97,Circus Bar,Hotel Floridian,433 W. Forsythe,Jacksonville,FL,"(M) - Mixed or partially straight,(B) - Blacks frequent,""(RT) - 'Raunchy types' - Hustlers, drags and other downtown type places - often hustlers""","Hotels,Bars/Clubs",,,10/25/2019 8:58am,11/8/2019 1:40pm
178,Fiesta Lounge,San Carlos Hotel,1 N. Pelafox,Pansacola,FL,(M) - Mixed or partially straight,"Hotels,Bars/Clubs",,,11/7/2019 9:58am,11/8/2019 1:40pm
222,Key to America Motel Bar,,230 N. Finley St.,Athens,GA,(M) - Mixed or partially straight,"Hotels,Bars/Clubs",,,11/7/2019 11:01am,11/8/2019 1:41pm
304,Mirror Room Bentley Hotel,(was closed - supposedly reopening),200 DeSoto St.,Alexandria,LA,,"Hotels,Bars/Clubs",,,11/8/2019 8:53am,11/8/2019 1:39pm
376,Holiday Inn Bar,,900 Broadway Dr.,Hattiesburg,MS,(M) - Mixed or partially straight,"Hotels,Bars/Clubs",,,11/8/2019 8:56am,11/8/2019 1:38pm
384,Holiday Inn Bar,,400 N. Lamar,Oxford,MS,(M) - Mixed or partially straight,"Hotels,Bars/Clubs",,,11/8/2019 8:56am,11/8/2019 1:38pm
388,Sheraton Plaza Hotel Bar,,"1 mi. N. on 45, 78",Tupelo,MS,(M) - Mixed or partially straight,"Hotels,Bars/Clubs",,,11/8/2019 8:56am,11/8/2019 1:38pm
389,Downtowner Motel Bar,,1313 Walnut,Vicksberg,MS,"(M) - Mixed or partially straight,(*) - Very popular","Hotels,Bars/Clubs",,,11/8/2019 8:56am,11/8/2019 1:38pm
419,Queen Bee,"Park Central Hotel - at McDowell
",138 Martin ,Raleigh,NC,(M) - Mixed or partially straight,"Hotels,Bars/Clubs",,,11/8/2019 10:24am,11/8/2019 10:41am
445,Holiday Inn Bar,,,Chattanooga,TN,(M) - Mixed or partially straight,"Hotels,Bars/Clubs",,,11/8/2019 10:24am,11/8/2019 10:57am
464,Chisca Plaza Hotel Bar,,272 S. Main,Memphis,TN,"(M) - Mixed or partially straight,(PE) - Pretty elegant - often or tie","Hotels,Bars/Clubs",,,11/8/2019 10:53am,11/8/2019 11:21am
566,Dolphin Room,Seawall Hotel,1711 Ave O,Galveston,TX,(OC) - Older/More Mature Crowd,"Hotels,Bars/Clubs",,,11/8/2019 11:59am,11/8/2019 12:22pm
253,Prince George Inn,,114 6th St. N.E. ,Atlanta,GA,"(M) - Mixed or partially straight,(PE) - Pretty elegant - often or tie,""(R) - Restaurant, usually serving dinner. A '*' after this symbol does not necessarily indicate quality of food served, but popularity of the place. ""","Hotels,Bars/Clubs,Restaurant",,,11/7/2019 2:14pm,11/8/2019 1:41pm
2,Pasquale's Pizza,(No booze),174 E. Magnolia,Auburn,AL,"(M) - Mixed or partially straight,""(R) - Restaurant, usually serving dinner. A '*' after this symbol does not necessarily indicate quality of food served, but popularity of the place. """,Restaurant,,,10/25/2019 8:58am,11/10/2019 1:29pm
7,Mammy's Pancake House,,2151 Highland Ave. S.,Birmingham,AL,,Restaurant,,,10/25/2019 8:58am,11/10/2019 1:30pm
12,Why Not Eat Here Cafe,,220 Moulton St.,Decatur,AL,(M) - Mixed or partially straight,Restaurant,,,10/25/2019 8:58am,11/10/2019 1:29pm
14,Pitt Grill,"(Late)
",400 E. Tennessee,Florence,AL,"(M) - Mixed or partially straight,""(R) - Restaurant, usually serving dinner. A '*' after this symbol does not necessarily indicate quality of food served, but popularity of the place. "",""(C) - Coffee, soft drinks and sometimes snacks""",Restaurant,,,10/25/2019 8:58am,11/10/2019 1:35pm
21,Le Fontaine,,508 Dolphin,Mobile,AL,"""(R) - Restaurant, usually serving dinner. A '*' after this symbol does not necessarily indicate quality of food served, but popularity of the place. """,Restaurant,,,10/25/2019 8:58am,11/10/2019 1:34pm
33,Mollie's,,360 Central Ave,Hot Springs,AR,"(M) - Mixed or partially straight,""(R) - Restaurant, usually serving dinner. A '*' after this symbol does not necessarily indicate quality of food served, but popularity of the place. """,Restaurant,,,10/25/2019 8:58am,11/6/2019 6:01am
74,Venture Inn,,1791 W. Broward,Ft. Lauderdale,FL,"""(R) - Restaurant, usually serving dinner. A '*' after this symbol does not necessarily indicate quality of food served, but popularity of the place. "",(D) - Dancing",Restaurant,,,10/25/2019 8:58am,11/8/2019 1:40pm
112,Italian Garden,,1208 Simonton St. ,Key West,FL,"(M) - Mixed or partially straight,""(R) - Restaurant, usually serving dinner. A '*' after this symbol does not necessarily indicate quality of food served, but popularity of the place. """,Restaurant,,,11/6/2019 6:38am,11/10/2019 1:35pm
116,Poor Richard's Buttery,,408 Green St. ,Key West,FL,"(M) - Mixed or partially straight,(PE) - Pretty elegant - often or tie,""(R) - Restaurant, usually serving dinner. A '*' after this symbol does not necessarily indicate quality of food served, but popularity of the place. """,Restaurant,,,11/6/2019 6:38am,11/8/2019 1:40pm
120,Bachelors II,,2847 S.W. Coral Way,Miami,FL,"""(R) - Restaurant, usually serving dinner. A '*' after this symbol does not necessarily indicate quality of food served, but popularity of the place. "",(*) - Very popular",Restaurant,,,11/6/2019 6:38am,11/8/2019 1:40pm
121,Cactus,,2041 N.E. Biscayne,Miami,FL,"""(R) - Restaurant, usually serving dinner. A '*' after this symbol does not necessarily indicate quality of food served, but popularity of the place. "",(*) - Very popular",Restaurant,,,11/6/2019 6:38am,11/8/2019 1:40pm
122,Candellight Club,(for admission inquire at Warehouse VIII),2869 S.W. 27th Ave,Miami,FL,"(P) - Private club - Inquire locally to admission,""(R) - Restaurant, usually serving dinner. A '*' after this symbol does not necessarily indicate quality of food served, but popularity of the place. "",(*) - Very popular",Restaurant,,,11/6/2019 6:38am,11/8/2019 1:40pm
125,Country Store,"(Coconut Grove)
",2880 Florida Ave,Miami,FL,"(M) - Mixed or partially straight,(PE) - Pretty elegant - often or tie,""(R) - Restaurant, usually serving dinner. A '*' after this symbol does not necessarily indicate quality of food served, but popularity of the place. """,Restaurant,,,11/6/2019 6:38am,11/8/2019 1:40pm
129,Hamlet,(Coconut Grove),3416 Main Hwy.,Miami,FL,"""(R) - Restaurant, usually serving dinner. A '*' after this symbol does not necessarily indicate quality of food served, but popularity of the place. """,Restaurant,,,11/6/2019 6:39am,11/8/2019 1:40pm
141,Scotch & Sirloin,,4735 W. Flagler,Miami,FL,"(M) - Mixed or partially straight,""(R) - Restaurant, usually serving dinner. A '*' after this symbol does not necessarily indicate quality of food served, but popularity of the place. """,Restaurant,,,11/7/2019 9:58am,11/8/2019 1:40pm
153,Garden Grate,"(same bldg. as Pin Up)
",323 23rd St.,Miami Beach,FL,"""(R) - Restaurant, usually serving dinner. A '*' after this symbol does not necessarily indicate quality of food served, but popularity of the place. "",""(G) - Girls/Ms, but seldom exclusively""",Restaurant,,,11/7/2019 9:58am,11/8/2019 1:40pm
158,Neil's ,,1675 Alton Rd.,Miami Beach,FL,"(M) - Mixed or partially straight,""(R) - Restaurant, usually serving dinner. A '*' after this symbol does not necessarily indicate quality of food served, but popularity of the place. "",""(C) - Coffee, soft drinks and sometimes snacks"",(AH) - After Hours",Restaurant,,,11/7/2019 9:58am,11/8/2019 1:40pm
169,Nero's,(adjoining Diamond Head),134 Magnolia,Orlando,FL,"""(R) - Restaurant, usually serving dinner. A '*' after this symbol does not necessarily indicate quality of food served, but popularity of the place. "",""(G) - Girls/Ms, but seldom exclusively""",Restaurant,,,11/7/2019 9:58am,11/8/2019 1:40pm
176,Cagle's,,1918 W. Cervantes,Pansacola,FL,"(M) - Mixed or partially straight,""(R) - Restaurant, usually serving dinner. A '*' after this symbol does not necessarily indicate quality of food served, but popularity of the place. "",""(C) - Coffee, soft drinks and sometimes snacks"",(AH) - After Hours",Restaurant,,,11/7/2019 9:58am,11/10/2019 1:36pm
181,Ray Cranford's,,721 E. Gregory,Pansacola,FL,"(M) - Mixed or partially straight,""(R) - Restaurant, usually serving dinner. A '*' after this symbol does not necessarily indicate quality of food served, but popularity of the place. "",""(C) - Coffee, soft drinks and sometimes snacks"",(AH) - After Hours",Restaurant,,,11/7/2019 9:58am,11/8/2019 1:40pm
201,Denny's,,102 Parker,Tampa,FL,"(M) - Mixed or partially straight,""(R) - Restaurant, usually serving dinner. A '*' after this symbol does not necessarily indicate quality of food served, but popularity of the place. "",""(C) - Coffee, soft drinks and sometimes snacks"",(AH) - After Hours",Restaurant,,,11/7/2019 9:58am,11/8/2019 1:40pm
232,Cabaret-After Dark,(Disco),931 Monroe Dr. N.E.,Atlanta,GA,"(YC) - Young and/or collegiate types,(D) - Dancing,(S) - Shows . . . impersonators or record pantomime acts . . . often touristy,""(R) - Restaurant, usually serving dinner. A '*' after this symbol does not necessarily indicate quality of food served, but popularity of the place. "",(*) - Very popular",Restaurant,,,11/7/2019 11:01am,11/8/2019 1:41pm
246,Mary Mac's Tea Room,,224 Ponce de Leon N.E.,Atlanta,GA,"(M) - Mixed or partially straight,""(R) - Restaurant, usually serving dinner. A '*' after this symbol does not necessarily indicate quality of food served, but popularity of the place. """,Restaurant,,,11/7/2019 11:01am,11/8/2019 1:41pm
244,International House of Pancakes,,1516 Piedmont Ave N.E.,Atlanta,GA,"""(R) - Restaurant, usually serving dinner. A '*' after this symbol does not necessarily indicate quality of food served, but popularity of the place. "",(M) - Mixed or partially straight,""(C) - Coffee, soft drinks and sometimes snacks"",(AH) - After Hours",Restaurant,,,11/7/2019 11:01am,11/8/2019 1:41pm
243,Gene & Gabe's,,1578 Piedmont Ave N.E.,Atlanta,GA,"(M) - Mixed or partially straight,(PE) - Pretty elegant - often or tie,""(R) - Restaurant, usually serving dinner. A '*' after this symbol does not necessarily indicate quality of food served, but popularity of the place. """,Restaurant,,,11/7/2019 11:01am,11/8/2019 1:41pm
251,Pleasant Peasant ,,555 Peachtree St. N.E. ,Atlanta,GA,"(M) - Mixed or partially straight,(PE) - Pretty elegant - often or tie,""(R) - Restaurant, usually serving dinner. A '*' after this symbol does not necessarily indicate quality of food served, but popularity of the place. "",(*) - Very popular",Restaurant,,,11/7/2019 11:01am,11/8/2019 1:41pm
249,Ms. Garbo,(Behind Baby Products showroom - a 'must' for Ms.),2206 Cheshire Bridge Rd. N.E.,Atlanta,GA,"""(G) - Girls/Ms, but seldom exclusively"",""(R) - Restaurant, usually serving dinner. A '*' after this symbol does not necessarily indicate quality of food served, but popularity of the place. "",(D) - Dancing,(*) - Very popular",Restaurant,,,11/7/2019 11:01am,11/8/2019 1:41pm
271,Johnnie Ganem's ,,501 Habersham,Savannah,GA,"(M) - Mixed or partially straight,""(R) - Restaurant, usually serving dinner. A '*' after this symbol does not necessarily indicate quality of food served, but popularity of the place. "",""(C) - Coffee, soft drinks and sometimes snacks"",(AH) - After Hours",Restaurant,,,11/7/2019 2:14pm,11/7/2019 2:33pm
273,Planter's Tavern,(best late -downstairs) below Pink House,23 Abercorn St. ,Savannah,GA,"(M) - Mixed or partially straight,""(R) - Restaurant, usually serving dinner. A '*' after this symbol does not necessarily indicate quality of food served, but popularity of the place. """,Restaurant,,,11/7/2019 2:14pm,11/7/2019 2:34pm
283,Hospitality Inn Coffee Shop,(Paris Pike),2143 N. Broadway,Lexington,KY,"(M) - Mixed or partially straight,""(R) - Restaurant, usually serving dinner. A '*' after this symbol does not necessarily indicate quality of food served, but popularity of the place. "",""(C) - Coffee, soft drinks and sometimes snacks"",(AH) - After Hours",Restaurant,,,11/7/2019 2:14pm,11/8/2019 8:50am
285,Restaurant Montparnasse,'the place' later at night,224 E. Main,Lexington,KY,"(M) - Mixed or partially straight,""(R) - Restaurant, usually serving dinner. A '*' after this symbol does not necessarily indicate quality of food served, but popularity of the place. """,Restaurant,,,11/7/2019 2:14pm,11/8/2019 8:50am
294,Steak'n Eggs,,1136 S. 4th St. ,Louisville,KY,"(M) - Mixed or partially straight,""(RT) - 'Raunchy types' - Hustlers, drags and other downtown type places - often hustlers"",""(R) - Restaurant, usually serving dinner. A '*' after this symbol does not necessarily indicate quality of food served, but popularity of the place. "",""(C) - Coffee, soft drinks and sometimes snacks"",(AH) - After Hours",Restaurant,,,11/7/2019 2:14pm,11/8/2019 1:40pm
295,Western Pancake House,,912 E. Broadway,Louisville,KY,"(M) - Mixed or partially straight,""(R) - Restaurant, usually serving dinner. A '*' after this symbol does not necessarily indicate quality of food served, but popularity of the place. "",""(C) - Coffee, soft drinks and sometimes snacks"",(AH) - After Hours",Restaurant,,,11/7/2019 2:14pm,11/8/2019 1:40pm
322,Burgundy House,(best Sundays),704 Burgundy St.,New Orleans,LA,"""(R) - Restaurant, usually serving dinner. A '*' after this symbol does not necessarily indicate quality of food served, but popularity of the place. "",""(G) - Girls/Ms, but seldom exclusively""",Restaurant,,,11/8/2019 8:55am,11/8/2019 1:39pm
329,Fatted Calf,,727 St. Peter St.,New Orleans,LA,"(M) - Mixed or partially straight,""(R) - Restaurant, usually serving dinner. A '*' after this symbol does not necessarily indicate quality of food served, but popularity of the place. """,Restaurant,,,11/8/2019 8:55am,11/8/2019 1:39pm
328,Emy's,,918 Royal St.,New Orleans,LA,"""(R) - Restaurant, usually serving dinner. A '*' after this symbol does not necessarily indicate quality of food served, but popularity of the place. "",(M) - Mixed or partially straight",Restaurant,,,11/8/2019 8:55am,11/8/2019 1:39pm
338,Marti's,,1041 Dumaine St.,New Orleans,LA,"""(R) - Restaurant, usually serving dinner. A '*' after this symbol does not necessarily indicate quality of food served, but popularity of the place. "",(*) - Very popular",Restaurant,,,11/8/2019 8:55am,11/8/2019 1:39pm
339,Maxey's Coffee Pot,,714 St. Peter St.,New Orleans,LA,"""(R) - Restaurant, usually serving dinner. A '*' after this symbol does not necessarily indicate quality of food served, but popularity of the place. """,Restaurant,,,11/8/2019 8:55am,11/8/2019 1:39pm
342,Part Two,,1041 Royal St.,New Orleans,LA,"(M) - Mixed or partially straight,""(R) - Restaurant, usually serving dinner. A '*' after this symbol does not necessarily indicate quality of food served, but popularity of the place. """,Restaurant,,,11/8/2019 8:55am,11/8/2019 1:39pm
348,Street Car,(Snacks)(Upstairs - above La Fitte's),901 Bourbon St.,New Orleans,LA,"""(R) - Restaurant, usually serving dinner. A '*' after this symbol does not necessarily indicate quality of food served, but popularity of the place. """,Restaurant,,,11/8/2019 8:55am,11/8/2019 1:39pm
394,Athens,,101 N. Independence ,Charlotte,NC,"(M) - Mixed or partially straight,""(R) - Restaurant, usually serving dinner. A '*' after this symbol does not necessarily indicate quality of food served, but popularity of the place. "",""(C) - Coffee, soft drinks and sometimes snacks"",(AH) - After Hours",Restaurant,,,11/8/2019 8:56am,11/8/2019 10:23am
400,White Tower,,1801 Scott ,Charlotte,NC,"(M) - Mixed or partially straight,""(R) - Restaurant, usually serving dinner. A '*' after this symbol does not necessarily indicate quality of food served, but popularity of the place. "",""(C) - Coffee, soft drinks and sometimes snacks"",(AH) - After Hours",Restaurant,,,11/8/2019 10:24am,11/8/2019 10:34am
447,Sambo's,(Red Bank),,Chattanooga,TN,"(M) - Mixed or partially straight,""(R) - Restaurant, usually serving dinner. A '*' after this symbol does not necessarily indicate quality of food served, but popularity of the place. "",""(C) - Coffee, soft drinks and sometimes snacks"",(AH) - After Hours",Restaurant,,,11/8/2019 10:24am,11/8/2019 11:00am
457,Long Branch Cafe,,124 E. Market,Johnson City,TN,,Restaurant,,,11/8/2019 10:53am,11/8/2019 10:58am
473,Campus Grill,,416 21st Ave S. ,Nashville,TN,"(M) - Mixed or partially straight,""(R) - Restaurant, usually serving dinner. A '*' after this symbol does not necessarily indicate quality of food served, but popularity of the place. "",""(C) - Coffee, soft drinks and sometimes snacks"",(AH) - After Hours",Restaurant,,,11/8/2019 10:53am,11/8/2019 11:22am
476,Jungel Lounge,(best late *),715 Commerce St.,Nashville,TN,"""(R) - Restaurant, usually serving dinner. A '*' after this symbol does not necessarily indicate quality of food served, but popularity of the place. "",""(G) - Girls/Ms, but seldom exclusively"",(*) - Very popular",Restaurant,,,11/8/2019 10:53am,11/8/2019 11:23am
523,Jell's ,,4018 Cedar Springs,Dallas,TX,"(M) - Mixed or partially straight,""(R) - Restaurant, usually serving dinner. A '*' after this symbol does not necessarily indicate quality of food served, but popularity of the place. "",""(C) - Coffee, soft drinks and sometimes snacks"",(AH) - After Hours",Restaurant,,,11/8/2019 11:38am,11/8/2019 11:51am
533,Trio Coffee Shop,,3541 McKinney,Dallas,TX,"(M) - Mixed or partially straight,(YC) - Young and/or collegiate types,""(R) - Restaurant, usually serving dinner. A '*' after this symbol does not necessarily indicate quality of food served, but popularity of the place. "",""(C) - Coffee, soft drinks and sometimes snacks""",Restaurant,,,11/8/2019 11:38am,11/8/2019 11:52am
554,Old South Pancake House,,1501 S. University,Ft. Worth,TX,"(M) - Mixed or partially straight,""(R) - Restaurant, usually serving dinner. A '*' after this symbol does not necessarily indicate quality of food served, but popularity of the place. "",""(C) - Coffee, soft drinks and sometimes snacks"",(AH) - After Hours",Restaurant,,,11/8/2019 11:59am,11/8/2019 12:11pm
592,Harrigan's,,2202 Kirby,Houston,TX,"(M) - Mixed or partially straight,(PE) - Pretty elegant - often or tie,""(R) - Restaurant, usually serving dinner. A '*' after this symbol does not necessarily indicate quality of food served, but popularity of the place. """,Restaurant,,,11/8/2019 11:59am,11/8/2019 12:25pm
610,Plantation Coffee Shop,(May be closing),3515 Westheimer,Houston,TX,"(M) - Mixed or partially straight,""(R) - Restaurant, usually serving dinner. A '*' after this symbol does not necessarily indicate quality of food served, but popularity of the place. "",""(C) - Coffee, soft drinks and sometimes snacks"",(AH) - After Hours",Restaurant,,,11/8/2019 11:59am,11/8/2019 12:39pm
604,Michael One,,5015 Westheimer,Houston,TX,"(M) - Mixed or partially straight,""(R) - Restaurant, usually serving dinner. A '*' after this symbol does not necessarily indicate quality of food served, but popularity of the place. """,Restaurant,,,11/8/2019 11:59am,11/8/2019 12:38pm
616,Silver Dollar,,616 Westheimer,Houston,TX,"""(RT) - 'Raunchy types' - Hustlers, drags and other downtown type places - often hustlers"",""(R) - Restaurant, usually serving dinner. A '*' after this symbol does not necessarily indicate quality of food served, but popularity of the place. "",""(C) - Coffee, soft drinks and sometimes snacks"",(AH) - After Hours",Restaurant,,,11/8/2019 11:59am,11/8/2019 12:40pm
615,Side Street,,1534 Westheimer,Houston,TX,"""(R) - Restaurant, usually serving dinner. A '*' after this symbol does not necessarily indicate quality of food served, but popularity of the place. """,Restaurant,,,11/8/2019 11:59am,11/8/2019 12:39pm
617,Simpson's Diner,,1413 Main St.,Houston,TX,"""(RT) - 'Raunchy types' - Hustlers, drags and other downtown type places - often hustlers"",""(R) - Restaurant, usually serving dinner. A '*' after this symbol does not necessarily indicate quality of food served, but popularity of the place. "",""(C) - Coffee, soft drinks and sometimes snacks""",Restaurant,,,11/8/2019 11:59am,11/8/2019 12:40pm
643,Grand Railroad Sandwich Station,Syntopicon Restaurant,1724 N. Main,San Antonio,TX,"(HIP) - Heads frequent,(YC) - Young and/or collegiate types,""(R) - Restaurant, usually serving dinner. A '*' after this symbol does not necessarily indicate quality of food served, but popularity of the place. "",""(C) - Coffee, soft drinks and sometimes snacks"",(AH) - After Hours,(WE) - Weekends",Restaurant,,,11/8/2019 12:41pm,11/10/2019 1:35pm
661,Steve's,,2700 Jefferson Davis Highway,Alexandria,VA,"(M) - Mixed or partially straight,""(R) - Restaurant, usually serving dinner. A '*' after this symbol does not necessarily indicate quality of food served, but popularity of the place. "",""(C) - Coffee, soft drinks and sometimes snacks"",(AH) - After Hours",Restaurant,,,11/8/2019 12:41pm,11/8/2019 1:32pm
668,Cue,,4601 Killam,Norfolk,VA,"""(R) - Restaurant, usually serving dinner. A '*' after this symbol does not necessarily indicate quality of food served, but popularity of the place. "",""(G) - Girls/Ms, but seldom exclusively"",(WE) - Weekends,(*) - Very popular",Restaurant,,,11/8/2019 12:41pm,11/8/2019 1:32pm
666,Continental ,,111 W. Tazewell,Norfolk,VA,"""(RT) - 'Raunchy types' - Hustlers, drags and other downtown type places - often hustlers"",(B) - Blacks frequent,""(R) - Restaurant, usually serving dinner. A '*' after this symbol does not necessarily indicate quality of food served, but popularity of the place. "",(*) - Very popular",Restaurant,,,11/8/2019 12:41pm,11/8/2019 1:32pm
669,Fleet,,2013 Taussig,Norfolk,VA,"(M) - Mixed or partially straight,""(R) - Restaurant, usually serving dinner. A '*' after this symbol does not necessarily indicate quality of food served, but popularity of the place. """,Restaurant,,,11/8/2019 12:41pm,11/8/2019 1:32pm
673,Occidental ,,209 Granby St.,Norfolk,VA,"(M) - Mixed or partially straight,(B) - Blacks frequent,""(RT) - 'Raunchy types' - Hustlers, drags and other downtown type places - often hustlers"",""(R) - Restaurant, usually serving dinner. A '*' after this symbol does not necessarily indicate quality of food served, but popularity of the place. "",""(C) - Coffee, soft drinks and sometimes snacks"",(AH) - After Hours",Restaurant,,,11/8/2019 12:58pm,11/8/2019 1:32pm
674,Raphael's,,426 Granby St.,Norfolk,VA,"""(R) - Restaurant, usually serving dinner. A '*' after this symbol does not necessarily indicate quality of food served, but popularity of the place. "",(YC) - Young and/or collegiate types,(D) - Dancing,""(C) - Coffee, soft drinks and sometimes snacks"",(AH) - After Hours",Restaurant,,,11/8/2019 12:58pm,11/8/2019 1:32pm
143,Second Landing,(use rear stairway off parking lot) (Le Jeune Rd.),820 S.W. 42nd Ave.,Miami,FL,"""(R) - Restaurant, usually serving dinner. A '*' after this symbol does not necessarily indicate quality of food served, but popularity of the place. "",(D) - Dancing,""(G) - Girls/Ms, but seldom exclusively"",(*) - Very popular","Restaurant,Bars/Clubs",,,11/7/2019 9:58am,11/8/2019 1:40pm
511,Bayou Landing,(Still #1 'super bar'),2609 N. Pearl ,Dallas,TX,"(HIP) - Heads frequent,(YC) - Young and/or collegiate types,(D) - Dancing,""(R) - Restaurant, usually serving dinner. A '*' after this symbol does not necessarily indicate quality of food served, but popularity of the place. "",(S) - Shows . . . impersonators or record pantomime acts . . . often touristy,(*) - Very popular","Restaurant,Bars/Clubs",,,11/8/2019 11:38am,11/8/2019 11:49am
67,M.C.C.,,1127 S.W. 2nd Ct.,Ft. Lauderdale,FL,,Church,,,10/25/2019 8:58am,11/8/2019 1:40pm
133,M.C.C.,,3901 N.W. 2nd Ave,Miami,FL,,Church,,,11/6/2019 6:39am,11/8/2019 1:40pm
247,M.C.C.,(Decatur),527 N. McDonough,Atlanta,GA,,Church,,,11/7/2019 11:01am,11/8/2019 1:41pm
340,M.C.C.,,3123 Magazine St.,New Orleans,LA,,Church,,,11/8/2019 8:55am,11/8/2019 1:39pm
477,M.C.C.,,1502 Edgehill Ave.,Nashville,TN,,Church,,,11/8/2019 10:53am,11/8/2019 11:07am
505,M.C.C.,,2800 Purington,Ft. Worth,TX,,Church,,,11/8/2019 11:37am,11/8/2019 12:11pm
524,M.C.C.,,3834 Ross,Dallas,TX,,Church,,,11/8/2019 11:38am,11/8/2019 11:46am
603,M.C.C.,,220 Waugh Dr. ,Houston,TX,,Church,,,11/8/2019 11:59am,11/8/2019 12:33pm
47,Adult Newstand,(Holly Hill),711 N. Ridgewood,Daytona Beach,FL,,Book Store,,,10/25/2019 8:58am,11/8/2019 1:40pm
58,'A' Adult Books ,,3915 S. Federal Hwy,Ft. Lauderdale,FL,,Book Store,,,10/25/2019 8:58am,11/8/2019 1:40pm
65,J.B.N.,(Jaybird Books & Toys),2515 W. Broward Blvd. ,Ft. Lauderdale,FL,,Book Store,,,10/25/2019 8:58am,11/8/2019 1:40pm
166,Book Worm,(book store),102 N. Orange Ave,Orlando,FL,,Book Store,,,11/7/2019 9:58am,11/8/2019 1:40pm
171,Oralndo Book Mart,,1104 E. Colonial Dr. ,Orlando,FL,,Book Store,,,11/7/2019 9:58am,11/8/2019 1:40pm
196,Book Exchange,,3928 Kennedy,Tampa,FL,,Book Store,,,11/7/2019 9:58am,11/8/2019 1:40pm
229,Atlanta Stag Shop,(books),85 Poplar St.,Atlanta,GA,,Book Store,,,11/7/2019 11:01am,11/8/2019 1:41pm
227,After Dark Book Store,,1067 Peachtree St. N.E.,Atlanta,GA,,Book Store,,,11/7/2019 11:01am,11/8/2019 1:41pm
346,Sidney's News Stand,,917 Decatur,New Orleans,LA,,Book Store,,,11/8/2019 8:55am,11/8/2019 1:39pm
393,After Dark Book Store,,819 W. Morehead,Charlotte,NC,,Book Store,,,11/8/2019 8:56am,11/8/2019 10:23am
417,Parker's News Stand,(books),117 E. Green St.,High Point,NC,,Book Store,,,11/8/2019 10:24am,11/8/2019 10:41am
516,Commerce St. News,,1513 Commerce St,Dallas,TX,,Book Store,,,11/8/2019 11:38am,11/8/2019 11:45am
575,Adult Book Store,,4613 Mt. Vernon,Houston,TX,,Book Store,,,11/8/2019 11:59am,11/8/2019 12:22pm
580,Big City News,(Books),1414 Milam,Houston,TX,,Book Store,,,11/8/2019 11:59am,11/8/2019 12:24pm
613,Salty Dog Books & Arcade,,2005 S. Shepherd,Houston,TX,,Book Store,,,11/8/2019 11:59am,11/8/2019 12:34pm
642,Globe News Stand,,204 E. Houston,San Antonio,TX,,Book Store,,,11/8/2019 12:41pm,11/8/2019 12:56pm
664,Boulevard Books,,121 Brooke Ave,Norfolk,VA,,Book Store,,,11/8/2019 12:41pm,11/8/2019 1:32pm
319,Bank Theatre & Book Store,,941 Decatur St.,New Orleans,LA,,"Book Store,Theatre",,,11/8/2019 8:55am,11/8/2019 1:39pm
131,Kitty Kat Theatre,,7770 Biscayne Blvd.,Miami,FL,,Theatre,,,11/6/2019 6:39am,11/8/2019 1:40pm
155,Kitty Kat Theatre,,7770 Biscayne Blvd,Miami Beach,FL,,Theatre,,,11/7/2019 9:58am,11/8/2019 1:40pm
242,Gay Paree Cinema ,,90 Walton St. N.W. ,Atlanta,GA,,Theatre,,,11/7/2019 11:01am,11/8/2019 1:41pm
467,George's Theatre Lounge,,1786 Madison Ave,Memphis,TN,"(D) - Dancing,(S) - Shows . . . impersonators or record pantomime acts . . . often touristy,(*) - Very popular",Theatre,,,11/8/2019 10:53am,11/8/2019 11:22am
605,Mini Park Theatre,,2907 S. Main St.,Houston,TX,,Theatre,,,11/8/2019 11:59am,11/8/2019 12:33pm
577,Ah Men Clothing Store,,805 Westheimer,Houston,TX,,other,,,11/8/2019 11:59am,11/8/2019 12:23pm