ID,title,description,streetaddress,city,state,amenityfeatures,type,unclearaddress,notes,dateadded,lastmodified
1,Golden Torch,,1915 5th Ave. N.,Birmingham,AL,(*) - Very popular,Bars/Clubs,,,9/4/2019 1:27pm,9/4/2019 2:21pm
2,Jewel Box,Dinkler-Tutwiler Hotel,2001 5th Ave. N. ,Birmingham,AL,"(M) - Mixed Crowds,(PE) - Pretty elegant - jacket & tie may be required","Bars/Clubs,Hotels",,,9/4/2019 1:27pm,12/7/2019 2:02pm
3,Outer Focus,,2900 7th Ave. S.,Birmingham,AL,"(D) - Dancing,(YC) - Young and/or collegiate types,(*) - Very popular",Bars/Clubs,,,9/4/2019 1:27pm,9/4/2019 2:21pm
4,"Red Room, Redmont Hotel",,2101 5th Ave. N.,Birmingham,AL,,"Bars/Clubs,Hotels",,,9/4/2019 1:27pm,12/7/2019 2:02pm
5,Tito's,,1310 1st Ave. N.,Birmingham,AL,"(D) - Dancing,(*) - Very popular",Bars/Clubs,,,9/4/2019 1:27pm,9/4/2019 2:21pm
6,Todd's,,2151 Highland Ave. S.,Birmingham,AL,"""(C) - Coffee, soft drinks and sometimes snacks"",""(R) - Restaurant, usually serving dinner. A '*' after this symbol does not necessarily indicate quality of food served, but popularity of the place. """,Restaurant,,,9/4/2019 1:28pm,9/4/2019 2:21pm
7,Black Forest,,3709 Governors Dr. N.W.,Huntsville,AL,,Bars/Clubs,,,9/4/2019 1:28pm,9/4/2019 2:22pm
9,Club Royal,,78 S. Royal,Mobile,AL,(M) - Mixed Crowds,Bars/Clubs,,,9/4/2019 1:28pm,9/4/2019 4:04pm
10,Flamingo Room,"Mobile Steak House
",170 S. St. Francis St.,Mobile,AL,(RT) - 'Raunchy types' - downtown type places - often hustlers,Bars/Clubs,,,9/4/2019 1:28pm,9/4/2019 4:04pm
11,Knight Club,,215 Conti St.,Mobile,AL,(*) - Very popular,Bars/Clubs,,,9/4/2019 1:28pm,9/4/2019 4:04pm
12,Princess House Lounge,,254 Government St.,Mobile,AL,(*) - Very popular,Bars/Clubs,,,9/4/2019 1:28pm,9/4/2019 4:04pm
15,Key Hole,,80 Commerce St.,Montgomery,AL,,Bars/Clubs,,,9/4/2019 1:28pm,9/4/2019 4:04pm
16,Squeeze Inn,,8 N. 6th St.,Ft. Smith,AR,,Bars/Clubs,,,9/4/2019 1:28pm,9/4/2019 4:04pm
17,Mollie's,,360 Central Ave.,Hot Springs,AR,"""(R) - Restaurant, usually serving dinner. A '*' after this symbol does not necessarily indicate quality of food served, but popularity of the place. "",(M) - Mixed Crowds",Restaurant,,,9/4/2019 1:28pm,9/4/2019 3:18pm
18,Peacock Lounge,,220 Central Ave.,Hot Springs,AR,,Bars/Clubs,,,9/4/2019 1:28pm,9/4/2019 4:04pm
22,Nightengale,,24 S. Garden Ave.,Clearwater,FL,(M) - Mixed Crowds,Bars/Clubs,,,9/4/2019 1:28pm,9/4/2019 4:04pm
23,Ocean Grill,(summers),14 Kendall St.,Clearwater,FL,,Bars/Clubs,,,9/4/2019 1:28pm,9/4/2019 4:04pm
27,Hollywood Bar,,415 Mann St.,Daytona Beach,FL,"""(G) - Girls, but rarely exclusively"",(S) - Shows - impersonators or record pantomime acts - often touristy",Bars/Clubs,,,9/4/2019 1:28pm,9/4/2019 4:04pm
28,Yum Yum Tree,,703 Ridgewood Hwy 1 in Holly Hill,Daytona Beach,FL,(*) - Very popular,Bars/Clubs,,,9/4/2019 1:28pm,9/4/2019 4:04pm
29,Elbo Room,(Ft. Lauderdale Beach),241 S. Atlantic ,Ft. Lauderdale,FL,"(YC) - Young and/or collegiate types,(M) - Mixed Crowds",Bars/Clubs,,,9/4/2019 1:28pm,9/4/2019 4:04pm
31,Gulfstream Hotel,,214 S.W. 1st Ave.,Ft. Lauderdale,FL,"""(H) - Hotel, motel, or other overnight accomodations""",Hotels,,,9/4/2019 1:28pm,9/4/2019 3:27pm
32,The Barn,,3491 W. Sunrise Blvd.,Ft. Lauderdale,FL,"(*) - Very popular,(D) - Dancing,(YC) - Young and/or collegiate types",Bars/Clubs,,,9/4/2019 1:28pm,9/4/2019 4:04pm
33,The Saloon,,219 SW 1st Ave.,Ft. Lauderdale,FL,,Bars/Clubs,,,9/4/2019 1:28pm,9/4/2019 4:04pm
34,Zanzibar,,214 Sw 1st Ave.,Ft. Lauderdale,FL,,Bars/Clubs,,,9/4/2019 1:28pm,9/4/2019 4:04pm
36,Calypso Lounge,,150 San Carlos,Ft. Myers,FL,(M) - Mixed Crowds,Bars/Clubs,,,9/4/2019 1:28pm,9/4/2019 4:04pm
37,Pub,,921 W. University Ave,Gainsville,FL,"(*) - Very popular,(YC) - Young and/or collegiate types,(M) - Mixed Crowds",Bars/Clubs,,,9/4/2019 1:28pm,9/4/2019 4:04pm
38,Alpine,,800 N. Federal Hwy.,Hallandale,FL,"""(G) - Girls, but rarely exclusively""",Bars/Clubs,,,9/4/2019 1:28pm,9/4/2019 4:04pm
41,Top's Original Annex,,2027 Pembroke Rd,Hollywood,FL,,Bars/Clubs,,,9/4/2019 1:28pm,9/4/2019 4:04pm
42,Bo's Reef,,3225 Forrest,Jacksonville,FL,(*) - Very popular,Bars/Clubs,,,9/4/2019 1:28pm,9/4/2019 4:04pm
44,Howard's,(go-go girls),238 W. Adams,Jacksonville,FL,(M) - Mixed Crowds,Bars/Clubs,,,9/4/2019 1:28pm,9/4/2019 4:04pm
45,Offbeat,,2952 Roosevelt Blvd.,Jacksonville,FL,,Bars/Clubs,,,9/4/2019 1:28pm,9/4/2019 4:04pm
46,Red Fez,,5308 Beach Blvd.,Jacksonville,FL,"(P) - Private club - Inquire locally to admission,(D) - Dancing,(YC) - Young and/or collegiate types,(*) - Very popular",Bars/Clubs,,,9/4/2019 1:28pm,9/4/2019 4:04pm
47,Waldorf Lounge,(go-go girls) ,14 E. Forsythe,Jacksonville,FL,"(RT) - 'Raunchy types' - downtown type places - often hustlers,(M) - Mixed Crowds",Bars/Clubs,,,9/4/2019 1:28pm,9/4/2019 4:04pm
48,Butch's,(open Sundays),412 Boardwalk,Jacksonville Beach,FL,(M) - Mixed Crowds,Bars/Clubs,,,9/4/2019 1:28pm,9/4/2019 4:04pm
49,Captain Tony's,,428 Green St.,Key West,FL,(*) - Very popular,Bars/Clubs,,,9/4/2019 1:28pm,9/4/2019 4:04pm
50,Dedek's,,409 Green St.,Key West,FL,"""(R) - Restaurant, usually serving dinner. A '*' after this symbol does not necessarily indicate quality of food served, but popularity of the place. "",(M) - Mixed Crowds",Restaurant,,,9/4/2019 1:28pm,9/4/2019 3:44pm
51,Gallery,,224 Duval,Key West,FL,(M) - Mixed Crowds,Bars/Clubs,,,9/4/2019 1:28pm,9/4/2019 4:04pm
52,Rudy's,,124 Duval,Key West,FL,(M) - Mixed Crowds,Bars/Clubs,,,9/4/2019 1:28pm,9/4/2019 4:04pm
53,Music Box,,628 Lake Ave.,Lake Worth,FL,(M) - Mixed Crowds,Bars/Clubs,,,9/4/2019 1:28pm,9/4/2019 4:04pm
55,Cactus Lounge,,2041 N.E. Biscayne,Miami,FL,(*) - Very popular,Bars/Clubs,,,9/4/2019 1:28pm,9/4/2019 4:05pm
56,Candlelight,,3131 Commodore Plaza Coconut Grove,Miami,FL,"""(R) - Restaurant, usually serving dinner. A '*' after this symbol does not necessarily indicate quality of food served, but popularity of the place. "",(M) - Mixed Crowds",Restaurant,,,9/4/2019 1:28pm,9/4/2019 3:52pm
57,Carnival,,137 N.E. 3rd Ave,Miami,FL,,Bars/Clubs,,,9/4/2019 1:28pm,9/4/2019 4:05pm
59,Deluxe,,2800 N.W. 27th Ave,Miami,FL,(*) - Very popular,Bars/Clubs,,,9/4/2019 1:28pm,9/4/2019 4:05pm
60,El Carol,,930 Le Jeune Rd (Coral Gables),Miami,FL,,Bars/Clubs,,,9/4/2019 1:28pm,9/4/2019 4:05pm
61,Fox Hole,,2000 N.E. 2nd Ave.,Miami,FL,,Bars/Clubs,,,9/4/2019 1:28pm,9/4/2019 4:05pm
62,Googie's,,5832 N.W. 27th Ave.,Miami,FL,,Bars/Clubs,,,9/4/2019 1:28pm,9/4/2019 4:05pm
63,Hamlet,,3416 Main Hwy Coconut Grove,Miami,FL,"(M) - Mixed Crowds,(YC) - Young and/or collegiate types,""(R) - Restaurant, usually serving dinner. A '*' after this symbol does not necessarily indicate quality of food served, but popularity of the place. """,Restaurant,,,9/4/2019 1:28pm,9/4/2019 3:55pm
64,Le Bistro,,312 S.E. 2nd Ave.,Miami,FL,,Bars/Clubs,,,9/4/2019 1:28pm,9/4/2019 4:05pm
65,Le Moon Villas,,2661 Bayshore Dr. Coconut Grove,Miami,FL,"""(H) - Hotel, motel, or other overnight accomodations""",Hotels,,,9/4/2019 1:28pm,9/4/2019 3:58pm
66,Leprechaun,,7305 Bird Rd West Miami,Miami,FL,,Bars/Clubs,,,9/4/2019 1:28pm,9/4/2019 4:05pm
67,Mermaid Room,(behind Vic's- use sidestreet entrance),101 N.E. 2nd Ave.,Miami,FL,"(RT) - 'Raunchy types' - downtown type places - often hustlers,(*) - Very popular",Bars/Clubs,,,9/4/2019 1:28pm,9/4/2019 4:05pm
68,Nook Beer Bar,,255 Minorca Coral Gables,Miami,FL,"(YC) - Young and/or collegiate types,(*) - Very popular",Bars/Clubs,,,9/4/2019 1:28pm,9/4/2019 4:05pm
69,Sir John,,276 N.W. 6th,Miami,FL,"(B) - Blacks predominate,(M) - Mixed Crowds,(RT) - 'Raunchy types' - downtown type places - often hustlers",Bars/Clubs,,,9/4/2019 1:28pm,9/4/2019 4:05pm
70,Studio,,S.W. 32nd Ave.,Miami,FL,"""(R) - Restaurant, usually serving dinner. A '*' after this symbol does not necessarily indicate quality of food served, but popularity of the place. "",(*) - Very popular",Restaurant,,,9/4/2019 1:28pm,9/4/2019 4:04pm
72,Warehouse VIII,(upstairs. use outside private entrance on side st. downstairs bar (m),3604 S.W. 8th St,Miami,FL,"(YC) - Young and/or collegiate types,(M) - Mixed Crowds",Bars/Clubs,,,9/4/2019 1:28pm,9/4/2019 4:05pm
73,Alley,(behind the South Wind-enter thru parking lot in rear),1685 Alton Rd.,Miami Beach,FL,(*) - Very popular,Bars/Clubs,,,9/4/2019 1:28pm,9/4/2019 4:05pm
74,Barbary Coast,,401 Ocean Dr.,Miami Beach,FL,(M) - Mixed Crowds,Bars/Clubs,,,9/4/2019 3:58pm,9/4/2019 4:05pm
75,Basin St,,1610 Alton Rd,Miami Beach,FL,(*) - Very popular,Bars/Clubs,,,9/4/2019 3:58pm,9/4/2019 4:05pm
76,Casbar,,1390 Ocean Dr.,Miami Beach,FL,,Bars/Clubs,,,9/4/2019 3:58pm,9/4/2019 4:05pm
77,Mayflower Lounge,(go thru bar to Billy Lee's Back Room--admission charge),1716 Alton Rd.,Miami Beach,FL,"(YC) - Young and/or collegiate types,(D) - Dancing",Bars/Clubs,,,9/4/2019 3:58pm,9/4/2019 4:05pm
78,Pin Up,,2228 Park Ave.,Miami Beach,FL,,Bars/Clubs,,,9/4/2019 3:58pm,9/4/2019 4:05pm
79,Cactus Room,,60 N. Orange Ave.,Orlando,FL,(M) - Mixed Crowds,Bars/Clubs,,,9/4/2019 3:58pm,9/4/2019 4:05pm
80,Phil Berger's Musical Bar,,29 W. Central,Orlando,FL,(M) - Mixed Crowds,Bars/Clubs,,,9/4/2019 3:58pm,9/4/2019 4:05pm
81,San Carlos Hotel Bar,,1 Pelfox,Pensacola,FL,(M) - Mixed Crowds,"Bars/Clubs,Hotels",,,9/4/2019 3:58pm,12/7/2019 2:02pm
82,Trader Jon's,,511 S. Pelfox,Pensacola,FL,,Bars/Clubs,,,9/4/2019 3:58pm,9/4/2019 4:05pm
83,Anchor Bar,,172 Central Ave.,St. Petersburg,FL,(M) - Mixed Crowds,Bars/Clubs,,,9/4/2019 3:58pm,9/4/2019 4:05pm
84,Davey Jones' Locker,"(tourists, seasonal)",7212 Gulf Blvd. St. Petersburg Beach,St. Petersburg,FL,(S) - Shows - impersonators or record pantomime acts - often touristy,Bars/Clubs,,,9/4/2019 3:58pm,9/7/2019 1:47pm
85,Patio,,1637 N. 4th St.,St. Petersburg,FL,,Bars/Clubs,,,9/4/2019 3:58pm,9/7/2019 1:47pm
86,Sherwood,,7 N. 1st St,St. Petersburg,FL,(*) - Very popular,Bars/Clubs,,,9/4/2019 3:58pm,9/7/2019 1:47pm
87,Ten Beach Drive,,10 Beach Dr.,St. Petersburg,FL,,Bars/Clubs,,,9/4/2019 3:58pm,9/7/2019 1:47pm
88,Trade Winds,,233 Central Ave.,St. Petersburg,FL,(M) - Mixed Crowds,Bars/Clubs,,,9/4/2019 3:58pm,9/7/2019 1:47pm
89,Body Shop,,14 S. Lune Ave.,Sarasota,FL,(*) - Very popular,Bars/Clubs,,,9/4/2019 3:58pm,9/7/2019 1:47pm
90,Cork n' Kettle,,41 South St.,Sarasota,FL,(M) - Mixed Crowds,Bars/Clubs,,,9/4/2019 3:58pm,9/7/2019 1:47pm
91,Elbo Room,,5 Blvd. of Presidents,Sarasota,FL,(M) - Mixed Crowds,Bars/Clubs,,,9/4/2019 3:58pm,9/7/2019 1:47pm
94,Cypress Lounge,Floridian Hotel,204 N. Monroe,Tallahassee,FL,(M) - Mixed Crowds,"Bars/Clubs,Hotels",,,9/4/2019 3:58pm,12/7/2019 2:02pm
95,Duval Hotel Bar,,415 N. Monroe,Tallahassee,FL,(M) - Mixed Crowds,"Bars/Clubs,Hotels",,,9/4/2019 3:58pm,12/7/2019 2:02pm
97,Adonis,,1100 Florida Ave.,Tampa,FL,"""(C) - Coffee, soft drinks and sometimes snacks"",(YC) - Young and/or collegiate types",Bars/Clubs,,,9/4/2019 3:58pm,9/7/2019 1:47pm
98,Carousel,,1806 W. Platt St.,Tampa,FL,"(*) - Very popular,(YC) - Young and/or collegiate types,(D) - Dancing",Bars/Clubs,,,9/4/2019 3:58pm,9/7/2019 1:47pm
99,Cucujo's,,1725 W. Kennedy ,Tampa,FL,"""(G) - Girls, but rarely exclusively"",(M) - Mixed Crowds",Bars/Clubs,,,9/4/2019 3:58pm,9/7/2019 1:47pm
100,Kikiki,,723 Morgan,Tampa,FL,(*) - Very popular,Bars/Clubs,,,9/4/2019 3:58pm,9/7/2019 1:47pm
104,Turf,,221 Datura,West Palm Beach,FL,,Bars/Clubs,,,9/4/2019 3:58pm,9/7/2019 1:47pm
105,Blue Room,,86 Cain N.W.,Atlanta,GA,"(RT) - 'Raunchy types' - downtown type places - often hustlers,(*) - Very popular",Bars/Clubs,,,9/4/2019 3:58pm,9/7/2019 1:47pm
106,Cameo Lounge,"Will be moving in '69 about one blk away
",182 Spring N.W.,Atlanta,GA,"(RT) - 'Raunchy types' - downtown type places - often hustlers,(*) - Very popular",Bars/Clubs,,,9/4/2019 3:58pm,9/7/2019 1:47pm
107,Cove,,586 Worcester,Atlanta,GA,(*) - Very popular,Bars/Clubs,,,9/4/2019 3:58pm,9/7/2019 1:47pm
108,Dupree,,715 Ponce de Leon,Atlanta,GA,"(M) - Mixed Crowds,(RT) - 'Raunchy types' - downtown type places - often hustlers,""(G) - Girls, but rarely exclusively""",Bars/Clubs,,,9/4/2019 3:58pm,9/7/2019 1:47pm
109,Joy Lounge,,557 Ponce de Leon,Atlanta,GA,"(YC) - Young and/or collegiate types,(D) - Dancing,(*) - Very popular",Bars/Clubs,,,9/4/2019 3:58pm,9/7/2019 1:47pm
110,La Cuisine,,468 Mitchell,Atlanta,GA,"(S) - Shows - impersonators or record pantomime acts - often touristy,(RT) - 'Raunchy types' - downtown type places - often hustlers,(B) - Blacks predominate",Bars/Clubs,,,9/4/2019 3:58pm,9/7/2019 1:47pm
111,Mrs. P's,"Ponce de Leon Hotel
",551 Ponce de Leon,Atlanta,GA,"(YC) - Young and/or collegiate types,(*) - Very popular","Bars/Clubs,Hotels",,,9/4/2019 3:58pm,12/7/2019 2:02pm
113,Piccolo Lounge,,1129 Peachtree St.,Atlanta,GA,"""(G) - Girls, but rarely exclusively""",Bars/Clubs,,,9/6/2019 12:47pm,9/7/2019 1:47pm
114,Prince George Inn,,114 6th St. N.E.,Atlanta,GA,"""(R) - Restaurant, usually serving dinner. A '*' after this symbol does not necessarily indicate quality of food served, but popularity of the place. """,Restaurant,,,9/6/2019 12:47pm,9/6/2019 12:52pm
115,Red Dog Saloon,,3106 Peachtree Rd N.E.,Atlanta,GA,(M) - Mixed Crowds,Bars/Clubs,,,9/6/2019 12:47pm,9/7/2019 1:47pm
116,The Club South Baths,,76 4th St. N.W.,Atlanta,GA,,Baths,,,9/6/2019 12:47pm,9/6/2019 12:53pm
117,Rebel Room,,1001 Green St.,Augusta,GA,,Bars/Clubs,,,9/6/2019 12:47pm,9/7/2019 1:47pm
118,Checkmate,,1301 1st Ave.,Columbus,GA,(M) - Mixed Crowds,Bars/Clubs,,,9/6/2019 12:47pm,9/7/2019 1:47pm
120,Ann & Jamie's Tic Toc,,408 Broadway,Macon,GA,"(D) - Dancing,(*) - Very popular",Bars/Clubs,,,9/6/2019 12:47pm,9/7/2019 1:47pm
121,Basement,,3 E. Charlton at Bull,Savannah,GA,"(*) - Very popular,(D) - Dancing",Bars/Clubs,,,9/6/2019 12:47pm,9/7/2019 1:47pm
122,Blue Ball,,201 E. River St.,Savannah,GA,(*) - Very popular,Bars/Clubs,,,9/6/2019 12:47pm,9/7/2019 1:47pm
123,Colonial Lounge,,115 Albecorn,Savannah,GA,"(M) - Mixed Crowds,(RT) - 'Raunchy types' - downtown type places - often hustlers",Bars/Clubs,,,9/6/2019 12:47pm,9/7/2019 1:47pm
124,Lamp Post,,325 E. Bay St.,Savannah,GA,(M) - Mixed Crowds,Bars/Clubs,,,9/6/2019 12:47pm,9/7/2019 1:47pm
126,Rio Lounge,,116 Drayton,Savannah,GA,"(RT) - 'Raunchy types' - downtown type places - often hustlers,(M) - Mixed Crowds",Bars/Clubs,,,9/6/2019 12:47pm,9/7/2019 1:47pm
127,Sign of the White Hart,,301 E. President,Savannah,GA,"(M) - Mixed Crowds,(PE) - Pretty elegant - jacket & tie may be required,""(R) - Restaurant, usually serving dinner. A '*' after this symbol does not necessarily indicate quality of food served, but popularity of the place. """,Restaurant,,,9/6/2019 12:47pm,9/7/2019 1:47pm
133,Jerry's Drive Inn,,650 E. Main,Lexington,KY,"(M) - Mixed Crowds,""(C) - Coffee, soft drinks and sometimes snacks"",(YC) - Young and/or collegiate types",Bars/Clubs,,,9/6/2019 12:47pm,9/7/2019 2:01pm
134,Living Room,"(Closes 1am)
",24 E. Main St.,Lexington,KY,(*) - Very popular,Bars/Clubs,,,9/6/2019 12:47pm,9/7/2019 2:01pm
135,Downtowner,"(back room weekends)
",320 W. Chestnut St.,Louisville,KY,(*) - Very popular,Bars/Clubs,,,9/6/2019 12:47pm,9/7/2019 2:01pm
136,Mastersons Steak House,(After hours),1803 S. 3rd St.,Louisville,KY,"""(C) - Coffee, soft drinks and sometimes snacks"",(YC) - Young and/or collegiate types",Bars/Clubs,,,9/6/2019 12:47pm,9/7/2019 2:01pm
137,Queen Bee,,730 Logan,Louisville,KY,"(P) - Private club - Inquire locally to admission,(D) - Dancing,(S) - Shows - impersonators or record pantomime acts - often touristy",Bars/Clubs,,,9/6/2019 12:47pm,9/7/2019 2:01pm
138,Windsor Hotel Steam Baths,,926 S. 5th St.,Louisville,KY,,"Baths,Hotels",,,9/6/2019 12:47pm,12/7/2019 2:02pm
139,Bungalow,,557 3rd St.,Baton Rouge,LA,,Bars/Clubs,,,9/6/2019 12:47pm,9/7/2019 2:01pm
140,Swinging Machine,,852 Main St.,Baton Rouge,LA,(D) - Dancing,Bars/Clubs,,,9/6/2019 12:47pm,9/7/2019 2:01pm
141,Third Man,,5569 Greenwell Springs Rd.,Baton Rouge,LA,(*) - Very popular,Bars/Clubs,,,9/6/2019 12:47pm,9/7/2019 2:01pm
142,Chez Gizelle,Inquire locally,,Lafayette,LA,(M) - Mixed Crowds,Bars/Clubs,,,9/6/2019 12:47pm,9/7/2019 2:01pm
145,Caverns,,901 Bourbon St.,New Orleans,LA,,Bars/Clubs,,,9/6/2019 12:47pm,9/7/2019 10:53pm
146,Cahteau Flaminco,,607 Chartres St.,New Orleans,LA,(M) - Mixed Crowds,Bars/Clubs,,,9/6/2019 12:47pm,9/7/2019 10:53pm
147,Coffee Pot,,714 St. Peter St. ,New Orleans,LA,"""(R) - Restaurant, usually serving dinner. A '*' after this symbol does not necessarily indicate quality of food served, but popularity of the place. """,Restaurant,,,9/6/2019 12:47pm,9/7/2019 10:49pm
148,Fatted Calf,,727 St. Peter St.,New Orleans,LA,"""(R) - Restaurant, usually serving dinner. A '*' after this symbol does not necessarily indicate quality of food served, but popularity of the place. "",(M) - Mixed Crowds",Restaurant,,,9/6/2019 12:47pm,9/7/2019 10:50pm
149,Galley House,,542 Chartres St.,New Orleans,LA,(*) - Very popular,Bars/Clubs,,,9/6/2019 12:47pm,9/7/2019 10:53pm
150,Golden Lantern,,1239 Royal St.,New Orleans,LA,,Bars/Clubs,,,9/6/2019 12:47pm,9/7/2019 10:53pm
151,Kookie's,,1210 N. Rampart,New Orleans,LA,"""(G) - Girls, but rarely exclusively""",Bars/Clubs,,,9/6/2019 12:47pm,9/7/2019 10:53pm
152,Lafitte's in Exile,,901 Bourbon St.,New Orleans,LA,(*) - Very popular,Bars/Clubs,,,9/7/2019 2:02pm,9/7/2019 10:53pm
153,Lafitte's Annex,,740 Burgundy,New Orleans,LA,,Bars/Clubs,,,9/7/2019 2:02pm,9/7/2019 10:53pm
154,Mr. D's,,600 Dauphine St.,New Orleans,LA,"""(G) - Girls, but rarely exclusively"",(RT) - 'Raunchy types' - downtown type places - often hustlers",Bars/Clubs,,,9/7/2019 2:02pm,9/7/2019 10:53pm
155,Mom's Society Page,,819 St. Louis St.,New Orleans,LA,(RT) - 'Raunchy types' - downtown type places - often hustlers,Bars/Clubs,,,9/7/2019 2:02pm,9/7/2019 10:53pm
156,Pete's Place,,900 Bourbon St.,New Orleans,LA,(*) - Very popular,Bars/Clubs,,,9/7/2019 2:02pm,9/7/2019 10:53pm
158,Speakeasy,,834 N. Rampart,New Orleans,LA,"(M) - Mixed Crowds,(S) - Shows - impersonators or record pantomime acts - often touristy",Bars/Clubs,,,9/7/2019 2:02pm,9/7/2019 10:53pm
159,Wanda's,,608 Iberville,New Orleans,LA,(RT) - 'Raunchy types' - downtown type places - often hustlers,Bars/Clubs,,,9/7/2019 2:02pm,9/7/2019 10:53pm
160,Bobby's Korner,,800 Louisiana,Shreveport,LA,(*) - Very popular,Bars/Clubs,,,9/7/2019 2:02pm,9/7/2019 10:53pm
161,Western Hill Motel Bar,,3515 E. Texas (Bosier City),Shreveport,LA,"(M) - Mixed Crowds,(PE) - Pretty elegant - jacket & tie may be required","Bars/Clubs,Hotels",,,9/7/2019 2:02pm,12/7/2019 2:03pm
164,Mirror Room,,710 Central Beach Blvd.,Biloxi,MS,(M) - Mixed Crowds,Bars/Clubs,,,9/7/2019 2:02pm,9/7/2019 10:58pm
168,Tempo,,159 E. 4th St.,Chapel Hill,NC,"(*) - Very popular,(YC) - Young and/or collegiate types",Bars/Clubs,,,9/7/2019 2:02pm,9/7/2019 11:59pm
169,Barringer Inn Bar,,426 N. Tyson,Charlotte,NC,(M) - Mixed Crowds,"Bars/Clubs,Hotels",,,9/7/2019 2:02pm,12/7/2019 2:04pm
172,Stein Room ,Holiday Inn,422 Eastern Blvd,Fayetteville,NC,(M) - Mixed Crowds,"Bars/Clubs,Hotels",,,9/7/2019 2:02pm,12/7/2019 2:04pm
173,General Greene Bar,,253 N. Green St.,Greensboro,NC,,Bars/Clubs,,,9/7/2019 2:02pm,9/7/2019 11:59pm
176,Sand Bar,,19 S. 2nd St.,Wilmington,NC,(M) - Mixed Crowds,Bars/Clubs,,,9/7/2019 2:02pm,9/7/2019 11:59pm
179,Wagon Wheel,,330 King St.,Charleston,SC,,Bars/Clubs,,,9/7/2019 2:02pm,9/7/2019 11:59pm
181,The Lounge,,1103 Lady St.,Columbia,SC,"(YC) - Young and/or collegiate types,(*) - Very popular",Bars/Clubs,,,9/7/2019 2:02pm,9/7/2019 11:59pm
182,Horseshoe Lounge,,443 E. Stone,Greenville,SC,,Bars/Clubs,,,9/7/2019 2:02pm,9/7/2019 11:59pm
183,Beach Towel,,403 1st Ave. N.,Myrtle Beach,SC,,Bars/Clubs,,,9/7/2019 2:02pm,9/7/2019 11:59pm
184,Pizza Palace,,3101 Brainerd Rd,Chattanooga,TN,,Bars/Clubs,,,9/7/2019 2:02pm,9/7/2019 11:59pm
185,Rathskeller,,618 Cherry,Chattanooga,TN,,Bars/Clubs,,,9/7/2019 2:02pm,9/7/2019 11:59pm
188,Andrew Jackson Hotel Bar,,918 Gay St. S.W.,Knoxville,TN,(M) - Mixed Crowds,"Bars/Clubs,Hotels",,,9/7/2019 2:02pm,12/7/2019 2:02pm
189,Brownie's Grill,,2218 Cumberland Ave.,Knoxville,TN,,Bars/Clubs,,,9/7/2019 2:02pm,9/7/2019 11:59pm
190,Five-O-Nine Club,,509 Church Ave. S.W. ,Knoxville,TN,,Bars/Clubs,,,9/7/2019 2:02pm,9/7/2019 11:59pm
191,Famous Door Lounge,,1786 Madison Ave.,Memphis,TN,"""(G) - Girls, but rarely exclusively""",Bars/Clubs,,,9/7/2019 2:02pm,9/7/2019 11:59pm
192,Entree Nuit,,265 So. Cleveland,Memphis,TN,"(*) - Very popular,""(R) - Restaurant, usually serving dinner. A '*' after this symbol does not necessarily indicate quality of food served, but popularity of the place. """,Restaurant,,,9/7/2019 2:02pm,9/7/2019 11:16pm
193,Frank's Shobar,,233 So. Bellevue,Memphis,TN,"(YC) - Young and/or collegiate types,(*) - Very popular",Bars/Clubs,,,9/7/2019 2:02pm,9/7/2019 11:59pm
194,Psyche Out,,239 S. Bellevue,Memphis,TN,(YC) - Young and/or collegiate types,Bars/Clubs,,,9/7/2019 2:02pm,9/7/2019 11:59pm
195,Hi Hat Lounge,,604 Commerce,Nashville,TN,(M) - Mixed Crowds,Bars/Clubs,,,9/7/2019 2:02pm,9/7/2019 11:59pm
196,Juanita's,,713 Commerce,Nashville,TN,(*) - Very popular,Bars/Clubs,,,9/7/2019 2:02pm,9/7/2019 11:59pm
197,Jungle Lounge,(best after midnight),715 Commerce,Nashville,TN,(*) - Very popular,Bars/Clubs,,,9/7/2019 2:02pm,9/7/2019 11:59pm
198,Back Door Lounge,,408 E. 10th St.,Amarillo,TX,(*) - Very popular,Bars/Clubs,,,9/7/2019 2:02pm,9/7/2019 11:59pm
199,Apartment Bar,"(no neon, looks like private house)",2828 Rio Grande,Austin,TX,"(D) - Dancing,(*) - Very popular",Bars/Clubs,,,9/7/2019 2:02pm,9/7/2019 11:59pm
200,Jade Lounge,,1501 San Jacinto,Austin,TX,(M) - Mixed Crowds,Bars/Clubs,,,9/7/2019 2:02pm,9/7/2019 11:59pm
202,Plantation,(After hours),503 W. 19th St.,Austin,TX,"""(R) - Restaurant, usually serving dinner. A '*' after this symbol does not necessarily indicate quality of food served, but popularity of the place. """,Restaurant,,,9/7/2019 2:03pm,9/7/2019 11:17pm
205,Ronnie's Bamboo Room,,219 N. Frazier,Conroe,TX,,Bars/Clubs,,,9/7/2019 2:03pm,9/7/2019 11:59pm
206,Maison Rouge,,1009 Santa Fe,Corpus Christi,TX,(*) - Very popular,Bars/Clubs,,,9/7/2019 2:03pm,9/7/2019 11:59pm
207,Atlantis,,2116 N. Field at Cedar Spgs.,Dallas,TX,"(*) - Very popular,(YC) - Young and/or collegiate types",Bars/Clubs,,,9/7/2019 2:03pm,9/7/2019 11:59pm
208,Bev's,,4737 Maple Ave.,Dallas,TX,"(P) - Private club - Inquire locally to admission,(D) - Dancing",Bars/Clubs,,,9/7/2019 2:03pm,9/7/2019 11:59pm
210,Gallery One,,3113 Live Oak,Dallas,TX,,Bars/Clubs,,,9/7/2019 2:03pm,9/7/2019 11:59pm
211,Gene's Music Box,(afer hours (C) weekends),307 S. Akard,Dallas,TX,"(RT) - 'Raunchy types' - downtown type places - often hustlers,""(C) - Coffee, soft drinks and sometimes snacks""",Bars/Clubs,,,9/7/2019 2:03pm,9/7/2019 11:59pm
212,Jeno's Lounge,,4818 Gaston,Dallas,TX,,Bars/Clubs,,,9/7/2019 2:03pm,9/7/2019 11:59pm
213,Lil' Tiff's,,2906 N. Henderson,Dallas,TX,"""(G) - Girls, but rarely exclusively""",Bars/Clubs,,,9/7/2019 2:03pm,9/7/2019 11:59pm
214,Lone Star Drive In,(after hours),6412 Lemmon,Dallas,TX,"""(C) - Coffee, soft drinks and sometimes snacks""",Bars/Clubs,,,9/7/2019 2:03pm,9/7/2019 11:59pm
215,Swinger ,,4419 Live Oak,Dallas,TX,(*) - Very popular,Bars/Clubs,,,9/7/2019 2:03pm,9/7/2019 11:59pm
216,Tara Club,,2121 Field,Dallas,TX,,Bars/Clubs,,,9/7/2019 2:03pm,9/7/2019 11:59pm
217,That Joint,,3307 McKinney,Dallas,TX,"(YC) - Young and/or collegiate types,(D) - Dancing,(*) - Very popular",Bars/Clubs,,,9/7/2019 2:03pm,9/7/2019 11:59pm
218,Trio Coffee Shop,"(after hours) nr. Lemmon
",3541 McKinney ,Dallas,TX,"(YC) - Young and/or collegiate types,(*) - Very popular",Bars/Clubs,,,9/7/2019 2:03pm,9/7/2019 11:59pm
219,Trumpet Lounge,,6400 Forest Lane,Dallas,TX,(M) - Mixed Crowds,Bars/Clubs,,,9/7/2019 2:03pm,9/7/2019 11:59pm
220,Villa Fontana,near  Live Oak,1315 Skiles,Dallas,TX,(*) - Very popular,Bars/Clubs,,,9/7/2019 2:03pm,9/7/2019 11:59pm
221,Circus Club,(bet. Mills & Oregon),110 Sheldon,El Paso,TX,(M) - Mixed Crowds,Bars/Clubs,,,9/7/2019 2:03pm,9/7/2019 11:59pm
222,Club Diamond Lil,(semi private),100 N. Florence at Magoffin,El Paso,TX,(*) - Very popular,Bars/Clubs,,,9/7/2019 2:03pm,9/7/2019 11:59pm
223,Club Pigalle,,613 E. San Antonio,El Paso,TX,(*) - Very popular,Bars/Clubs,,,9/7/2019 2:03pm,9/7/2019 11:59pm
224,Le Milord,,315 S. Kansas,El Paso,TX,,Bars/Clubs,,,9/7/2019 2:03pm,9/7/2019 11:59pm
226,Voyager Lounge,,112 W. San Antonio,El Paso,TX,,Bars/Clubs,,,9/7/2019 2:03pm,9/7/2019 11:59pm
229,The Bar (Littke Augie's),,3026 W. Lancaster,Ft. Worth,TX,"""(G) - Girls, but rarely exclusively""",Bars/Clubs,,,9/7/2019 2:03pm,9/7/2019 11:59pm
230,Kon Tiki,,215 19th St.,Galveston,TX,"(P) - Private club - Inquire locally to admission,(D) - Dancing,(*) - Very popular",Bars/Clubs,,,9/7/2019 2:03pm,9/7/2019 11:59pm
232,Scarlet Angel,,213 22nd St.,Galveston,TX,"(D) - Dancing,(*) - Very popular",Bars/Clubs,,,9/7/2019 2:03pm,9/7/2019 11:59pm
234,Ali Baba,"(Old Market Sq)
",823 Congress,Houston,TX,"(PE) - Pretty elegant - jacket & tie may be required,(M) - Mixed Crowds",Bars/Clubs,,,9/7/2019 2:03pm,9/7/2019 11:59pm
235,Apartment,,3603 Sandman,Houston,TX,"(YC) - Young and/or collegiate types,(P) - Private club - Inquire locally to admission,(D) - Dancing,""(G) - Girls, but rarely exclusively"",(*) - Very popular",Bars/Clubs,,,9/7/2019 2:03pm,9/8/2019 12:00am
236,Art Wren's,(After hours),616 Westheimer,Houston,TX,"""(C) - Coffee, soft drinks and sometimes snacks""",Bars/Clubs,,,9/7/2019 2:03pm,9/8/2019 12:00am
237,Athens,(Waterfront Docks),8037 Clinton Dr. ,Houston,TX,"(RT) - 'Raunchy types' - downtown type places - often hustlers,(M) - Mixed Crowds",Bars/Clubs,,,9/7/2019 2:03pm,9/8/2019 12:00am
238,Balcony Club,,1809 Louisiana,Houston,TX,"(P) - Private club - Inquire locally to admission,(D) - Dancing",Bars/Clubs,,,9/7/2019 2:03pm,9/8/2019 12:00am
239,Blue Star,(After hours),800 Elgin,Houston,TX,"""(C) - Coffee, soft drinks and sometimes snacks""",Bars/Clubs,,,9/7/2019 2:03pm,9/8/2019 12:00am
240,Exile,,1011 Bell,Houston,TX,(S) - Shows - impersonators or record pantomime acts - often touristy,Bars/Clubs,,,9/7/2019 2:03pm,9/8/2019 12:00am
242,Galleon,,2720 Richmond,Houston,TX,,Bars/Clubs,,,9/7/2019 2:03pm,9/8/2019 12:00am
243,Gold Room,,2802 Austin,Houston,TX,"(B) - Blacks predominate,(*) - Very popular",Bars/Clubs,,,9/7/2019 2:03pm,9/8/2019 12:00am
244,Hunting Horn,,932 W. Gray,Houston,TX,,Bars/Clubs,,,9/7/2019 2:03pm,9/8/2019 12:00am
245,La Boheme,,1504 Westheimer,Houston,TX,,Bars/Clubs,,,9/7/2019 2:03pm,9/8/2019 12:00am
246,La Caja,(especially back patio. very good Sunday afternoons),1104 Tuam,Houston,TX,(*) - Very popular,Bars/Clubs,,,9/7/2019 2:03pm,9/8/2019 12:00am
247,La Carafe,(Old Market Sq.),813 Congress,Houston,TX,"(PE) - Pretty elegant - jacket & tie may be required,(M) - Mixed Crowds",Bars/Clubs,,,9/7/2019 2:03pm,9/8/2019 12:00am
248,Les Quatre Saisons,(Four Seasons) (Old Market Sq.),316 Milam,Houston,TX,"(M) - Mixed Crowds,(PE) - Pretty elegant - jacket & tie may be required,(*) - Very popular",Bars/Clubs,,,9/7/2019 2:03pm,9/8/2019 12:00am
249,Moulin Rouge,(Old Market Sq.),308 Milam,Houston,TX,"(M) - Mixed Crowds,(PE) - Pretty elegant - jacket & tie may be required",Bars/Clubs,,,9/7/2019 2:03pm,9/8/2019 12:00am
250,Pink Elephant,,1218 Leeland,Houston,TX,(RT) - 'Raunchy types' - downtown type places - often hustlers,Bars/Clubs,,,9/7/2019 2:03pm,9/8/2019 12:00am
251,Plantantion Club,,1940 W. Gray,Houston,TX,"(P) - Private club - Inquire locally to admission,(D) - Dancing,(YC) - Young and/or collegiate types,(*) - Very popular",Bars/Clubs,,,9/7/2019 2:03pm,9/8/2019 12:00am
252,Red Room,,612 Hadley,Houston,TX,(*) - Very popular,Bars/Clubs,,,9/7/2019 2:03pm,9/8/2019 12:00am
253,Roaring 60's,,2305 Shepherd,Houston,TX,"""(G) - Girls, but rarely exclusively""",Bars/Clubs,,,9/7/2019 2:03pm,9/8/2019 12:00am
254,Round Table,,507 Westheimer,Houston,TX,,Bars/Clubs,,,9/7/2019 2:03pm,9/8/2019 12:00am
255,Seagull,,1003 California,Houston,TX,"""(R) - Restaurant, usually serving dinner. A '*' after this symbol does not necessarily indicate quality of food served, but popularity of the place. """,Restaurant,,,9/7/2019 2:03pm,9/8/2019 12:00am
256,Slim's Lounge,,2923 Main St.,Houston,TX,,Bars/Clubs,,,9/7/2019 2:03pm,9/8/2019 12:00am
257,Surf,(Best Sunday Afternoons),2909 Main,Houston,TX,,Bars/Clubs,,,9/7/2019 2:03pm,9/8/2019 12:00am
258,Tiffany's ,(Old Market Sq.),311 Travis,Houston,TX,"(M) - Mixed Crowds,(PE) - Pretty elegant - jacket & tie may be required",Bars/Clubs,,,9/7/2019 2:03pm,9/8/2019 12:00am
259,Tradewinds,,706 Elgin,Houston,TX,(M) - Mixed Crowds,Bars/Clubs,,,9/7/2019 2:03pm,9/8/2019 12:00am
260,Regency Country Club,(off Hwy 59),15312 Lee Road,Humble,TX,,Bars/Clubs,,,9/7/2019 2:03pm,9/8/2019 12:00am
261,Duffy's,,5 So. 16th St.,McAllen,TX,"(*) - Very popular,(M) - Mixed Crowds",Bars/Clubs,,,9/7/2019 2:03pm,9/8/2019 12:00am
263,Friendly Lounge,,106 E. Hwy.,McAllen,TX,,Bars/Clubs,,,9/7/2019 11:53pm,9/8/2019 12:00am
264,Club Samoa,,3404 Wall,Midland,TX,(M) - Mixed Crowds,Bars/Clubs,,,9/7/2019 11:53pm,9/8/2019 12:00am
267,Arena Club,,3123 Broadway,San Antonio,TX,(*) - Very popular,Bars/Clubs,,,9/7/2019 11:53pm,9/8/2019 12:00am
268,Buddha Lounge,,2315 San Pedrom,San Antonio,TX,"""(G) - Girls, but rarely exclusively""",Bars/Clubs,,,9/7/2019 11:53pm,9/8/2019 12:00am
269,Cork Room,,411 N. St. Mary's,San Antonio,TX,(*) - Very popular,Bars/Clubs,,,9/7/2019 11:53pm,9/8/2019 12:00am
270,El Jardin,,106 Navarro,San Antonio,TX,(*) - Very popular,Bars/Clubs,,,9/7/2019 11:53pm,9/8/2019 12:00am
271,Mary Ellan's,,139 Fredericksburg Rd.,San Antonio,TX,,Bars/Clubs,,,9/7/2019 11:53pm,9/8/2019 12:00am
274,Louise's Lounge,,inquire locally,Victoria,TX,,,,,9/7/2019 11:53pm,9/8/2019 12:05am
275,Dale's Blue Lounge,,1606 Lamar,Wichita Falls,TX,(M) - Mixed Crowds,,,,9/7/2019 11:53pm,9/8/2019 12:05am
276,Office,,800 Travis,Wichita Falls,TX,"(*) - Very popular,(M) - Mixed Crowds",,,,9/7/2019 11:53pm,9/8/2019 12:05am
277,Pine Tree Cafe,,inquire locally,Willis,TX,(M) - Mixed Crowds,,,,9/7/2019 11:53pm,9/8/2019 12:05am
278,Raven Room,,Rt. 29 N.,Charlottesville,VA,"(YC) - Young and/or collegiate types,(M) - Mixed Crowds",,,,9/7/2019 11:53pm,9/8/2019 12:12am
280,Continental,,111 W. Tazewell,Norfolk,VA,(*) - Very popular,,,,9/8/2019 12:00am,9/8/2019 12:12am
281,Ritz Bar,,135 Brooke,Norfolk,VA,"(*) - Very popular,(YC) - Young and/or collegiate types",,,,9/8/2019 12:01am,9/8/2019 12:12am
282,Tiger Lounge,,7726 Hampton,Norfolk,VA,"(M) - Mixed Crowds,(RT) - 'Raunchy types' - downtown type places - often hustlers",,,,9/8/2019 12:10am,12/7/2019 2:03pm
283,Tradewinds,,717 Franklin Rd. S.W. ,Roanoke,VA,"(M) - Mixed Crowds,""(G) - Girls, but rarely exclusively""",,,,9/8/2019 12:10am,9/8/2019 12:13am