ID,title,description,streetaddress,city,state,amenityfeatures,type,unclearaddress,notes,dateadded,lastmodified
136,Mini Adult Theater ,,7321 Collins,Miami Beach,FL,,Theater,,,9/25/2019 7:27am,12/18/2019 12:27pm
194,Gay Paree Cinema ,(Theatre),90 Walton St. N.W.,Atlanta,GA,,Theater,,,9/25/2019 8:21am,12/18/2019 12:26pm
395,Studio 9 Theatre,,4817 Bryan,Dallas,TX,,Theater,,,10/1/2019 4:19pm,12/18/2019 12:27pm
451,Mini Park Theatre ,,2907 S. Main St.,Houston,TX,,Theater,,,10/1/2019 4:42pm,12/18/2019 12:28pm
73,University Cigar &Newstand,(book store & beer tavern),18 W. University,Gainsville,FL,,Book Store,,,9/25/2019 6:54am,10/28/2019 9:40am
75,Books ’n Things ,,262 N. Federal Hwy,Hallandale,FL,,Book Store,,,9/25/2019 6:54am,10/28/2019 9:37am
482,Globe News Stand ,,204 E. Houston ,San Antonio,TX,,Book Store,,,10/1/2019 4:56pm,10/28/2019 9:38am
391,Metropolitan Community Church,,4015 Normandie ,Dallas,TX,,Church,,,10/1/2019 4:18pm,10/5/2019 1:05pm
322,Fiddlers Three,Park Central Hotel,209 E. 5th St.,Greenville,NC,"""(R) - Restaurant, usually serving dinner. A '*' after this symbol does not necessarily indicate quality of food served, but popularity of the place. "",(D) - Dancing,(*) - Very popular","Restaurant,Hotels",,,10/1/2019 3:39pm,12/7/2019 2:20pm
1,Pasquale’s Pizza,,174 E. Magnolia,Auburn,AL,"(M) - Mixed Crowds,""(R) - Restaurant, usually serving dinner. A '*' after this symbol does not necessarily indicate quality of food served, but popularity of the place. """,Restaurant,,,9/19/2019 10:54am,10/5/2019 12:23pm
5,Mammy’s Pancake House,,2151 Highland Ave. S.,Birmingham,AL,"(M) - Mixed Crowds,""(R) - Restaurant, usually serving dinner. A '*' after this symbol does not necessarily indicate quality of food served, but popularity of the place. """,Restaurant,,,9/19/2019 10:54am,10/5/2019 12:23pm
7,Pitt Grill,(after hours),2300 6th Ave. S.,Birmingham,AL,"(M) - Mixed Crowds,""(R) - Restaurant, usually serving dinner. A '*' after this symbol does not necessarily indicate quality of food served, but popularity of the place. "",""(C) - Coffee, soft drinks and sometimes snacks""",Restaurant,,,9/19/2019 10:54am,10/5/2019 12:23pm
8,Shoney’s ,(after hours),221 N. 20th ,Birmingham,AL,"(M) - Mixed Crowds,""(R) - Restaurant, usually serving dinner. A '*' after this symbol does not necessarily indicate quality of food served, but popularity of the place. """,Restaurant,,,9/19/2019 10:54am,10/5/2019 12:23pm
11,Why Not Eat Here Cafe,,2020 Moulton St.,Decatur,AL,(M) - Mixed Crowds,Restaurant,,,9/19/2019 10:54am,10/28/2019 9:37am
24,Mollie’s,,360 Central Ave.,Hot Springs,AK,"(M) - Mixed Crowds,""(R) - Restaurant, usually serving dinner. A '*' after this symbol does not necessarily indicate quality of food served, but popularity of the place. """,Restaurant,,,9/19/2019 10:54am,10/5/2019 12:23pm
71,Waffle House ,(after hours),S. 1st St. at Hanson,Ft. Myers,FL,"(M) - Mixed Crowds,""(C) - Coffee, soft drinks and sometimes snacks"",""(R) - Restaurant, usually serving dinner. A '*' after this symbol does not necessarily indicate quality of food served, but popularity of the place. """,Restaurant,,,9/25/2019 6:54am,10/28/2019 9:35am
86,Patricia’s,Gator Lodge,4141 Phillips Hwy.,Jacksonville,FL,"(M) - Mixed Crowds,""(R) - Restaurant, usually serving dinner. A '*' after this symbol does not necessarily indicate quality of food served, but popularity of the place. "",""(C) - Coffee, soft drinks and sometimes snacks""",Restaurant,,,9/25/2019 6:58am,10/5/2019 12:23pm
99,"
  Cactus Lounge 
  ",,2041 N.E. Biscayne Blvd. ,Miami,FL,"""(R) - Restaurant, usually serving dinner. A '*' after this symbol does not necessarily indicate quality of food served, but popularity of the place. "",(*) - Very popular",Restaurant,,,9/25/2019 7:07am,10/28/2019 9:35am
100,"
  Candlelight 
  ",(Coconut Grove),3131 Commodore Plaza,Miami,FL,"(M) - Mixed Crowds,(PE) - Pretty elegant - jacket & tie may be required,""(R) - Restaurant, usually serving dinner. A '*' after this symbol does not necessarily indicate quality of food served, but popularity of the place. """,Restaurant,,,9/25/2019 7:07am,10/28/2019 9:35am
102,"
  Country Store 
  ",(Coconut Grove),2880 Florida Ave.,Miami,FL,"(M) - Mixed Crowds,(PE) - Pretty elegant - jacket & tie may be required,""(R) - Restaurant, usually serving dinner. A '*' after this symbol does not necessarily indicate quality of food served, but popularity of the place. """,Restaurant,,,9/25/2019 7:07am,10/28/2019 9:35am
110,Hamlet ,(Coconut Grove),3416 Main Hwy.,Miami,FL,"""(R) - Restaurant, usually serving dinner. A '*' after this symbol does not necessarily indicate quality of food served, but popularity of the place. "",(*) - Very popular",Restaurant,,,9/25/2019 7:10am,10/5/2019 12:24pm
114,Little Tiki ,,168 Coral Way,Miami,FL,"""(G) - Girls, but seldom exclusively"",""(R) - Restaurant, usually serving dinner. A '*' after this symbol does not necessarily indicate quality of food served, but popularity of the place. "",(*) - Very popular",Restaurant,,,9/25/2019 7:10am,10/5/2019 12:24pm
123,Studio ,,2340 S.W. 32nd Ave.,Miami,FL,"""(R) - Restaurant, usually serving dinner. A '*' after this symbol does not necessarily indicate quality of food served, but popularity of the place. "",(*) - Very popular",Restaurant,,,9/25/2019 7:22am,10/5/2019 12:24pm
133,Garden Grate ,(same bldg. as Nite Owl & Pin Up) ,2232 Park Ave.,Miami Beach,FL,"""(R) - Restaurant, usually serving dinner. A '*' after this symbol does not necessarily indicate quality of food served, but popularity of the place. """,Restaurant,,,9/25/2019 7:27am,10/5/2019 12:24pm
137,Neil’s ,(after hours),1675 Alton Rd.,Miami Beach,FL,"""(R) - Restaurant, usually serving dinner. A '*' after this symbol does not necessarily indicate quality of food served, but popularity of the place. "",""(C) - Coffee, soft drinks and sometimes snacks""",Restaurant,,,9/25/2019 7:27am,10/5/2019 12:24pm
188,Chez Louis ,,3861 Roswell Rd. ,Atlanta,GA,"(M) - Mixed Crowds,(PE) - Pretty elegant - jacket & tie may be required,""(R) - Restaurant, usually serving dinner. A '*' after this symbol does not necessarily indicate quality of food served, but popularity of the place. """,Restaurant,,,9/25/2019 8:06am,10/28/2019 9:35am
195,Gene & Gabe’s,(popular Sundays – BYOB),1578 Piedmont Ave. N.E. ,Atlanta,GA,"""(R) - Restaurant, usually serving dinner. A '*' after this symbol does not necessarily indicate quality of food served, but popularity of the place. "",(BYOB) - Bring your own bottle",Restaurant,,,9/25/2019 8:21am,12/18/2019 12:27pm
196,International House of Pancakes,,1516 Piedmont Ave. N.E.  ,Atlanta,GA,"(M) - Mixed Crowds,""(R) - Restaurant, usually serving dinner. A '*' after this symbol does not necessarily indicate quality of food served, but popularity of the place. """,Restaurant,,,9/25/2019 8:21am,10/5/2019 1:02pm
202,Picadilly Lounge ,,1129 Peachtree St. N.E ,Atlanta,GA,"""(R) - Restaurant, usually serving dinner. A '*' after this symbol does not necessarily indicate quality of food served, but popularity of the place. "",(PE) - Pretty elegant - jacket & tie may be required",Restaurant,,,9/25/2019 8:25am,10/5/2019 1:02pm
203,Prince George Inn,,114 6th St. N.E.,Atlanta,GA,"""(R) - Restaurant, usually serving dinner. A '*' after this symbol does not necessarily indicate quality of food served, but popularity of the place. "",(PE) - Pretty elegant - jacket & tie may be required",Restaurant,,,9/25/2019 8:25am,10/5/2019 1:03pm
222,"
  Johnnie Ganem
  ",(after hours),501 Habersham,Savannah,GA,"(M) - Mixed Crowds,""(C) - Coffee, soft drinks and sometimes snacks"",""(R) - Restaurant, usually serving dinner. A '*' after this symbol does not necessarily indicate quality of food served, but popularity of the place. """,Restaurant,,,10/1/2019 2:44pm,10/28/2019 9:35am
230,Dobbs House,(after hours),1136 S. 4th  St. ,Louisville,KY,"(M) - Mixed Crowds,""(R) - Restaurant, usually serving dinner. A '*' after this symbol does not necessarily indicate quality of food served, but popularity of the place. "",""(C) - Coffee, soft drinks and sometimes snacks"",(YC) - Young and/or collegiate types",Restaurant,,,10/1/2019 2:55pm,10/5/2019 1:03pm
260,Emy’s ,,918 Royal St.,New Orleans,LA,"""(R) - Restaurant, usually serving dinner. A '*' after this symbol does not necessarily indicate quality of food served, but popularity of the place. """,Restaurant,,,10/1/2019 3:15pm,10/5/2019 1:03pm
261,Fared Calf ,,727 St. Peter St.,New Orleans,LA,"(M) - Mixed Crowds,""(R) - Restaurant, usually serving dinner. A '*' after this symbol does not necessarily indicate quality of food served, but popularity of the place. """,Restaurant,,,10/1/2019 3:15pm,10/5/2019 1:03pm
268,Marti’s ,,1041 Dumaine St.,New Orleans,LA,"(M) - Mixed Crowds,""(R) - Restaurant, usually serving dinner. A '*' after this symbol does not necessarily indicate quality of food served, but popularity of the place. """,Restaurant,,,10/1/2019 3:15pm,10/5/2019 1:03pm
269,Maxey’s Coffee Pot ,,714 St. Peter St. ,New Orleans,LA,"""(R) - Restaurant, usually serving dinner. A '*' after this symbol does not necessarily indicate quality of food served, but popularity of the place. """,Restaurant,,,10/1/2019 3:15pm,10/5/2019 1:03pm
270,My-O-My Club ,(touristy),940 Conti St. ,New Orleans,LA,"(M) - Mixed Crowds,""(R) - Restaurant, usually serving dinner. A '*' after this symbol does not necessarily indicate quality of food served, but popularity of the place. """,Restaurant,,,10/1/2019 3:15pm,10/5/2019 1:03pm
273,Powder Puff Revue ,(touristy),321  Bourbon St.,New Orleans,LA,"(M) - Mixed Crowds,""(R) - Restaurant, usually serving dinner. A '*' after this symbol does not necessarily indicate quality of food served, but popularity of the place. """,Restaurant,,,10/1/2019 3:15pm,10/28/2019 9:35am
277,Society Page ,(‘Moms’),819 St. Louis St.,New Orleans,LA,"(RT) - 'Raunchy types' - downtown type places - often hustlers,(M) - Mixed Crowds,""(R) - Restaurant, usually serving dinner. A '*' after this symbol does not necessarily indicate quality of food served, but popularity of the place. """,Restaurant,,,10/1/2019 3:16pm,10/28/2019 9:35am
278,Speakeasy,,834 N. Rampart St.,New Orleans,LA,"(M) - Mixed Crowds,""(R) - Restaurant, usually serving dinner. A '*' after this symbol does not necessarily indicate quality of food served, but popularity of the place. """,Restaurant,,,10/1/2019 3:21pm,10/5/2019 1:03pm
279,Street Car ,(above Lafitte’s),901 Bourbon St.,New Orleans,LA,"""(R) - Restaurant, usually serving dinner. A '*' after this symbol does not necessarily indicate quality of food served, but popularity of the place. "",(*) - Very popular",Restaurant,,,10/1/2019 3:21pm,10/5/2019 1:03pm
293,Mary Mahoney’s Old French House ,,138 Magnolia St.,Biloxi,MS,"(M) - Mixed Crowds,""(R) - Restaurant, usually serving dinner. A '*' after this symbol does not necessarily indicate quality of food served, but popularity of the place. "",(PE) - Pretty elegant - jacket & tie may be required",Restaurant,,,10/1/2019 3:21pm,10/5/2019 1:04pm
310,Pizza Villa,(downstairs),133 Franklin St.,Chapel Hill,NC,"(YC) - Young and/or collegiate types,(M) - Mixed Crowds",Restaurant,,,10/1/2019 3:39pm,10/28/2019 9:39am
328,Zebra,(go go boys),598 Meeting St. ,Charleston,SC,"(P) - Private club - Inquire locally to admission,""(R) - Restaurant, usually serving dinner. A '*' after this symbol does not necessarily indicate quality of food served, but popularity of the place. "",(YC) - Young and/or collegiate types,(D) - Dancing,(*) - Very popular",Restaurant,,,10/1/2019 3:47pm,10/5/2019 1:04pm
350,Ohman House Snack Shop ,(after hours),2158 Union,Memphis,TN,"(M) - Mixed Crowds,""(C) - Coffee, soft drinks and sometimes snacks"",""(R) - Restaurant, usually serving dinner. A '*' after this symbol does not necessarily indicate quality of food served, but popularity of the place. """,Restaurant,,,10/1/2019 3:56pm,10/28/2019 9:35am
370,"
  Hadrian’s Patio Club
  ",,600 Agness,Corpus Christi,TX,"(P) - Private club - Inquire locally to admission,(HIP) - Heads frequent,(YC) - Young and/or collegiate types,(D) - Dancing,""(R) - Restaurant, usually serving dinner. A '*' after this symbol does not necessarily indicate quality of food served, but popularity of the place. "",(*) - Very popular",Restaurant,,,10/1/2019 4:03pm,10/28/2019 9:35am
389,Lucas B & B,,3520 Oak Lawn,Dallas,TX,"(M) - Mixed Crowds,""(R) - Restaurant, usually serving dinner. A '*' after this symbol does not necessarily indicate quality of food served, but popularity of the place. "",""(C) - Coffee, soft drinks and sometimes snacks""",Restaurant,,,10/1/2019 4:10pm,10/5/2019 1:05pm
398,Trio Coffee Shop,(after hours),3541 McKinney,Dallas,TX,"(M) - Mixed Crowds,""(R) - Restaurant, usually serving dinner. A '*' after this symbol does not necessarily indicate quality of food served, but popularity of the place. "",(YC) - Young and/or collegiate types",Restaurant,,,10/1/2019 4:19pm,10/5/2019 1:05pm
424,Old South Pancake House,(after hours),1501 S. University Dr.,Ft. Worth,TX,"""(R) - Restaurant, usually serving dinner. A '*' after this symbol does not necessarily indicate quality of food served, but popularity of the place. "",""(C) - Coffee, soft drinks and sometimes snacks""",Restaurant,,,10/1/2019 4:28pm,10/5/2019 1:06pm
435,Althea,(3 floors and patio),2425 W. Alabama ,Houston,TX,"(YC) - Young and/or collegiate types,(D) - Dancing,""(R) - Restaurant, usually serving dinner. A '*' after this symbol does not necessarily indicate quality of food served, but popularity of the place. "",(*) - Very popular",Restaurant,,,10/1/2019 4:35pm,10/5/2019 1:06pm
455,Numbers,,1003 California ,Houston,TX,"""(R) - Restaurant, usually serving dinner. A '*' after this symbol does not necessarily indicate quality of food served, but popularity of the place. """,Restaurant,,,10/1/2019 4:42pm,10/5/2019 1:06pm
462,Silver Dollar ,(Art Wren’s) ( after hours),616 Westheimer ,Houston,TX,"""(C) - Coffee, soft drinks and sometimes snacks"",""(R) - Restaurant, usually serving dinner. A '*' after this symbol does not necessarily indicate quality of food served, but popularity of the place. """,Restaurant,,,10/1/2019 4:42pm,10/28/2019 9:35am
463,Simpson’s Diner,,1413 Main St.,Houston,TX,"""(C) - Coffee, soft drinks and sometimes snacks"",""(R) - Restaurant, usually serving dinner. A '*' after this symbol does not necessarily indicate quality of food served, but popularity of the place. "",(RT) - 'Raunchy types' - downtown type places - often hustlers",Restaurant,,,10/1/2019 4:42pm,10/28/2019 9:35am
466,Tradewinds,,706 Elgin,Houston,TX,"(M) - Mixed Crowds,""(SM) - Some motorcycle. Don't confuse with 'M-S,' which means mixed crowds - shows. "",""(R) - Restaurant, usually serving dinner. A '*' after this symbol does not necessarily indicate quality of food served, but popularity of the place. """,Restaurant,,,10/1/2019 4:50pm,10/28/2019 9:35am
501,Fleet ,,2013 Taussig,Norfolk,VA,"""(R) - Restaurant, usually serving dinner. A '*' after this symbol does not necessarily indicate quality of food served, but popularity of the place. "",(M) - Mixed Crowds",Restaurant,,,10/1/2019 5:02pm,10/5/2019 1:09pm
505,Occidental ,(after hours),209 Granby St.,Norfolk,VA,"(M) - Mixed Crowds,""(R) - Restaurant, usually serving dinner. A '*' after this symbol does not necessarily indicate quality of food served, but popularity of the place. "",""(C) - Coffee, soft drinks and sometimes snacks"",(RT) - 'Raunchy types' - downtown type places - often hustlers",Restaurant,,,10/1/2019 5:02pm,10/5/2019 1:09pm
514,Traveler’s Grill,,317 5th St.,Richmond,VA,"(M) - Mixed Crowds,(B) - Blacks frequent,(RT) - 'Raunchy types' - downtown type places - often hustlers",Restaurant,,,10/1/2019 5:09pm,10/28/2019 9:37am
251,Bank Theatre & Book Store ,,941 Decatur St. ,New Orleans,LA,,"Business,Book Store,Theater",,,10/1/2019 3:07pm,12/18/2019 12:28pm
103,"
  Danny’s Book Store
  ",,131 S.E. 1st Ave. ,Miami,FL,,"Business,Book Store",,,9/25/2019 7:07am,10/5/2019 1:14pm
104,"
  Danny’s Little River News
  ",(Book Store),7839 N.E. 2nd Ave. ,Miami,FL,,"Business,Book Store",,,9/25/2019 7:07am,10/5/2019 1:14pm
141,Book Worm,(book store),101 N. Orange Ave.,Orlando,FL,,"Business,Book Store",,,9/25/2019 7:29am,10/5/2019 1:14pm
144,Orlando Book Mart,,1104 E. Colonial Dr.,Orlando,FL,,"Business,Book Store",,,9/25/2019 7:35am,10/5/2019 1:14pm
168,Book Exchange ,,3928 W. Kennedy,Tampa,FL,,"Business,Book Store",,,9/25/2019 7:48am,10/5/2019 1:14pm
198,Mr. B’s Book Store,,32 Cain St. ,Atlanta,GA,,"Business,Book Store",,,9/25/2019 8:21am,10/5/2019 1:14pm
464,Storybook Book Store  ,,1312 W. Alabama,Houston,TX,,"Business,Book Store",,,10/1/2019 4:49pm,10/5/2019 1:15pm
467,Woodrow Hotel,,1412 Fannin,Houston,TX,"""(H) - Hotel, motel, or other overnight accomodations"",(RT) - 'Raunchy types' - downtown type places - often hustlers,(M) - Mixed Crowds","Hotels,Restaurant",,,10/1/2019 4:50pm,10/5/2019 1:06pm
12,Heart of Dotham Motel Bar,,314 N. Foster,Dotham,AL,(M) - Mixed Crowds,"Hotels,Bars/Clubs",,,9/19/2019 10:54am,10/28/2019 9:32am
19,Exchange Hotel Bar,,5 Commerce St.,Montgomery,AL,(M) - Mixed Crowds,"Hotels,Bars/Clubs",,,9/19/2019 10:54am,10/28/2019 9:28am
22,Squeeze Inn ,,8 N. 6th St. ,Ft. Smith,AK,,"Hotels,Bars/Clubs",,,9/19/2019 10:54am,10/28/2019 9:34am
69,Bradford Hotel Bar ,,S. 1st St. ,Ft. Myers,FL,(M) - Mixed Crowds,"Hotels,Bars/Clubs",,,9/25/2019 6:51am,10/28/2019 9:29am
80,Circus Bar,Hotel Floridian,433 W. Forsythe,Jacksonville,FL,"(M) - Mixed Crowds,(B) - Blacks frequent,(RT) - 'Raunchy types' - downtown type places - often hustlers","Hotels,Bars/Clubs",,,9/25/2019 6:58am,10/28/2019 9:29am
88,Zodiac Lounge ,Thunderbird Motor Hotel ,5865 Expressway ,Jacksonville,FL,(M) - Mixed Crowds,"Hotels,Bars/Clubs",,,9/25/2019 6:58am,10/28/2019 9:29am
151,Top of the Town,San Carlos Hotel ,1 N. Palafox,Pensacola,FL,"(D) - Dancing,(*) - Very popular","Hotels,Bars/Clubs",,,9/25/2019 7:35am,10/28/2019 9:30am
164,Landchess Lounge ,Hotel Sarasota,1335 Main St.,Sarasota,FL,(M) - Mixed Crowds,"Hotels,Bars/Clubs",,,9/25/2019 7:48am,10/28/2019 9:30am
165,David’s Den,(Floridian Hotel),116 E. Call,Tallahassee,FL,(*) - Very popular,"Hotels,Bars/Clubs",,,9/25/2019 7:48am,10/28/2019 9:30am
220,"
  De Soto Hilton Hotel
  Bar 
  ",,15 E. Liberty,Savannah,GA,"(M) - Mixed Crowds,(PE) - Pretty elegant - jacket & tie may be required","Hotels,Bars/Clubs",,,10/1/2019 2:44pm,10/28/2019 9:30am
343,Andrew Jackson Hotel Bar,,918 Gay St.,Knoxville,TN,(M) - Mixed Crowds,"Hotels,Bars/Clubs",,,10/1/2019 3:53pm,10/28/2019 9:30am
47,Holly Hill Motel,(Holly Hill),721 Ridgewood Ave. N. ,Daytona Beach,FL,"""(H) - Hotel, motel, or other overnight accomodations""",Hotels,,,9/19/2019 11:25am,10/5/2019 12:23pm
51,Sea Mist Motel ,(Daytona Beach Shores),2657 S. Atlantic,Daytona Beach,FL,"""(H) - Hotel, motel, or other overnight accomodations""",Hotels,,,9/19/2019 11:25am,10/28/2019 9:31am
83,Gator Lodge ,,4141 Phillips Hwy.,Jacksonville,FL,"(M) - Mixed Crowds,""(H) - Hotel, motel, or other overnight accomodations""",Hotels,,,9/25/2019 6:58am,10/5/2019 12:23pm
112,Le Moon Villas,(Coconut Grove),2661 Bayshore Dr. ,Miami,FL,"""(H) - Hotel, motel, or other overnight accomodations"",(*) - Very popular",Hotels,,,9/25/2019 7:10am,10/5/2019 12:24pm
167,Holiday Inn Motel Bar ,(U.S. Hwy 27),1302 Apalachee Pkwy.,Tallahassee,FL,"(M) - Mixed Crowds,""(H) - Hotel, motel, or other overnight accomodations""",Hotels,,,9/25/2019 7:48am,10/5/2019 1:02pm
266,Lafitte’s Guest House,,1003 Bourbon St.,New Orleans,LA,"""(H) - Hotel, motel, or other overnight accomodations""",Hotels,,,10/1/2019 3:15pm,10/5/2019 1:03pm
271,Noble Arms Guest House ,,1006 Royal St.,New Orleans,LA,"""(H) - Hotel, motel, or other overnight accomodations""",Hotels,,,10/1/2019 3:15pm,10/5/2019 1:03pm
283,Ursuline’s Guest House,,708 Ursulines Ave.,New Orleans,LA,"""(H) - Hotel, motel, or other overnight accomodations""",Hotels,,,10/1/2019 3:21pm,10/5/2019 1:03pm
431,Ken’s Room ,,407 25th St.,Galveston,TX,"""(H) - Hotel, motel, or other overnight accomodations""",Hotels,,,10/1/2019 4:35pm,10/5/2019 1:06pm
509,YMCA,,130 Brooke Ave.,Norfolk,VA,"""(H) - Hotel, motel, or other overnight accomodations""",Hotels,,,10/1/2019 5:02pm,10/5/2019 1:09pm
418,McKelligon Canyon Park off Alabama St.,,,El Paso,TX,Cruisy Areas,Cruising Areas,,,10/1/2019 4:27pm,10/5/2019 1:06pm
419,San Jacinto Plaza,,,El Paso,TX,Cruisy Areas,Cruising Areas,,,10/1/2019 4:27pm,10/5/2019 1:06pm
420,The Levee on Rio Grande River,(best Sunday),,El Paso,TX,Cruisy Areas,Cruising Areas,,,10/1/2019 4:27pm,10/5/2019 1:06pm
135,Mid Town Plaza Hotel & Sauna Baths,,220 23rd St.,Miami Beach,FL,,"Baths,Hotels",,,9/25/2019 7:27am,10/28/2019 9:29am
233,Windsor Hotel Steam Baths ,,926 S. 5th St.,Louisville,KY,,"Baths,Hotels",,,10/1/2019 2:55pm,10/28/2019 9:29am
59,Gym Steam Baths,,901 S.W. 27th Ave.,Ft. Lauderdale,FL,"(YC) - Young and/or collegiate types,(*) - Very popular",Baths,,,9/25/2019 6:49am,10/5/2019 1:11pm
121,Regency Health Center Baths,,5 S.W 2nd Ave. ,Miami,FL,(*) - Very popular,Baths,,,9/25/2019 7:19am,10/5/2019 1:11pm
189,Club South Baths,,76 4th St. N.W.,Atlanta,GA,(*) - Very popular,Baths,,,9/25/2019 8:06am,10/5/2019 1:11pm
248,Ali Baba Baths,,310 St. Charles Ave. ,New Orleans,LA,,Baths,,,10/1/2019 3:07pm,10/5/2019 1:11pm
256,Canal Baths ,,512 Gravier St.,New Orleans,LA,,Baths,,,10/1/2019 3:07pm,10/5/2019 1:11pm
259,Club New Orleans Baths,,512 Toulouse Ave.,New Orleans,LA,(*) - Very popular,Baths,,,10/1/2019 3:15pm,10/5/2019 1:03pm
280,Super Baths,,700 O’Keefe,New Orleans,LA,(*) - Very popular,Baths,,,10/1/2019 3:21pm,10/5/2019 1:12pm
312,Club Charlotte Baths,,1013 W. Morehead,Charlotte,NC,,Baths,,,10/1/2019 3:39pm,10/5/2019 1:04pm
373,Bachelor’s Quarter Baths ,(May be opening summer ’72),3114 Live Oak,Dallas,TX,,Baths,,,10/1/2019 4:09pm,10/5/2019 1:12pm
381,Delta Baths,,2611 N. Pearl,Dallas,TX,(*) - Very popular,Baths,,,10/1/2019 4:10pm,10/5/2019 1:12pm
408,Baños Jordan ,(baths) (Ciudad Juarez),557 Delgallado Norte ,El Paso,TX,,Baths,,,10/1/2019 4:27pm,10/5/2019 1:12pm
409,Baños Roma,(baths) (Ciudad Juarez),881 Ignacio Mejia,El Paso,TX,,Baths,,,10/1/2019 4:27pm,10/5/2019 1:12pm
430,Gym Baths,,220 23rd St.,Galveston,TX,(*) - Very popular,Baths,,,10/1/2019 4:35pm,10/5/2019 1:12pm
452,Mr. Frizby’s Baths,,3401 Milam ,Houston,TX,,Baths,,,10/1/2019 4:42pm,10/5/2019 1:06pm
507,Regency Health Club Baths ,,3930 E. Ocean View Ave.,Norfolk,VA,,Baths,,,10/1/2019 5:02pm,10/5/2019 1:12pm
58,Galt Riviera Motel,,3811 N. Ocean Blvd. ,Ft. Lauderdale,FL,,"Bars/Clubs,Hotels",,,9/25/2019 6:47am,10/28/2019 9:34am
64,Venture Inn,,1791 W. Broward,Ft. Lauderdale,FL,"(YC) - Young and/or collegiate types,(D) - Dancing,(S) - Shows - impersonators or record pantomime acts - often touristy,(*) - Very popular","Bars/Clubs,Hotels",,,9/25/2019 6:49am,10/28/2019 9:34am
158,Patio Inn,,6101 4th St. N.,St. Petersburg,FL,"""(G) - Girls, but seldom exclusively"",(S) - Shows - impersonators or record pantomime acts - often touristy","Bars/Clubs,Hotels",,,9/25/2019 7:43am,10/28/2019 9:34am
299,Downtowner Motel Bar,,225 E. Capitol ,Jackson,MS,"(M) - Mixed Crowds,(PE) - Pretty elegant - jacket & tie may be required","Bars/Clubs,Hotels",,,10/1/2019 3:31pm,10/28/2019 9:34am
311,Barringer Inn Bar,,426 N. Tyson,Charlotte,NC,(M) - Mixed Crowds,"Bars/Clubs,Hotels",,,10/1/2019 3:39pm,10/28/2019 9:34am
379,Chip Inn,,3224 N. Fitzhugh,Dallas,TX,"""(G) - Girls, but seldom exclusively""","Bars/Clubs,Hotels",,,10/1/2019 4:10pm,10/28/2019 9:34am
2,Pete’s ,,816 Opalika Rd.,Auburn,AL,(M) - Mixed Crowds,Bars/Clubs,,,9/19/2019 10:54am,10/28/2019 9:41am
4,Golden Torch,,1915 5th Ave. N.,Birmingham,AL,"(M) - Mixed Crowds,(RT) - 'Raunchy types' - downtown type places - often hustlers,(B) - Blacks frequent,(D) - Dancing,(*) - Very popular",Bars/Clubs,,,9/19/2019 10:54am,10/28/2019 9:41am
9,Tito’s ,,1310 1st Ave. N. ,Birmingham,AL,(D) - Dancing,Bars/Clubs,,,9/19/2019 10:54am,10/28/2019 9:41am
14,Escape Lounge,,1313 Memorial Pkwy.,Huntsville,AL,(*) - Very popular,Bars/Clubs,,,9/19/2019 10:54am,10/28/2019 9:41am
16,Princess House Lounge,,254 Government St.,Mobile,AL,(*) - Very popular,Bars/Clubs,,,9/19/2019 10:54am,10/28/2019 9:41am
18,Captains II,Montgomery Coliseum Travelodge,1550 Federal Dr.,Montgomery,AL,"(YC) - Young and/or collegiate types,(D) - Dancing,(*) - Very popular",Bars/Clubs,,,9/19/2019 10:54am,10/28/2019 9:41am
20,Chucker,,2121 6th St.,Tuscaloosa,AL,(*) - Very popular,Bars/Clubs,,,9/19/2019 10:54am,10/28/2019 9:41am
25,Royal Lion Club,,236 Quachita Ave.,Hot Springs,AK,"(P) - Private club - Inquire locally to admission,(D) - Dancing",Bars/Clubs,,,9/19/2019 11:13am,10/28/2019 9:41am
44,Bull Pen,(some (RT)),516 Main St.,Daytona Beach,FL,"(*) - Very popular,(RT) - 'Raunchy types' - downtown type places - often hustlers",Bars/Clubs,,,9/19/2019 11:24am,12/18/2019 12:26pm
45,Chuck’s Atlantic Club ,,44 N. Atlantic Ave.,Daytona Beach,FL,(*) - Very popular,Bars/Clubs,,,9/19/2019 11:25am,10/28/2019 9:41am
48,Hollywood Lounge,,415 Main St.,Daytona Beach,FL,"(YC) - Young and/or collegiate types,(D) - Dancing,""(SM) - Some motorcycle. Don't confuse with 'M-S,' which means mixed crowds - shows. "",(*) - Very popular",Bars/Clubs,,,9/19/2019 11:25am,10/28/2019 9:41am
50,Robbie’s Yum Yum Tree,(some (G)) ( Hwy. 1 in Holly Hill),703 N. Ridgewood,Daytona Beach,FL,"(S) - Shows - impersonators or record pantomime acts - often touristy,(D) - Dancing,""(G) - Girls, but seldom exclusively""",Bars/Clubs,,,9/19/2019 11:25am,12/18/2019 12:26pm
54,Barn,,3491 W. Sunrise Blvd.,Ft. Lauderdale,FL,"(S) - Shows - impersonators or record pantomime acts - often touristy,(D) - Dancing,(*) - Very popular",Bars/Clubs,,,9/19/2019 11:28am,10/28/2019 9:41am
55,Elbo Room,(Ft. Lauderdale Beach),241 S. Atlantic,Ft. Lauderdale,FL,"(YC) - Young and/or collegiate types,(M) - Mixed Crowds,(RT) - 'Raunchy types' - downtown type places - often hustlers",Bars/Clubs,,,9/25/2019 6:47am,10/28/2019 9:41am
56,Everglades,,1931 S.E. 6th Ave. ,Ft. Lauderdale,FL,,Bars/Clubs,,,9/25/2019 6:47am,10/28/2019 9:41am
57,Gallery,(open ‘til 4 a.m.),2889 W. Broward Blvd. ,Ft. Lauderdale,FL,"(YC) - Young and/or collegiate types,(D) - Dancing,(S) - Shows - impersonators or record pantomime acts - often touristy,(*) - Very popular",Bars/Clubs,,,9/25/2019 6:47am,10/28/2019 9:41am
60,Odds & Ends,(Oakland Pk.),3148 N.E. 12th Ave. ,Ft. Lauderdale,FL,"""(G) - Girls, but seldom exclusively"",(*) - Very popular",Bars/Clubs,,,9/25/2019 6:49am,10/28/2019 9:41am
61,Odds & Ends II,(some (G)) (U.S. 1),1416 S. Federal Hwy,Ft. Lauderdale,FL,,Bars/Clubs,,,9/25/2019 6:49am,10/28/2019 9:41am
63,Saloon ,,219 S.W. 1st Ave. ,Ft. Lauderdale,FL,(*) - Very popular,Bars/Clubs,,,9/25/2019 6:49am,10/28/2019 9:41am
65,Zanzibar,,214 S.W. 1st Ave. ,Ft. Lauderdale,FL,,Bars/Clubs,,,9/25/2019 6:51am,10/28/2019 9:41am
70,Red Lion,,1514 Jackson,Ft. Myers,FL,"(D) - Dancing,(*) - Very popular",Bars/Clubs,,,9/25/2019 6:51am,10/28/2019 9:41am
72,Melody Club,,4130 N.W. 6th St. ,Gainsville,FL,"(YC) - Young and/or collegiate types,(D) - Dancing,(S) - Shows - impersonators or record pantomime acts - often touristy,(*) - Very popular",Bars/Clubs,,,9/25/2019 6:54am,10/28/2019 9:41am
76,Keith’s Cruise Room,(go go boys) (Old Dixie Hwy.),813 S.E. 1st Ave.,Hallandale,FL,"(YC) - Young and/or collegiate types,(D) - Dancing,(*) - Very popular",Bars/Clubs,,,9/25/2019 6:54am,10/28/2019 9:41am
77,Patsy’s Club 79,,766 E. 25th St. ,Hialeah,FL,,Bars/Clubs,,,9/25/2019 6:54am,10/28/2019 9:41am
78,Office II,,2590 State Rd. #7,Hollywood,FL,,Bars/Clubs,,,9/25/2019 6:54am,10/28/2019 9:41am
79,Bo’s Reef ,,8606 Phillips Hwy.,Jacksonville,FL,"(D) - Dancing,(S) - Shows - impersonators or record pantomime acts - often touristy",Bars/Clubs,,,9/25/2019 6:58am,10/28/2019 9:41am
81,Commodore,(only liquor bar),102 E. Bay St. ,Jacksonville,FL,(*) - Very popular,Bars/Clubs,,,9/25/2019 6:58am,10/28/2019 9:41am
82,Fountainhead News Center ,,8 E. Bay St. ,Jacksonville,FL,,Bars/Clubs,,,9/25/2019 6:58am,10/28/2019 9:41am
84,Knight Out,(some (G)),9876 Atlantic Blvd.,Jacksonville,FL,"(D) - Dancing,(S) - Shows - impersonators or record pantomime acts - often touristy,(*) - Very popular,""(G) - Girls, but seldom exclusively""",Bars/Clubs,,,9/25/2019 6:58am,12/18/2019 12:26pm
85,Other Dimension,(sing say ‘Inferno’),8836 Atlantic Blvd.,Jacksonville,FL,"(YC) - Young and/or collegiate types,(D) - Dancing,(S) - Shows - impersonators or record pantomime acts - often touristy,(*) - Very popular",Bars/Clubs,,,9/25/2019 6:58am,10/28/2019 9:41am
87,St. Nicholas Lounge ,,3116 Atlantic Blvd.,Jacksonville,FL,(M) - Mixed Crowds,Bars/Clubs,,,9/25/2019 6:58am,10/28/2019 9:41am
91,Top of the Tides,,411 N. 1st St. ,Jacksonville Beach,FL,"(YC) - Young and/or collegiate types,(D) - Dancing,(S) - Shows - impersonators or record pantomime acts - often touristy,(*) - Very popular",Bars/Clubs,,,9/25/2019 7:03am,10/28/2019 9:41am
93,Brown Derby ,,601 Whitehead ,Key West,FL,"(M) - Mixed Crowds,(RT) - 'Raunchy types' - downtown type places - often hustlers",Bars/Clubs,,,9/25/2019 7:04am,10/28/2019 9:41am
94,Captain Tony’s ,,428 Green St.,Key West,FL,(M) - Mixed Crowds,Bars/Clubs,,,9/25/2019 7:04am,10/28/2019 9:41am
95,John Brown’s Bar,,224 Duval St. ,Key West,FL,,Bars/Clubs,,,9/25/2019 7:04am,10/28/2019 9:41am
97,Music Box,,628 Lake Ave.,Lake Worth,FL,(*) - Very popular,Bars/Clubs,,,9/25/2019 7:04am,10/28/2019 9:41am
98,Bachelor’s II,,2847 S.W. Coral Way ,Miami,FL,"(YC) - Young and/or collegiate types,(*) - Very popular",Bars/Clubs,,,9/25/2019 7:04am,10/28/2019 9:41am
101,"
  Carnival
  ",,137 N.E. 3rd Ave.,Miami,FL,(RT) - 'Raunchy types' - downtown type places - often hustlers,Bars/Clubs,,,9/25/2019 7:07am,10/28/2019 9:41am
105,"
  El Carol
  ",(S.W. 42nd Ave.),930 Le Jeune Rd. ,Miami,FL,,Bars/Clubs,,,9/25/2019 7:07am,10/28/2019 9:41am
107,"
  Fox Hole 
  ",,2000 N.E. 2nd Ave.,Miami,FL,,Bars/Clubs,,,9/25/2019 7:07am,10/28/2019 9:41am
108,"
  Googie’s 
  ",,5832 N.W. 27th Ave. ,Miami,FL,(B) - Blacks frequent,Bars/Clubs,,,9/25/2019 7:07am,10/28/2019 9:41am
111,Le Bistro,,312 S.E. 2nd Ave.,Miami,FL,(M) - Mixed Crowds,Bars/Clubs,,,9/25/2019 7:10am,10/28/2019 9:41am
113,Leprechaun,(S.W. 40th St.) ,7305 Bird Rd. ,Miami,FL,,Bars/Clubs,,,9/25/2019 7:10am,10/28/2019 9:41am
115,Mermaid,(Back room of Vic’s (M) – Open ’til 5 a.m. – Use side door),101 N.E. 2nd Ave.,Miami,FL,"(RT) - 'Raunchy types' - downtown type places - often hustlers,(M) - Mixed Crowds",Bars/Clubs,,,9/25/2019 7:10am,12/18/2019 12:26pm
116,Metropolitan Community Church ,,159 S.W. 13th St. ,Miami,FL,,Bars/Clubs,,,9/25/2019 7:19am,10/28/2019 9:41am
118,Nook Beer Bar ,(closes at 21 p.m.) (Coral Gables),255 Minorca,Miami,FL,"(D) - Dancing,(*) - Very popular",Bars/Clubs,,,9/25/2019 7:19am,10/28/2019 9:41am
119,Odyssey ,($1.00 adm.) (Upstairs entrance on right side of bldg. – May be also downstairs soon),1717 N.W. 17th Ave. ,Miami,FL,"(S) - Shows - impersonators or record pantomime acts - often touristy,(*) - Very popular",Bars/Clubs,,,9/25/2019 7:19am,10/28/2019 9:41am
120,Red Rooster ,,2404 N.E. 2nd Ave. ,Miami,FL,,Bars/Clubs,,,9/25/2019 7:19am,10/28/2019 9:41am
122,Step Mothers,(Above Mothers (M) – enter from parking lot in S. side),820 S.W. 42nd Ave.,Miami,FL,"(HIP) - Heads frequent,(YC) - Young and/or collegiate types,(D) - Dancing,(*) - Very popular,(M) - Mixed Crowds",Bars/Clubs,,,9/25/2019 7:21am,12/18/2019 12:26pm
124,Tool Room,(enter thru parking lot in rear end if Warehouse VIII),3600 S.W. 8th St.,Miami,FL,"""(SM) - Some motorcycle. Don't confuse with 'M-S,' which means mixed crowds - shows. "",(*) - Very popular",Bars/Clubs,,,9/25/2019 7:22am,10/28/2019 9:41am
130,Alley Room Lounge ,(behind South Wind – enter thru parking lot in rear),1685 Alton Rd.,Miami Beach,FL,"(S) - Shows - impersonators or record pantomime acts - often touristy,(*) - Very popular",Bars/Clubs,,,9/25/2019 7:27am,10/28/2019 9:41am
131,Ambassadors III,,427 22nd St.,Miami Beach,FL,"(YC) - Young and/or collegiate types,(D) - Dancing,(*) - Very popular",Bars/Clubs,,,9/25/2019 7:27am,10/28/2019 9:41am
132,Basin Street,,1610 Alton Rd.,Miami Beach,FL,"(D) - Dancing,(*) - Very popular",Bars/Clubs,,,9/25/2019 7:27am,10/28/2019 9:41am
134,Mayflower Lounge ,(go thru front bar to back rm. – adms. chg. ) ,1716 Alton Rd.,Miami Beach,FL,"(YC) - Young and/or collegiate types,(D) - Dancing",Bars/Clubs,,,9/25/2019 7:27am,10/28/2019 9:41am
138,Nite Owl ,(next to Pin Up),2228 Park Ave.,Miami Beach,FL,"""(G) - Girls, but seldom exclusively"",(*) - Very popular",Bars/Clubs,,,9/25/2019 7:27am,10/28/2019 9:41am
139,Pin Up,(go go boys),2228 Park Ave.,Miami Beach,FL,,Bars/Clubs,,,9/25/2019 7:27am,10/28/2019 9:41am
142,Cactus Room ,,60 N. Orange Ave.,Orlando,FL,"(YC) - Young and/or collegiate types,(D) - Dancing,(S) - Shows - impersonators or record pantomime acts - often touristy,(*) - Very popular",Bars/Clubs,,,9/25/2019 7:35am,10/28/2019 9:41am
143,Odds & Ends Tavern,,4910 Edgewater Dr.,Orlando,FL,,Bars/Clubs,,,9/25/2019 7:35am,10/28/2019 9:41am
145,Palace Club,(some (G)) (Cl. Mon. & Tues. – BYOB), 1000 Humphries ,Orlando,FL,"(P) - Private club - Inquire locally to admission,(YC) - Young and/or collegiate types,(D) - Dancing,(*) - Very popular,""(G) - Girls, but seldom exclusively"",(BYOB) - Bring your own bottle",Bars/Clubs,,,9/25/2019 7:35am,12/18/2019 12:26pm
147,Fiesta Room,,110 Harrison Ave. ,Panama City,FL,(*) - Very popular,Bars/Clubs,,,9/25/2019 7:35am,10/28/2019 9:41am
149,Purple Tree Lounge ,(off Palafox),2 E. Intendencia ,Pensacola,FL,"(YC) - Young and/or collegiate types,(D) - Dancing,(*) - Very popular",Bars/Clubs,,,9/25/2019 7:35am,10/28/2019 9:41am
150,Robbie’s Yum Yum Tree West,,3006 E. Cervantes,Pensacola,FL,"(S) - Shows - impersonators or record pantomime acts - often touristy,(*) - Very popular",Bars/Clubs,,,9/25/2019 7:35am,10/28/2019 9:41am
152,Trader Jon’s,,511 S. Palafox,Pensacola,FL,(M) - Mixed Crowds,Bars/Clubs,,,9/25/2019 7:42am,10/28/2019 9:41am
155,Tradewinds,,124 Charlotte,St. Augustine,FL,(M) - Mixed Crowds,Bars/Clubs,,,9/25/2019 7:43am,10/28/2019 9:41am
156,Back Door,(rear entrance behind Surf & Sand) (Madeira Beach),14601 Gulf Blvd.,St. Petersburg,FL,(M) - Mixed Crowds,Bars/Clubs,,,9/25/2019 7:43am,10/28/2019 9:41am
157,Jack’s 809 Club,(St. Petersburg Beach) ,809 Gulf Blvd. ,St. Petersburg,FL,"(HIP) - Heads frequent,(YC) - Young and/or collegiate types,(D) - Dancing,(S) - Shows - impersonators or record pantomime acts - often touristy,(P) - Private club - Inquire locally to admission,(*) - Very popular",Bars/Clubs,,,9/25/2019 7:43am,10/28/2019 9:41am
159,Sherwood,,7 N. 1st St. ,St. Petersburg,FL,(*) - Very popular,Bars/Clubs,,,9/25/2019 7:43am,10/28/2019 9:41am
160,Tradewinds,,233 Central Ave.,St. Petersburg,FL,"(M) - Mixed Crowds,(RT) - 'Raunchy types' - downtown type places - often hustlers",Bars/Clubs,,,9/25/2019 7:43am,10/28/2019 9:41am
162,Body Shop,,14 S. Lime Ave. ,Sarasota,FL,"(P) - Private club - Inquire locally to admission,(D) - Dancing,(*) - Very popular",Bars/Clubs,,,9/25/2019 7:47am,10/28/2019 9:41am
163,Kork ’n Kettle,(U.S. Hwy 41),7603 S. Tamiami Trail,Sarasota,FL,(*) - Very popular,Bars/Clubs,,,9/25/2019 7:48am,10/28/2019 9:41am
169,Carousel ,($1.00 adm. Wkends),1806 W. Platts St.,Tampa,FL,"""(SM) - Some motorcycle. Don't confuse with 'M-S,' which means mixed crowds - shows. "",(D) - Dancing,(*) - Very popular",Bars/Clubs,,,9/25/2019 7:50am,10/28/2019 9:41am
171,Cucujo’s ,,1725 W. Kennedy Blvd.,Tampa,FL,"(M) - Mixed Crowds,""(G) - Girls, but seldom exclusively"",(RT) - 'Raunchy types' - downtown type places - often hustlers",Bars/Clubs,,,9/25/2019 7:51am,10/28/2019 9:41am
172,Golden Anchor,,4504 W. Kennedy Blvd.,Tampa,FL,(M) - Mixed Crowds,Bars/Clubs,,,9/25/2019 7:51am,10/28/2019 9:41am
174,Kikiki,(some (RT)),723 Morgan,Tampa,FL,"(*) - Very popular,(RT) - 'Raunchy types' - downtown type places - often hustlers",Bars/Clubs,,,9/25/2019 7:51am,12/18/2019 12:26pm
175,Rene’s,,2605 W. Kennedy Blvd.,Tampa,FL,"(D) - Dancing,(*) - Very popular",Bars/Clubs,,,9/25/2019 7:55am,10/28/2019 9:41am
180,Turf South ,,221 Datura ,West Palm Beach,FL,(*) - Very popular,Bars/Clubs,,,9/25/2019 7:57am,10/28/2019 9:41am
181,Turf North,,1901 N. Dixie Hwy.,West Palm Beach,FL,(D) - Dancing,Bars/Clubs,,,9/25/2019 8:04am,10/28/2019 9:41am
182,Turf West,,823 Belvedere ,West Palm Beach,FL,"(YC) - Young and/or collegiate types,(D) - Dancing,(*) - Very popular",Bars/Clubs,,,9/25/2019 8:04am,10/28/2019 9:41am
183,Harper’s,,539 W. Fairbanks ,Winter Park,FL,(YC) - Young and/or collegiate types,Bars/Clubs,,,9/25/2019 8:04am,10/28/2019 9:41am
186,Blue Room,,86 Cain N.W.,Atlanta,GA,"(B) - Blacks frequent,(RT) - 'Raunchy types' - downtown type places - often hustlers,(*) - Very popular",Bars/Clubs,,,9/25/2019 8:06am,10/28/2019 9:41am
190,Cove ,,586 Worchester Dr. N.E. ,Atlanta,GA,"(YC) - Young and/or collegiate types,(HIP) - Heads frequent,(D) - Dancing,(*) - Very popular",Bars/Clubs,,,9/25/2019 8:06am,10/28/2019 9:41am
191,Dupree’s Tavern,,716 Ponce de Leon N.E.,Atlanta,GA,"""(G) - Girls, but seldom exclusively"",(RT) - 'Raunchy types' - downtown type places - often hustlers",Bars/Clubs,,,9/25/2019 8:06am,10/28/2019 9:41am
197,Joy Lounge ,,557 Ponce de Leon N.E.,Atlanta,GA,"(M) - Mixed Crowds,(HIP) - Heads frequent,""(G) - Girls, but seldom exclusively"",(D) - Dancing",Bars/Clubs,,,9/25/2019 8:21am,10/28/2019 9:41am
199,Mrs. P’s ,(nude go go boys when not closed temporarily by local police),551 Ponce de Leon N.E. ,Atlanta,GA,(*) - Very popular,Bars/Clubs,,,9/25/2019 8:23am,10/28/2019 9:41am
200,Onyx,(open afternoons),341 W. Peachtree St. N.W,Atlanta,GA,"(D) - Dancing,(*) - Very popular",Bars/Clubs,,,9/25/2019 8:24am,10/28/2019 9:41am
201,Peaches Back Door,"((P) but out of state visitors welcome; go go boys, open Sundays – Use back entrance off Juniper)",845 Peachtree St. N.E. ,Atlanta,GA,"(*) - Very popular,(P) - Private club - Inquire locally to admission",Bars/Clubs,,,9/25/2019 8:24am,12/18/2019 12:25pm
204,Riviera Hyatt House Bar ,,1630 Peachtree St. N.W.,Atlanta,GA,"(M) - Mixed Crowds,(PE) - Pretty elegant - jacket & tie may be required",Bars/Clubs,,,9/25/2019 8:25am,10/28/2019 9:41am
205,Sweet Gum Head ,,2284 Cheshire Bridge Rd. N.E.,Atlanta,GA,"(HIP) - Heads frequent,(YC) - Young and/or collegiate types,(D) - Dancing,(S) - Shows - impersonators or record pantomime acts - often touristy,(*) - Very popular",Bars/Clubs,,,9/25/2019 8:25am,10/28/2019 9:41am
206,Wit’s Head,,60 5th St. at Spring N.W.,Atlanta,GA,"(M) - Mixed Crowds,(PE) - Pretty elegant - jacket & tie may be required",Bars/Clubs,,,9/25/2019 8:25am,10/28/2019 9:41am
213,"
  Fiesta Lounge
  ",,1429 1st Ave.,Columbus,GA,"(YC) - Young and/or collegiate types,(*) - Very popular",Bars/Clubs,,,10/1/2019 2:44pm,10/28/2019 9:41am
215,"
  Rebel Room
  ",, 1001 Greene ,Columbus,GA,(M) - Mixed Crowds,Bars/Clubs,,,10/1/2019 2:44pm,10/28/2019 9:41am
216,"
  Ann’s Tic Toc 
  ",,408 Broadway ,Macon,GA,"(D) - Dancing,(*) - Very popular",Bars/Clubs,,,10/1/2019 2:44pm,10/28/2019 9:41am
217,"
  We Three Lounge 
  ",(Maybe closing),434 Cotton Ave.,Macon,GA,"(D) - Dancing,(*) - Very popular",Bars/Clubs,,,10/1/2019 2:44pm,10/28/2019 9:41am
224,"
  Kitten’s Korner
  ",,19 16th St.,Savannah Beach,GA,(M) - Mixed Crowds,Bars/Clubs,,,10/1/2019 2:44pm,10/28/2019 9:41am
229,Living Room,(closes at 1 a.m.),224 E. Main St.,Lexington,KY,"(YC) - Young and/or collegiate types,(D) - Dancing,(*) - Very popular",Bars/Clubs,,,10/1/2019 2:55pm,10/28/2019 9:41am
231,Downtowner,(open afternoons),320 W. Chestnut ,Louisville,KY,"(D) - Dancing,(*) - Very popular",Bars/Clubs,,,10/1/2019 2:55pm,10/28/2019 9:41am
232,Queen Bee,,730 Logan,Louisville,KY,"(P) - Private club - Inquire locally to admission,""(G) - Girls, but seldom exclusively"",(D) - Dancing,(S) - Shows - impersonators or record pantomime acts - often touristy,(*) - Very popular",Bars/Clubs,,,10/1/2019 2:55pm,10/28/2019 9:41am
240,Bungalow,,557 3rd St.,Baton Rouge,LA,,Bars/Clubs,,,10/1/2019 3:05pm,10/28/2019 9:41am
242,The Place,,860 St. Louis St.,Baton Rouge,LA,(*) - Very popular,Bars/Clubs,,,10/1/2019 3:07pm,10/28/2019 9:41am
243,C’est la Guerre,,206 E. Vermilion,Lafayette,LA,"(YC) - Young and/or collegiate types,(S) - Shows - impersonators or record pantomime acts - often touristy",Bars/Clubs,,,10/1/2019 3:07pm,10/28/2019 9:41am
249,Anita’s ,,514 Ursulines Ave.,New Orleans,LA,"""(G) - Girls, but seldom exclusively""",Bars/Clubs,,,10/1/2019 3:07pm,10/28/2019 9:41am
250,Annex,,740 Burgundy St. ,New Orleans,LA,,Bars/Clubs,,,10/1/2019 3:07pm,10/28/2019 9:41am
252,Brady’s,(some (G)) ,700 N. Rampart St. ,New Orleans,LA,"(D) - Dancing,(*) - Very popular,""(G) - Girls, but seldom exclusively""",Bars/Clubs,,,10/1/2019 3:07pm,12/18/2019 12:25pm
253,Buddha ,,642 N. Rampart St. ,New Orleans,LA,,Bars/Clubs,,,10/1/2019 3:07pm,10/28/2019 9:41am
254,Burgundy House,,704 Burgundy St. ,New Orleans,LA,,Bars/Clubs,,,10/1/2019 3:07pm,10/28/2019 9:41am
257,Caverns ,,801 Bourbon St.,New Orleans,LA,"(HIP) - Heads frequent,(YC) - Young and/or collegiate types,(B) - Blacks frequent,(RT) - 'Raunchy types' - downtown type places - often hustlers,(D) - Dancing,(*) - Very popular",Bars/Clubs,,,10/1/2019 3:07pm,10/28/2019 9:41am
262,Galley House ,,542 Chartres St.,New Orleans,LA,(*) - Very popular,Bars/Clubs,,,10/1/2019 3:15pm,10/28/2019 9:41am
263,Gertrude’s,,125 Chartres St.,New Orleans,LA,,Bars/Clubs,,,10/1/2019 3:15pm,10/28/2019 9:41am
264,Golden Lantern,,1239 Royal St.,New Orleans,LA,,Bars/Clubs,,,10/1/2019 3:15pm,10/28/2019 9:41am
265,Kitty’s ‘Grog’,,718 N. Rampart St.,New Orleans,LA,(*) - Very popular,Bars/Clubs,,,10/1/2019 3:15pm,10/28/2019 9:41am
267,Lafitte’s In Exile,,901 Bourbon St.,New Orleans,LA,(*) - Very popular,Bars/Clubs,,,10/1/2019 3:15pm,10/28/2019 9:41am
272,Pete’s ‘800’,,800 Bourbon St.,New Orleans,LA,"(HIP) - Heads frequent,(YC) - Young and/or collegiate types,(D) - Dancing,(*) - Very popular",Bars/Clubs,,,10/1/2019 3:15pm,10/28/2019 9:41am
274,Quarterhouse,,507 St. Louis St.,New Orleans,LA,"""(G) - Girls, but seldom exclusively""",Bars/Clubs,,,10/1/2019 3:15pm,10/28/2019 9:41am
275,Rod’s Bar,,625 St. Phillip St.,New Orleans,LA,,Bars/Clubs,,,10/1/2019 3:15pm,10/28/2019 9:41am
276,Safari Lounge ,(upstairs),704 Iberville St.,New Orleans,LA,"(B) - Blacks frequent,(RT) - 'Raunchy types' - downtown type places - often hustlers",Bars/Clubs,,,10/1/2019 3:15pm,10/28/2019 9:41am
282,Upstairs,,604 Iberville St.,New Orleans,LA,"(D) - Dancing,(*) - Very popular",Bars/Clubs,,,10/1/2019 3:21pm,10/28/2019 9:41am
284,Vicki’s ,,541 Decatur St.,New Orleans,LA,"(RT) - 'Raunchy types' - downtown type places - often hustlers,""(G) - Girls, but seldom exclusively""",Bars/Clubs,,,10/1/2019 3:21pm,10/28/2019 9:41am
285,Wanda’s,,704 Iberville St.,New Orleans,LA,(RT) - 'Raunchy types' - downtown type places - often hustlers,Bars/Clubs,,,10/1/2019 3:21pm,10/28/2019 9:41am
286,Wanda Stumpf’s Lounge ,,820 N. Rampart St.,New Orleans,LA,,Bars/Clubs,,,10/1/2019 3:21pm,10/28/2019 9:41am
291,Bobby’s Korner,,800 Louisiana ,Shreveport,LA,,Bars/Clubs,,,10/1/2019 3:21pm,10/28/2019 9:41am
292,River Queen,,622 Commerce St.,Shreveport,LA,"(YC) - Young and/or collegiate types,(D) - Dancing,(*) - Very popular",Bars/Clubs,,,10/1/2019 3:21pm,10/28/2019 9:41am
297,Rib Room ,(Hwy. 49),2610 25th Ave.,Gulfport,MS,(*) - Very popular,Bars/Clubs,,,10/1/2019 3:31pm,10/28/2019 9:41am
301,Raincheck Lounge ,,1905 W. Northside Dr.,Jackson,MS,"(D) - Dancing,(*) - Very popular",Bars/Clubs,,,10/1/2019 3:31pm,10/28/2019 9:41am
303,Back Door Lounge ,(back of Davis Grill),606 22nd Ave.,Meridian,MS,(*) - Very popular,Bars/Clubs,,,10/1/2019 3:31pm,10/28/2019 9:41am
304,Islander,(Was closed but may possibly be re-opening),505 23rd Ave.,Meridian,MS,,Bars/Clubs,,,10/1/2019 3:31pm,10/28/2019 9:41am
308,Flaming Ember Lounge ,,231 Patton Ave.,Asheville,NC,"(P) - Private club - Inquire locally to admission,(YC) - Young and/or collegiate types,(D) - Dancing,(*) - Very popular",Bars/Clubs,,,10/1/2019 3:32pm,10/28/2019 9:41am
313,Honey’s Brass Rail,,105 W. Morehead,Charlotte,NC,(*) - Very popular,Bars/Clubs,,,10/1/2019 3:39pm,10/28/2019 9:41am
314,Oleen’s Lounge,,1831 South Blvd.,Charlotte,NC,(*) - Very popular,Bars/Clubs,,,10/1/2019 3:39pm,10/28/2019 9:41am
315,Speakeasy,,1408 E. Morehead,Charlotte,NC,"""(SM) - Some motorcycle. Don't confuse with 'M-S,' which means mixed crowds - shows. "",(D) - Dancing,(*) - Very popular",Bars/Clubs,,,10/1/2019 3:39pm,10/28/2019 9:41am
318,Stein Room,,422 Eastern Blvd.,Fayetteville,NC,(M) - Mixed Crowds,Bars/Clubs,,,10/1/2019 3:39pm,10/28/2019 9:41am
319,General Greene Bar,,253 N. Greene St.,Greensboro,NC,,Bars/Clubs,,,10/1/2019 3:39pm,10/28/2019 9:41am
320,Renaissance ,,2130 Lawndale Dr.,Greensboro,NC,"(P) - Private club - Inquire locally to admission,(YC) - Young and/or collegiate types,(D) - Dancing,(BYOB) - Bring your own bottle,(*) - Very popular",Bars/Clubs,,,10/1/2019 3:39pm,10/28/2019 9:41am
326,Stardust Lounge ,,33 Hayne St. ,Charleston,SC,"(P) - Private club - Inquire locally to admission,(D) - Dancing",Bars/Clubs,,,10/1/2019 3:46pm,10/28/2019 9:41am
327,Wagon Wheel ,,336 King St. ,Charleston,SC,(M) - Mixed Crowds,Bars/Clubs,,,10/1/2019 3:47pm,10/28/2019 9:41am
331,Campground ,(Midge’s),2717 Two Notch Rd.,Columbia,SC,"(YC) - Young and/or collegiate types,(D) - Dancing,(*) - Very popular",Bars/Clubs,,,10/1/2019 3:47pm,10/28/2019 9:41am
332,Fortress,,5729 Shakespeare Rd.,Columbia,SC,,Bars/Clubs,,,10/1/2019 3:47pm,10/28/2019 9:41am
333,The Lounge,,1103 Lady St.,Columbia,SC,,Bars/Clubs,,,10/1/2019 3:47pm,10/28/2019 9:41am
339,Cross Keys,,1129 Market St.,Chattanooga,TN,(*) - Very popular,Bars/Clubs,,,10/1/2019 3:47pm,10/28/2019 9:41am
342,Long Branch Cafe,,124 E. Market ,Johnson City,TN,,Bars/Clubs,,,10/1/2019 3:48pm,10/28/2019 9:41am
345,Huddle,,219 W. Cumberland Ave.,Knoxville,TN,(*) - Very popular,Bars/Clubs,,,10/1/2019 3:56pm,10/28/2019 9:41am
346,Door,,1786 Madison Ave. ,Memphis,TN,(*) - Very popular,Bars/Clubs,,,10/1/2019 3:56pm,10/28/2019 9:41am
347,Entre Nuit,((R) next door),265 Cleveland Ave.,Memphis,TN,"(*) - Very popular,""(R) - Restaurant, usually serving dinner. A '*' after this symbol does not necessarily indicate quality of food served, but popularity of the place. """,Bars/Clubs,,,10/1/2019 3:56pm,12/18/2019 12:25pm
348,Fiesta,,1382 Poplar Ave.,Memphis,TN,"""(G) - Girls, but seldom exclusively""",Bars/Clubs,,,10/1/2019 3:56pm,10/28/2019 9:41am
349,Hour Glass,,1418 Jackson,Memphis,TN,,Bars/Clubs,,,10/1/2019 3:56pm,10/28/2019 9:41am
351,Psyche Out ,,76 N. Cleveland,Memphis,TN,"(YC) - Young and/or collegiate types,(*) - Very popular",Bars/Clubs,,,10/1/2019 3:56pm,10/28/2019 9:41am
354,Hi Hat Lounge,,604 Commerce St.,Nashville,TN,,Bars/Clubs,,,10/1/2019 3:56pm,10/28/2019 9:41am
355,Juanita’s ,,713 Commerce St.,Nashville,TN,(*) - Very popular,Bars/Clubs,,,10/1/2019 3:56pm,10/28/2019 9:41am
356,Jungle Lounge ,(best late),715 Commerce St.,Nashville,TN,,Bars/Clubs,,,10/1/2019 3:56pm,10/28/2019 9:41am
357,Watch Your Hat & Coat Saloon,(‘The Saloon’),139 2nd Ave. N.,Nashville,TN,"(YC) - Young and/or collegiate types,(S) - Shows - impersonators or record pantomime acts - often touristy,(D) - Dancing,(*) - Very popular",Bars/Clubs,,,10/1/2019 3:56pm,10/28/2019 9:41am
358,Lakeway Package Store,(liquors),1410 E. Wood St.,Paris,TN,,Bars/Clubs,,,10/1/2019 3:56pm,10/28/2019 9:41am
359,Chantaclair ,,523 E. 10th St.,Amarillo,TX,"(D) - Dancing,(*) - Very popular",Bars/Clubs,,,10/1/2019 3:56pm,10/28/2019 9:41am
360,Thirteenth Hour,,5410 Amarillo Blvd. E.,Amarillo,TX,,Bars/Clubs,,,10/1/2019 3:56pm,10/28/2019 9:41am
362,"
  Apartment Lounge
  ",,2828 Rio Grande,Austin,TX,"(D) - Dancing,(*) - Very popular",Bars/Clubs,,,10/1/2019 4:03pm,10/28/2019 9:41am
363,"
  Pearl Street Warehouse
  ",,1720 Lavaca,Austin,TX,"(YC) - Young and/or collegiate types,(D) - Dancing,(*) - Very popular",Bars/Clubs,,,10/1/2019 4:03pm,10/28/2019 9:41am
367,"
  East Gate 
  ",,109 Walton,College Station,TX,"(YC) - Young and/or collegiate types,(M) - Mixed Crowds",Bars/Clubs,,,10/1/2019 4:03pm,10/28/2019 9:41am
368,"
  Ronnie’s Bamboo Lounge
  ",,219 N. Frazier,Conroe,TX,,Bars/Clubs,,,10/1/2019 4:03pm,10/28/2019 9:41am
369,"
  Chez Paris 
  ",,2207 Ayers,Corpus Christi,TX,(D) - Dancing,Bars/Clubs,,,10/1/2019 4:03pm,10/28/2019 9:41am
371,"
  Them Lounge
  ",,1622 N. Mesquite,Corpus Christi,TX,(*) - Very popular,Bars/Clubs,,,10/1/2019 4:03pm,10/28/2019 9:41am
374,Bayou Club,,3717 Rawlings ,Dallas,TX,"(P) - Private club - Inquire locally to admission,(YC) - Young and/or collegiate types,(D) - Dancing,(*) - Very popular",Bars/Clubs,,,10/1/2019 4:10pm,10/28/2019 9:41am
377,Candy Store,,3014 Throckmorton,Dallas,TX,"""(G) - Girls, but seldom exclusively"",(D) - Dancing,(*) - Very popular",Bars/Clubs,,,10/1/2019 4:10pm,10/28/2019 9:41am
378,Castle,,3019 N. Haskell,Dallas,TX,"(M) - Mixed Crowds,""(G) - Girls, but seldom exclusively"",(B) - Blacks frequent",Bars/Clubs,,,10/1/2019 4:10pm,10/28/2019 9:41am
380,Club Bon Soir ,,5601 W. Lovers Lane,Dallas,TX,"(D) - Dancing,(*) - Very popular",Bars/Clubs,,,10/1/2019 4:10pm,10/28/2019 9:41am
382,Denny Bells,,1324 Commerce ,Dallas,TX,(RT) - 'Raunchy types' - downtown type places - often hustlers,Bars/Clubs,,,10/1/2019 4:10pm,10/28/2019 9:41am
383,Detour ,,3113 Live Oak,Dallas,TX,(S) - Shows - impersonators or record pantomime acts - often touristy,Bars/Clubs,,,10/1/2019 4:10pm,10/28/2019 9:41am
384,Entre Nuit,,3116 Live Oak,Dallas,TX,(D) - Dancing,Bars/Clubs,,,10/1/2019 4:10pm,10/28/2019 9:41am
385,Gene’s Music Box,(also (C) after hours weekends),307 S. Akard,Dallas,TX,"(RT) - 'Raunchy types' - downtown type places - often hustlers,(*) - Very popular,""(C) - Coffee, soft drinks and sometimes snacks""",Bars/Clubs,,,10/1/2019 4:10pm,12/18/2019 12:25pm
386,Highland Lounge ,,3018 Monticello,Dallas,TX,"""(G) - Girls, but seldom exclusively""",Bars/Clubs,,,10/1/2019 4:10pm,10/28/2019 9:41am
387,Horseshoe,,1305 Commerce,Dallas,TX,(M) - Mixed Crowds,Bars/Clubs,,,10/1/2019 4:10pm,10/28/2019 9:41am
388,Jeno’s ,,4818 Gaston ,Dallas,TX,(M) - Mixed Crowds,Bars/Clubs,,,10/1/2019 4:10pm,10/28/2019 9:41am
390,Maars Bar,(No boose – BYOB),1819 N. Henderson,Dallas,TX,"(HIP) - Heads frequent,(YC) - Young and/or collegiate types,(D) - Dancing,(S) - Shows - impersonators or record pantomime acts - often touristy,(*) - Very popular,(BYOB) - Bring your own bottle",Bars/Clubs,,,10/1/2019 4:10pm,12/18/2019 12:25pm
392,Neptune,,2906 N. Henderson,Dallas,TX,,Bars/Clubs,,,10/1/2019 4:19pm,10/28/2019 9:41am
394,Ron Sue’s,,3236 McKinney,Dallas,TX,"(D) - Dancing,(S) - Shows - impersonators or record pantomime acts - often touristy,(*) - Very popular",Bars/Clubs,,,10/1/2019 4:19pm,10/28/2019 9:41am
396,Swinger ,,2121 N. Field,Dallas,TX,"(W) - Western or coyboy types,""(SM) - Some motorcycle. Don't confuse with 'M-S,' which means mixed crowds - shows. "",(*) - Very popular",Bars/Clubs,,,10/1/2019 4:19pm,10/28/2019 9:41am
397,T.J.’s ,(go go boys) (sometimes (C) after hours on weekends),3307 McKinney,Dallas,TX,"(YC) - Young and/or collegiate types,(W) - Western or coyboy types,(D) - Dancing,(*) - Very popular,""(C) - Coffee, soft drinks and sometimes snacks""",Bars/Clubs,,,10/1/2019 4:19pm,12/18/2019 12:25pm
406,Albatross,,612 N. Mesa,El Paso,TX,"(HIP) - Heads frequent,(YC) - Young and/or collegiate types,(D) - Dancing,(P) - Private club - Inquire locally to admission,(*) - Very popular",Bars/Clubs,,,10/1/2019 4:21pm,10/28/2019 9:41am
407,Apartment ,,815 Myrtle,El Paso,TX,(M) - Mixed Crowds,Bars/Clubs,,,10/1/2019 4:26pm,10/28/2019 9:41am
410,Candy Store ,,405 Myrtle,El Paso,TX,"""(G) - Girls, but seldom exclusively""",Bars/Clubs,,,10/1/2019 4:27pm,10/28/2019 9:41am
411,Club Olympico,(Ciudad Juarez),210 Avenida Lerdo Sur ,El Paso,TX,,Bars/Clubs,,,10/1/2019 4:27pm,10/28/2019 9:41am
412,Club Pigalle,,411 E. Franklin ,El Paso,TX,,Bars/Clubs,,,10/1/2019 4:27pm,10/28/2019 9:41am
413,D & M Club ,,501 S. Mesa,El Paso,TX,"(M) - Mixed Crowds,""(G) - Girls, but seldom exclusively""",Bars/Clubs,,,10/1/2019 4:27pm,10/28/2019 9:41am
415,Le Milard ,,606 Magoffin ,El Paso,TX,,Bars/Clubs,,,10/1/2019 4:27pm,10/28/2019 9:41am
416,Pet Shop,,207 E. San Antonio,El Paso,TX,"(YC) - Young and/or collegiate types,(D) - Dancing,(S) - Shows - impersonators or record pantomime acts - often touristy,(*) - Very popular",Bars/Clubs,,,10/1/2019 4:27pm,10/28/2019 9:41am
421,After Dark ,,1112 8th Ave.,Ft. Worth,TX,"(D) - Dancing,(YC) - Young and/or collegiate types,""(G) - Girls, but seldom exclusively""",Bars/Clubs,,,10/1/2019 4:27pm,10/28/2019 9:41am
425,Other Place ,,3026 W. Lancaster,Ft. Worth,TX,(*) - Very popular,Bars/Clubs,,,10/1/2019 4:35pm,10/28/2019 9:41am
426,Pirates Cave ,,304 Main St.,Ft. Worth,TX,,Bars/Clubs,,,10/1/2019 4:35pm,10/28/2019 9:41am
427,Six-Fifty-One Club,,651 S. Jennings,Ft. Worth,TX,"(W) - Western or coyboy types,(*) - Very popular",Bars/Clubs,,,10/1/2019 4:35pm,10/28/2019 9:41am
432,Kon Tiki,,214 W. 23rd St.,Galveston,TX,"(YC) - Young and/or collegiate types,(D) - Dancing",Bars/Clubs,,,10/1/2019 4:35pm,10/28/2019 9:41am
433,Robert Lafitte ,,2503 Market,Galveston,TX,"(D) - Dancing,(S) - Shows - impersonators or record pantomime acts - often touristy",Bars/Clubs,,,10/1/2019 4:35pm,10/28/2019 9:41am
436,Athens,(Waterfront docks),8037 Clinton Dr. ,Houston,TX,"(M) - Mixed Crowds,(RT) - 'Raunchy types' - downtown type places - often hustlers",Bars/Clubs,,,10/1/2019 4:35pm,10/28/2019 9:41am
437,Brazos Bar,,2400 Brazos,Houston,TX,(W) - Western or coyboy types,Bars/Clubs,,,10/1/2019 4:35pm,10/28/2019 9:41am
438,Cobra Club ,,905 Woodrow ,Houston,TX,(S) - Shows - impersonators or record pantomime acts - often touristy,Bars/Clubs,,,10/1/2019 4:35pm,10/28/2019 9:41am
439,Exile ,(Open afternoons),1011 Bell St.,Houston,TX,"(W) - Western or coyboy types,(RT) - 'Raunchy types' - downtown type places - often hustlers",Bars/Clubs,,,10/1/2019 4:35pm,10/28/2019 9:41am
440,Farm House ,,3535 Westheimer,Houston,TX,"(YC) - Young and/or collegiate types,(D) - Dancing,(*) - Very popular",Bars/Clubs,,,10/1/2019 4:35pm,10/28/2019 9:41am
441,Galleon ,,2720 Richmond Ave. ,Houston,TX,"(YC) - Young and/or collegiate types,(*) - Very popular",Bars/Clubs,,,10/1/2019 4:35pm,10/28/2019 9:41am
442,Gold Room,,2802 Austin ,Houston,TX,(B) - Blacks frequent,Bars/Clubs,,,10/1/2019 4:35pm,10/28/2019 9:41am
443,Hi Kamp Klub ,(some (G)),3400 Travis ,Houston,TX,"(YC) - Young and/or collegiate types,(D) - Dancing,(*) - Very popular,""(G) - Girls, but seldom exclusively""",Bars/Clubs,,,10/1/2019 4:35pm,12/18/2019 12:25pm
444,La Boheme ,(closes 12 Midnight),1504 Westheimer ,Houston,TX,,Bars/Clubs,,,10/1/2019 4:41pm,10/28/2019 9:41am
445,La Caja,(patio in the back),1104 Tuam ,Houston,TX,,Bars/Clubs,,,10/1/2019 4:42pm,10/28/2019 9:41am
446,La Carafe,(Old Market Sq),813 Congress,Houston,TX,"(M) - Mixed Crowds,(PE) - Pretty elegant - jacket & tie may be required",Bars/Clubs,,,10/1/2019 4:42pm,10/28/2019 9:41am
447,Lena’s Lounge,,300 Tuam ,Houston,TX,,Bars/Clubs,,,10/1/2019 4:42pm,10/28/2019 9:41am
448,Les Quatre Saisons,(Old Market Sq),316 Milam ,Houston,TX,"(M) - Mixed Crowds,(PE) - Pretty elegant - jacket & tie may be required",Bars/Clubs,,,10/1/2019 4:42pm,10/28/2019 9:41am
449,Mary’s Bar ,(Open afternoons),1022 Westheimer,Houston,TX,"(W) - Western or coyboy types,""(SM) - Some motorcycle. Don't confuse with 'M-S,' which means mixed crowds - shows. """,Bars/Clubs,,,10/1/2019 4:42pm,10/28/2019 9:41am
450,Midtown Lounge ,,2969 S. Main St.,Houston,TX,,Bars/Clubs,,,10/1/2019 4:42pm,10/28/2019 9:41am
453,New Image of Scene I,,1904 S. Shepherd,Houston,TX,"(HIP) - Heads frequent,(YC) - Young and/or collegiate types,(D) - Dancing",Bars/Clubs,,,10/1/2019 4:42pm,10/28/2019 9:41am
454,Nine Hundred Club ,,900 Lovette,Houston,TX,"(YC) - Young and/or collegiate types,(D) - Dancing,(*) - Very popular",Bars/Clubs,,,10/1/2019 4:42pm,10/28/2019 9:41am
457,Pink Elephant ,,1218 Leland ,Houston,TX,(RT) - 'Raunchy types' - downtown type places - often hustlers,Bars/Clubs,,,10/1/2019 4:42pm,10/28/2019 9:41am
458,P & J Ranch House ,,5607 Morningside ,Houston,TX,,Bars/Clubs,,,10/1/2019 4:42pm,10/28/2019 9:41am
459,Red Room ,,612 Hadley,Houston,TX,"(S) - Shows - impersonators or record pantomime acts - often touristy,(D) - Dancing,(*) - Very popular",Bars/Clubs,,,10/1/2019 4:42pm,10/28/2019 9:41am
460,Roaring Sixties ,,2305 S. Shepherd,Houston,TX,"""(G) - Girls, but seldom exclusively"",(D) - Dancing",Bars/Clubs,,,10/1/2019 4:42pm,10/28/2019 9:41am
461,Round Table,(best Sunday afternoons),507 Westheimer,Houston,TX,(*) - Very popular,Bars/Clubs,,,10/1/2019 4:42pm,10/28/2019 9:41am
465,Surf,(Closes 12 p.m.),2909 Main St.,Houston,TX,(RT) - 'Raunchy types' - downtown type places - often hustlers,Bars/Clubs,,,10/1/2019 4:50pm,10/28/2019 9:41am
473,Duffy’s,,5 So. 16th St. ,McAllen,TX,"(M) - Mixed Crowds,(*) - Very popular",Bars/Clubs,,,10/1/2019 4:50pm,10/28/2019 9:41am
476,Skylight Bar,,415 N. Jackson ,Odessa,TX,(*) - Very popular,Bars/Clubs,,,10/1/2019 4:56pm,10/28/2019 9:41am
477,Arena Club ,,3123 Broadway,San Antonio,TX,"(YC) - Young and/or collegiate types,(D) - Dancing,(*) - Very popular",Bars/Clubs,,,10/1/2019 4:56pm,10/28/2019 9:41am
478,Christopher ,,711 S. St. Mary’s ,San Antonio,TX,"(S) - Shows - impersonators or record pantomime acts - often touristy,(D) - Dancing,(*) - Very popular",Bars/Clubs,,,10/1/2019 4:56pm,10/28/2019 9:41am
479,Cork Room,,411 N. St. Mary’s,San Antonio,TX,,Bars/Clubs,,,10/1/2019 4:56pm,10/28/2019 9:41am
480,El Jardin ,(patio in back),106 Navarro ,San Antonio,TX,(*) - Very popular,Bars/Clubs,,,10/1/2019 4:56pm,10/28/2019 9:41am
483,Mary Ellan’ s,(some (G) & (B)),815 Fredericksburg Rd. ,San Antonio,TX,"""(G) - Girls, but seldom exclusively"",(B) - Blacks frequent",Bars/Clubs,,,10/1/2019 4:56pm,12/18/2019 12:25pm
484,Number Two,,900 S. St. Mary’s ,San Antonio,TX,"""(G) - Girls, but seldom exclusively""",Bars/Clubs,,,10/1/2019 4:56pm,10/28/2019 9:41am
486,Rickshaw,(some (B)),133 E. Houston,San Antonio,TX,"(YC) - Young and/or collegiate types,(D) - Dancing,(*) - Very popular,(B) - Blacks frequent",Bars/Clubs,,,10/1/2019 4:56pm,12/18/2019 12:25pm
489,Tommy’s ,,115 E. Travis,San Antonio,TX,"(RT) - 'Raunchy types' - downtown type places - often hustlers,(*) - Very popular",Bars/Clubs,,,10/1/2019 4:56pm,10/28/2019 9:41am
494,The Pub,,142 S. Franklin,San Antonio,TX,(*) - Very popular,Bars/Clubs,,,10/1/2019 5:02pm,10/28/2019 9:41am
495,Office ,,800 Travis,San Antonio,TX,(M) - Mixed Crowds,Bars/Clubs,,,10/1/2019 5:02pm,10/28/2019 9:41am
496,Pub Lounge ,,804 Lamar,San Antonio,TX,"(M) - Mixed Crowds,(YC) - Young and/or collegiate types,(*) - Very popular",Bars/Clubs,,,10/1/2019 5:02pm,10/28/2019 9:41am
499,Continental ,,111 W. Tazewell,Norfolk,VA,"(M) - Mixed Crowds,(RT) - 'Raunchy types' - downtown type places - often hustlers,(B) - Blacks frequent,(*) - Very popular",Bars/Clubs,,,10/1/2019 5:02pm,10/28/2019 9:41am
503,Lancer’s,,7726 Hampton ,Norfolk,VA,"(M) - Mixed Crowds,(RT) - 'Raunchy types' - downtown type places - often hustlers",Bars/Clubs,,,10/1/2019 5:02pm,10/28/2019 9:41am
504,Mickey’s ,,135 Brooke Ave.,Norfolk,VA,"(YC) - Young and/or collegiate types,(D) - Dancing,(*) - Very popular",Bars/Clubs,,,10/1/2019 5:02pm,10/28/2019 9:41am
508,Ritz Bar,,131 Brooke Ave.,Norfolk,VA,(*) - Very popular,Bars/Clubs,,,10/1/2019 5:02pm,10/28/2019 9:41am
512,Broad St. West Club,(Fri. - Sat. - Sun. only),409 W. Broad St.,Richmond,VA,"(P) - Private club - Inquire locally to admission,(YC) - Young and/or collegiate types,(D) - Dancing,(*) - Very popular",Bars/Clubs,,,10/1/2019 5:09pm,10/28/2019 9:41am
513,Dial Tone ,,3526 W. Cary,Richmond,VA,"(YC) - Young and/or collegiate types,(*) - Very popular",Bars/Clubs,,,10/1/2019 5:09pm,10/28/2019 9:41am
518,Tradewinds,,717 Franklin Rd. S.W.,Roanoke,VA,(*) - Very popular,Bars/Clubs,,,10/1/2019 5:09pm,10/28/2019 9:41am