ID,title,description,streetaddress,city,state,amenityfeatures,type,unclearaddress,notes,dateadded,lastmodified
78,Hollywood Lounge ,,415 Main St.,Daytona Beach,FL,,Bars/Clubs,,,12/3/2019 10:56am,12/18/2019 1:28pm
71,Brass Ass ,,28 No. Grandview,Daytona Beach,FL,"(PT) - Pool Table,(*) - Very popular",Bars/Clubs,,,12/3/2019 10:56am,12/18/2019 1:28pm
82,Zodiac Lounge ,(Disco) (Some G) (So. Daytona Beach) ,1654 So Ridgewood,Daytona Beach,FL,"(*) - Very popular,(YC) - Young and/or collegiate types,(D) - Dancing,(S) - Shows - impersonators or record pantomime acts - often touristy,""(G) - Girls/Ms, but seldom exclusively""",Bars/Clubs,,,12/3/2019 11:03am,12/18/2019 1:28pm
86,Adult Entertainment Center ,(‘wild back room’) ,2900 No. Federal Hwy. ,Ft. Lauderdale,FL,,Cruising Areas,,,12/3/2019 11:03am,12/18/2019 1:28pm
92,Dog House ,Next to Tacky’s ,2500 Broward ,Ft. Lauderdale,FL,"(S) - Shows - impersonators or record pantomime acts - often touristy,(D) - Dancing,(PT) - Pool Table,(AH) - After Hours",Bars/Clubs,,,12/3/2019 11:03am,12/18/2019 1:28pm
93,Everglades ,(So. Federal Hwy.) ,1931 S.E. 6th Ave. ,Ft. Lauderdale,FL,"(W) - Western or coyboy types,(PT) - Pool Table,(*) - Very popular",Bars/Clubs,,,12/3/2019 11:03am,12/18/2019 1:28pm
95,"
  Grotto 
  ",,1914 E. Oakland,Ft. Lauderdale,FL,"(OC) - Older/More Mature Crowd,(D) - Dancing",Bars/Clubs,,,12/3/2019 11:08am,12/18/2019 1:28pm
103,"
  Odds & Ends 
  ",(Many G) ,3148 N.E. 12th Ave. ,Ft. Lauderdale,FL,"(*) - Very popular,""(G) - Girls/Ms, but seldom exclusively""",Bars/Clubs,,,12/3/2019 11:11am,12/18/2019 1:28pm
105,"
  Saloon
  ",(Thru arcade) ,219 S.W. 1st Ave. ,Ft. Lauderdale,FL,"(OC) - Older/More Mature Crowd,(*) - Very popular",Bars/Clubs,,,12/3/2019 11:11am,12/18/2019 1:28pm
106,"
  Tacky’s 
  ",(Levi & W) (Sunday brunch) (Next to Jaybird News)  ,2509 W. Broward Bl. ,Ft. Lauderdale,FL,"(*) - Very popular,(PT) - Pool Table,(W) - Western or coyboy types",Bars/Clubs,,,12/3/2019 11:11am,12/18/2019 1:28pm
111,"
  Zanzibar 
  ",,214 S. W. 1st Ave. ,Ft. Lauderdale,FL,(OC) - Older/More Mature Crowd,Bars/Clubs,,,12/3/2019 11:11am,12/18/2019 1:28pm
110,"
  Waynesart
  ",(unusual statues) (see ad for brochure) ,28 S. E. 9th St. ,Ft. Lauderdale,FL,,Bars/Clubs,,,12/3/2019 11:11am,12/18/2019 1:28pm
109,"
  Tony's Villa 
  ",(Italian R) ,2468 Wilton Manor Rd. ,Ft. Lauderdale,FL,"(M) - Mixed - Some Straights ,""(R) - Restaurant, usually serving dinner. A '*' after this symbol does not necessarily indicate quality of food served, but popularity of the place. """,Restaurant,,,12/3/2019 11:11am,12/18/2019 1:27pm
117,Jr’s Game Room ,,2002 No. Federal Hwy.  ,Ft. Pierce,FL,"(PT) - Pool Table,(*) - Very popular",Bars/Clubs,,,12/3/2019 11:15am,12/18/2019 1:28pm
123,Melody Club ,(Disco) ,4130 N. W. 6th St. ,Gainsville,FL,"(*) - Very popular,(YC) - Young and/or collegiate types,(D) - Dancing,(S) - Shows - impersonators or record pantomime acts - often touristy",Bars/Clubs,,,12/3/2019 11:15am,12/18/2019 1:27pm
116,Club ,,1514 Jackson ,Ft. Myers,FL,"(P) - Private club - Inquire locally to admission,(YC) - Young and/or collegiate types,(D) - Dancing,(PT) - Pool Table,(BYOB) - Bring your own bottle,(*) - Very popular",Bars/Clubs,,,12/3/2019 11:15am,12/18/2019 1:27pm
124,Witch Hazel's ,,203 N.W. 6th St. ,Gainsville,FL,"(YC) - Young and/or collegiate types,(D) - Dancing,(*) - Very popular",Bars/Clubs,,,12/3/2019 11:15am,12/18/2019 1:27pm
132,Executive Room ,(open until 6 a.m. - best late) (Dixie  ,715 S. W. 21st Ave.  ,Hollywood,FL,"(S) - Shows - impersonators or record pantomime acts - often touristy,(*) - Very popular",Bars/Clubs,,,12/3/2019 11:19am,12/18/2019 1:27pm
134,Road House ,(Disco),2100 No. Dixie Hwy. ,Hollywood,FL,(D) - Dancing,Bars/Clubs,,,12/3/2019 11:19am,12/18/2019 1:27pm
131,J.P.’s ,(Some G) (best late) ,1795 Okeechobee Rd. ,Hialeah,FL,"(M) - Mixed - Some Straights ,(S) - Shows - impersonators or record pantomime acts - often touristy,(*) - Very popular,""(G) - Girls/Ms, but seldom exclusively""",Bars/Clubs,,,12/3/2019 11:19am,12/18/2019 1:27pm
136,Back Door ,(Disco) ,6644 Arlington Rd. ,Jacksonville,FL,"(YC) - Young and/or collegiate types,(D) - Dancing,(*) - Very popular",Bars/Clubs,,,12/3/2019 11:19am,12/18/2019 1:27pm
137,Brothers ,(Disco),484 Main St. ,Jacksonville,FL,"(YC) - Young and/or collegiate types,(D) - Dancing,(*) - Very popular",Bars/Clubs,,,12/3/2019 11:19am,12/18/2019 1:27pm
129,Keith’s Cruise Room ,(Disco) (open until 6 a.m. - best late) (some B) (Old Dixie Hwy. ,813 S.E. 1st Ave.  ,Hallandale,FL,"(YC) - Young and/or collegiate types,(D) - Dancing,(B) - Blacks frequent","Bars/Clubs,Cruising Areas",,,12/3/2019 11:19am,12/18/2019 3:46pm
149,Bo’s Crowbar,,504 No. 1st St.,Jacksonville Beach,FL,"(YC) - Young and/or collegiate types,(D) - Dancing,(PT) - Pool Table,(*) - Very popular",Bars/Clubs,,,12/3/2019 11:24am,12/18/2019 1:27pm
141,Flamingo ,"(Some OC, RT, B, ‘Hustlers’)  ",408 Main St.,Jacksonville,FL,"(OC) - Older/More Mature Crowd,(RT) - 'Raunchy types' - downtown type places - often hustlers,(B) - Blacks frequent",Bars/Clubs,,,12/3/2019 11:24am,12/18/2019 1:27pm
142,French Quarter ,(some B) (liquor) (disco)  ,527 Main St.,Jacksonville,FL,"(*) - Very popular,(S) - Shows - impersonators or record pantomime acts - often touristy,(D) - Dancing,(B) - Blacks frequent",Bars/Clubs,,,12/3/2019 11:24am,12/18/2019 1:27pm
155,Delmonico's ,(some G) (disco) ,218 Duval St. ,Key West,FL,"(M) - Mixed - Some Straights ,(YC) - Young and/or collegiate types,(D) - Dancing,(*) - Very popular,""(G) - Girls/Ms, but seldom exclusively""",Bars/Clubs,,,12/3/2019 11:30am,12/18/2019 1:27pm
166,Club 33 ,,819 Fairview Ave.,Lakeland,FL,(D) - Dancing,Bars/Clubs,,,12/3/2019 11:34am,12/18/2019 1:27pm
171,My Brother’s Place ,,13437 Gulf Bl.,Madeira Beach,FL,,Bars/Clubs,,,12/3/2019 11:34am,12/18/2019 1:27pm
168,Music Box Lounge ,,628 Lake Ave.,Lake Worth,FL,(*) - Very popular,Bars/Clubs,,,12/3/2019 11:34am,12/18/2019 1:27pm
167,Green Parrot ,,1028 E. Main St. ,Lakeland,FL,"(D) - Dancing,(PT) - Pool Table",Bars/Clubs,,,12/3/2019 11:34am,12/18/2019 1:27pm
172,Bachelors II,(R & lounge downstairs - Disco - D – upstairs) (Liquor) ,2847 S.W. Coral Way  ,Miami,FL,"(*) - Very popular,(D) - Dancing","Restaurant,Bars/Clubs",,,12/3/2019 11:34am,12/18/2019 1:26pm
170,Back Room ,"(Wednesday – Sunday, 9 p.m. t 2 a.m.) Surf & Sand Lounge  ",14601 Gulf Bl. ,Madeira Beach,FL,(*) - Very popular,Bars/Clubs,,,12/3/2019 11:34am,12/18/2019 1:27pm
185,Hamlets Hideaway ,,841 N.E. 1st Ave. ,Miami,FL,,Bars/Clubs,,,12/3/2019 11:39am,12/18/2019 1:27pm
180,El Carol ,(Liquor) ,930 Le Jeune Rd. ,Miami,FL,(OC) - Older/More Mature Crowd,Bars/Clubs,,,12/3/2019 11:39am,12/18/2019 1:27pm
183,Gold Keg ,,93 N.E. 36th Ave. ,Miami,FL,(PT) - Pool Table,Bars/Clubs,,,12/3/2019 11:39am,12/18/2019 1:27pm
181,Foxhole ,,2000 N.E. 2nd Ave. ,Miami,FL,"(OC) - Older/More Mature Crowd,(PT) - Pool Table",Bars/Clubs,,,12/3/2019 11:39am,12/18/2019 1:27pm
182,Garden of Earthly Delights ,(Key Club) (go go boys) ,37 N.W. 36th St. ,Miami,FL,"(P) - Private club - Inquire locally to admission,(*) - Very popular,""(SM) - Some motorcycle. Don't confuse with 'M-S,' which means mixed crowds - shows. "",(W) - Western or coyboy types",Bars/Clubs,,,12/3/2019 11:39am,12/18/2019 1:26pm
179,8000 Club/Resort  ,(This complex includes (H) (R) (E) (YC) (Disco) (D) (Liquor) (swim pool)  ,8000 Biscayne Blvd.,Miami,FL,"(*) - Very popular,""(H) - Hotel, motel, or other overnight accomodations"",""(R) - Restaurant, usually serving dinner. A '*' after this symbol does not necessarily indicate quality of food served, but popularity of the place. "",(E) - Entertainment,(YC) - Young and/or collegiate types,(D) - Dancing","Hotels,Restaurant",,,12/3/2019 11:39am,12/18/2019 1:26pm
186,Kitty Kat Theater ,,7770 Biscayne Blvd.,Miami,FL,,Bars/Clubs,,,12/3/2019 11:40am,12/18/2019 1:26pm
192,Pink Elephant Lounge ,(Open until 4 a.m.) (Looks promising) (No. Miami)  ,13705 Biscayne Blvd.,Miami,FL,,Bars/Clubs,,,12/3/2019 11:41am,12/18/2019 1:26pm
194,Red Rooster ,,2404 N.E. 2nd Ave. ,Miami,FL,(OC) - Older/More Mature Crowd,Bars/Clubs,,,12/3/2019 11:41am,12/18/2019 1:26pm
191,Nook Beer Bar ,(Snacks) (Some Latins) (Coral Gables)  ,255 Minorca,Miami,FL,,Bars/Clubs,,,12/3/2019 11:41am,12/18/2019 1:26pm
187,Leprechaun ,,7305 Bird Rd. ,Miami,FL,"(OC) - Older/More Mature Crowd,(E) - Entertainment",Bars/Clubs,,,12/3/2019 11:41am,12/18/2019 1:26pm
198,"
  Two by Two 
  ",(2 X 2) (disco) (game room) (3 bars) (Liquor) (Open until 5 a.m.)  ,201 N.E. 2nd Ave. at 2nd St ,Miami,FL,"(*) - Very popular,(P) - Private club - Inquire locally to admission,(YC) - Young and/or collegiate types,(D) - Dancing",Bars/Clubs,,,12/3/2019 11:43am,12/18/2019 1:26pm
197,"
  Seventy – Ninth
  Street Twin Cinema 
  ",,137 N.E. 79th Ave. ,Miami,FL,,Theatre,,,12/3/2019 11:43am,12/18/2019 1:26pm
199,"
  Warehouse VIII
  ","(Liquor) (Large complex includes (Disco) (D) in bar on 8th St. with some (YC) (B) (Latins); ‘Tool Box’ (W) (SM) downstairs through rear parking lot, plus indoor & outdoor rooftop bars with side entrance on 36th Ave open until 5 a.m.) ",3600 S.W. 8th St. ,Miami,FL,"(*) - Very popular,(D) - Dancing,(YC) - Young and/or collegiate types,(B) - Blacks frequent,(W) - Western or coyboy types,""(SM) - Some motorcycle. Don't confuse with 'M-S,' which means mixed crowds - shows. """,Bars/Clubs,,,12/3/2019 11:43am,12/18/2019 1:26pm
200,"
  Your Father's Mustache 
  ",(So. Miami) ,7232 S.W. 59th Ave. ,Miami,FL,(E) - Entertainment,Bars/Clubs,,,12/3/2019 11:45am,12/18/2019 1:25pm
208,"
  Dinghy 
  ",,323 23rd St.,Miami Beach,FL,(OC) - Older/More Mature Crowd,Bars/Clubs,,,12/3/2019 11:45am,12/18/2019 1:25pm
207,"
  Buccaneer Disco 
  ",,16051 Collins Ave.,Miami Beach,FL,"(D) - Dancing,(*) - Very popular",Bars/Clubs,,,12/3/2019 11:45am,12/18/2019 1:25pm
211,"
  Mayflower lounge 
  ","(Some YC, G, Latins) (disco) (use rear entrance)",1716 Alton Rd.,Miami Beach,FL,"(D) - Dancing,(YC) - Young and/or collegiate types,""(G) - Girls/Ms, but seldom exclusively""",Bars/Clubs,,,12/3/2019 11:48am,12/18/2019 1:25pm
218,"
  Annex 
  ",,60 No. Orange Ave. ,Orlando,FL,"(M) - Mixed - Some Straights ,(B) - Blacks frequent,(RT) - 'Raunchy types' - downtown type places - often hustlers,(D) - Dancing",Bars/Clubs,,,12/3/2019 11:49am,12/18/2019 1:25pm
213,"
  Pin Up 
  ",,2228 Park Ave. ,Miami Beach,FL,(*) - Very popular,Bars/Clubs,,,12/3/2019 11:49am,12/18/2019 1:25pm
214,"
  21st Street Art Theater
  
  ",,2039 Collins ,Miami Beach,FL,,Theatre,,,12/3/2019 11:49am,12/18/2019 1:25pm
219,"
  Back Street Warehouse
  
  ",(plans opening in spring of ’77 – (disco) (D) - 24 hours - BYOB for AH operation)  ,South Orange Blossom Trail ,Orlando,FL,"(D) - Dancing,(BYOB) - Bring your own bottle",Bars/Clubs,,,12/3/2019 11:49am,12/18/2019 1:25pm
227,Fiesta Room ,,110 Harrison Ave.,Panama City,FL,"(D) - Dancing,(*) - Very popular",Bars/Clubs,,,12/3/2019 12:11pm,12/18/2019 1:24pm
229,Aquarian ,,6120 Lillian Hwy. ,Pensacola,FL,"""(G) - Girls/Ms, but seldom exclusively"",(PT) - Pool Table,(*) - Very popular",Bars/Clubs,,,12/3/2019 12:11pm,12/18/2019 1:24pm
224,Parliament House ,"(Super complex includes motor inn (H), 5 bars (YC) (Disco) (D), Abbey (R) & Male Pouch – mens store) ",410 Orange Blossom Trail ,Orlando,FL,"(*) - Very popular,""(H) - Hotel, motel, or other overnight accomodations"",(YC) - Young and/or collegiate types,(D) - Dancing,""(R) - Restaurant, usually serving dinner. A '*' after this symbol does not necessarily indicate quality of food served, but popularity of the place. ""","Hotels,Bars/Clubs",,,12/3/2019 12:11pm,12/18/2019 1:24pm
223,Palace Club ,(some G) (AH - until 6 a.m. * - Thur. thru Sun. only) ,1000 Humphries ,Orlando,FL,"(P) - Private club - Inquire locally to admission,(YC) - Young and/or collegiate types,(D) - Dancing,(S) - Shows - impersonators or record pantomime acts - often touristy,""(G) - Girls/Ms, but seldom exclusively"",(*) - Very popular",Bars/Clubs,,,12/3/2019 12:11pm,12/18/2019 1:24pm
231,Quiet Village Inn,(Liquor) ,3107 E. Cervantes,Pensacola,FL,"(*) - Very popular,(YC) - Young and/or collegiate types,(D) - Dancing",Bars/Clubs,,,12/3/2019 12:15pm,12/18/2019 1:24pm
237,Rendezvous ,(Disco),120 E. McNabb Rd. ,Pompano Beach,FL,"(P) - Private club - Inquire locally to admission,(D) - Dancing,(BYOB) - Bring your own bottle",Bars/Clubs,,,12/3/2019 12:16pm,12/18/2019 1:24pm
246,Wedgewood Inn,(This super complex closed Jan. 12 future status uncertain) ,1701 So. 4th St. ,St. Petersburg,FL,,Bars/Clubs,,,12/3/2019 12:16pm,12/18/2019 1:24pm
240,Central Book Mart ,,2436 Central Ave. ,St. Petersburg,FL,,Book Store,,,12/3/2019 12:16pm,12/18/2019 1:24pm
243,Red Devil Saloon ,(Open 8 p.m.) ,1113 Central Ave. ,St. Petersburg,FL,"(W) - Western or coyboy types,""(SM) - Some motorcycle. Don't confuse with 'M-S,' which means mixed crowds - shows. "",(*) - Very popular",Bars/Clubs,,,12/3/2019 12:16pm,12/18/2019 1:24pm
238,Ruthie’s Fun Palace ,(Also C – AH) ,702 S.W. McNabe Rd. ,Pompano Beach,FL,"(D) - Dancing,(*) - Very popular,(BYOB) - Bring your own bottle,""(C) - Coffee, soft drinks, juices and snacks"",(AH) - After Hours",Bars/Clubs,,,12/3/2019 12:16pm,12/18/2019 1:24pm
241,Kittie’s ,(Liquor) (Some G) ,1020 So. 4th St. ,St. Petersburg,FL,"(YC) - Young and/or collegiate types,(D) - Dancing,(*) - Very popular,""(G) - Girls/Ms, but seldom exclusively""",Bars/Clubs,,,12/3/2019 12:16pm,12/18/2019 1:24pm
244,Sherwood ,(Liquor) ,7 No. 1st St. ,St. Petersburg,FL,"(OC) - Older/More Mature Crowd,(E) - Entertainment,(*) - Very popular",Bars/Clubs,,,12/3/2019 12:16pm,12/18/2019 1:24pm
233,Red Carpet ,"(Some G, Sailors) (Game room) ",204 N Old Corry Field Rd. ,Pensacola,FL,"(YC) - Young and/or collegiate types,(D) - Dancing,(PT) - Pool Table,(*) - Very popular,""(G) - Girls/Ms, but seldom exclusively""",Bars/Clubs,,,12/3/2019 12:16pm,12/18/2019 1:24pm
234,Red Garter ,,271 S. Palafox ,Pensacola,FL,"(P) - Private club - Inquire locally to admission,(S) - Shows - impersonators or record pantomime acts - often touristy,(D) - Dancing,(YC) - Young and/or collegiate types,(*) - Very popular",Bars/Clubs,,,12/3/2019 12:16pm,12/18/2019 1:24pm
245,Sun Art Theater ,(Enter on left) ,1116 No. 9th ,St. Petersburg,FL,,Theatre,,,12/3/2019 12:16pm,12/18/2019 1:24pm
242,Marilyn’s Closet ,,8302 No. 4th St. ,St. Petersburg,FL,"(M) - Mixed - Some Straights ,""(G) - Girls/Ms, but seldom exclusively""",Bars/Clubs,,,12/3/2019 12:16pm,12/18/2019 1:24pm
239,Brew Room ,(Many G) (Saint Petersburg Beach)  ,201 75th Ave. ,St. Petersburg,FL,"(D) - Dancing,(PT) - Pool Table,(*) - Very popular,""(G) - Girls/Ms, but seldom exclusively""",Bars/Clubs,,,12/3/2019 12:16pm,12/18/2019 1:24pm
255,Mother's Garden Gate ,(Beer & wine) (AH-WE) (Enter thru gate on side) ,1906 Lake Bradford Rd.,Tallahassee,FL,"(D) - Dancing,""(G) - Girls/Ms, but seldom exclusively"",(AH) - After Hours,(WE) - Weekends",Bars/Clubs,,,12/3/2019 12:21pm,12/18/2019 1:24pm
258,Bridge Club ,,5519 W. Hillsboro Ave. ,Tampa,FL,"(P) - Private club - Inquire locally to admission,(AH) - After Hours,(D) - Dancing,(PT) - Pool Table",Bars/Clubs,,,12/3/2019 12:21pm,12/18/2019 1:24pm
253,Arthur's Roundtable ,(Disco) (Liquor) (Some G)  ,514 Woodward Ave. ,Tallahassee,FL,"(YC) - Young and/or collegiate types,(S) - Shows - impersonators or record pantomime acts - often touristy,(D) - Dancing,""(R) - Restaurant, usually serving dinner. A '*' after this symbol does not necessarily indicate quality of food served, but popularity of the place. "",(*) - Very popular,""(G) - Girls/Ms, but seldom exclusively""",Bars/Clubs,,,12/3/2019 12:21pm,12/18/2019 1:24pm
252,Dance World ,(Disco),738 Colorado Ave. ,Stuart,FL,"(D) - Dancing,(BYOB) - Bring your own bottle",Bars/Clubs,,,12/3/2019 12:21pm,12/18/2019 1:24pm
259,Carousel ,(Disco) (Looking up again),1806 W. Platt ,Tampa,FL,"""(G) - Girls/Ms, but seldom exclusively"",(D) - Dancing",Bars/Clubs,,,12/3/2019 12:25pm,12/18/2019 1:24pm
269,Ohio Bar ,"(Some OC, RT, G)  ",102 Polk at Tampa ,Tampa,FL,"(OC) - Older/More Mature Crowd,(RT) - 'Raunchy types' - downtown type places - often hustlers,""(G) - Girls/Ms, but seldom exclusively""",Bars/Clubs,,,12/3/2019 12:26pm,12/18/2019 1:24pm
266,Kikiki,(Levi & W) ,909 No. Tampa ,Tampa,FL,"(PT) - Pool Table,(*) - Very popular,(W) - Western or coyboy types",Bars/Clubs,,,12/3/2019 12:26pm,12/18/2019 1:23pm
267,Leather – N - Friends ,"(Clothes, jewelry, etc.) ",11138 N. 30th St. ,Tampa,FL,,Business,,,12/3/2019 12:26pm,12/18/2019 1:23pm
262,Cucujo’ s,(S-WE-Adm.),1725 W. Kennedy Blvd. ,Tampa,FL,"""(G) - Girls/Ms, but seldom exclusively"",(S) - Shows - impersonators or record pantomime acts - often touristy,(WE) - Weekends",Bars/Clubs,,,12/3/2019 12:26pm,12/18/2019 1:23pm
270,Rene’s ,(Disco) (Some G) ,2605 W. Kennedy Blvd. ,Tampa,FL,"(*) - Very popular,(D) - Dancing,(S) - Shows - impersonators or record pantomime acts - often touristy,(YC) - Young and/or collegiate types,""(G) - Girls/Ms, but seldom exclusively""",Bars/Clubs,,,12/3/2019 12:26pm,12/18/2019 1:23pm
271,Trophy Room ,"(Some G, B) ",1908 W. Kennedy Blvd. ,Tampa,FL,"(M) - Mixed - Some Straights ,""(G) - Girls/Ms, but seldom exclusively"",(B) - Blacks frequent",Bars/Clubs,,,12/3/2019 12:26pm,12/18/2019 1:23pm
280,"
  Top Room Lounge 
  ",,3625 So. Dixie Highway ,West Palm Beach,FL,"""(G) - Girls/Ms, but seldom exclusively""",Bars/Clubs,,,12/3/2019 12:29pm,12/18/2019 1:23pm
282,"
  Turf South 
  ",,221 Datura ,West Palm Beach,FL,(OC) - Older/More Mature Crowd,Bars/Clubs,,,12/3/2019 12:29pm,12/18/2019 1:19pm
277,"
  Le Cabaret
  ",(Disco) ,6910 S. Dixie Hwy. ,West Palm Beach,FL,"(M) - Mixed - Some Straights ,(YC) - Young and/or collegiate types,(D) - Dancing,(*) - Very popular",Bars/Clubs,,,12/3/2019 12:29pm,12/18/2019 1:19pm
281,"
  Turf North 
  ",,1901 No. Dixie Highway ,West Palm Beach,FL,"(YC) - Young and/or collegiate types,(D) - Dancing,(*) - Very popular",Bars/Clubs,,,12/3/2019 12:29pm,12/18/2019 1:19pm
290,Varsity ,,Broad & College  ,Athens,GA,"(M) - Mixed - Some Straights ,(RT) - 'Raunchy types' - downtown type places - often hustlers,(YC) - Young and/or collegiate types,(*) - Very popular",Bars/Clubs,,,12/4/2019 6:46am,12/18/2019 1:19pm
289,Key to America Motel Bar ,,230 N. Finley St. ,Athens,GA,(M) - Mixed - Some Straights ,"Hotels,Bars/Clubs",,,12/4/2019 6:46am,12/18/2019 1:19pm
296,Blue Room ,,86 Cain N.W.  ,Atlanta,GA,"(M) - Mixed - Some Straights ,(OC) - Older/More Mature Crowd,(B) - Blacks frequent,(RT) - 'Raunchy types' - downtown type places - often hustlers",Bars/Clubs,,,12/4/2019 6:46am,12/18/2019 1:19pm
300,County Seat ,(Disco) ,1880 Cheshire Bridge Rd. ,Atlanta,GA,(D) - Dancing,Bars/Clubs,,,12/4/2019 6:49am,12/18/2019 1:19pm
314,Manhattan Yellow Pages ,(Cabaret & R) ,2359 Peachtree Rd. N.E. ,Atlanta,GA,"(M) - Mixed - Some Straights ,""(R) - Restaurant, usually serving dinner. A '*' after this symbol does not necessarily indicate quality of food served, but popularity of the place. ""","Bars/Clubs,Restaurant",,,12/4/2019 6:54am,12/18/2019 1:19pm
319,Ms. Garbo’s ,(Next to Baby Products Showroom) ,2206 Cheshire Bridge Rd. N.E.,Atlanta,GA,"""(G) - Girls/Ms, but seldom exclusively"",""(R) - Restaurant, usually serving dinner. A '*' after this symbol does not necessarily indicate quality of food served, but popularity of the place. "",(D) - Dancing,(*) - Very popular",Bars/Clubs,,,12/4/2019 6:54am,12/18/2019 1:19pm
318,Mrs. P’s ,(Atlanta’s only levi & leather bar) Ponce de Leon Hotel ,551 Ponce de Leon Ave. N.E. ,Atlanta,GA,"""(SM) - Some motorcycle. Don't confuse with 'M-S,' which means mixed crowds - shows. "",(W) - Western or coyboy types,(*) - Very popular","Bars/Clubs,Hotels",,,12/4/2019 6:54am,12/18/2019 1:19pm
320,Onyx Show Bar ,(Open Sundays) ,341 W. Peachtree St. N.W.,Atlanta,GA,"(S) - Shows - impersonators or record pantomime acts - often touristy,(*) - Very popular",Bars/Clubs,,,12/4/2019 6:54am,12/18/2019 1:19pm
329,Sweet Gum Head ,(Some G) (Disco) (WE*) (behind Tiger Auto Parts)  ,2284 Cheshire Bridge Rd. N.E. ,Atlanta,GA,"(YC) - Young and/or collegiate types,(D) - Dancing,(WE) - Weekends,(*) - Very popular,""(G) - Girls/Ms, but seldom exclusively""",Bars/Clubs,,,12/4/2019 6:56am,12/18/2019 1:18pm
330,Tower Lounge ,,735 Forest Rd. N.E. ,Atlanta,GA,"""(G) - Girls/Ms, but seldom exclusively"",(D) - Dancing,(PT) - Pool Table,(*) - Very popular",Bars/Clubs,,,12/4/2019 6:56am,12/18/2019 1:18pm
325,R.J.’s Disco ,(Some B) ,1139 W. Peachtree St. ,Atlanta,GA,"(D) - Dancing,(S) - Shows - impersonators or record pantomime acts - often touristy,(B) - Blacks frequent",Bars/Clubs,,,12/4/2019 6:56am,12/18/2019 1:18pm
331,Windjammer ,(Best during cocktail hour) Marriott Hotel,Cain & Courtland ,Atlanta,GA,"(M) - Mixed - Some Straights ,(PE) - Pretty elegant - jacket & tie may be required","Bars/Clubs,Hotels",,,12/4/2019 6:58am,12/18/2019 1:18pm
344,Peacock,(Some G) ,1321 New Savannah Rd.,Augusta,GA,"(YC) - Young and/or collegiate types,(D) - Dancing,(*) - Very popular,""(G) - Girls/Ms, but seldom exclusively""",Bars/Clubs,,,12/4/2019 7:00am,12/18/2019 1:18pm
346,C. & G.’s ,(Disco) ,1400 1st Ave.,Columbus,GA,"(YC) - Young and/or collegiate types,(D) - Dancing,(*) - Very popular",Bars/Clubs,,,12/4/2019 7:00am,12/18/2019 1:18pm
349,Red Fox,Snacks) ,410 Cotton Ave. ,Macon,GA,,Bars/Clubs,,,12/4/2019 7:03am,12/18/2019 1:18pm
350,We Three Lounge ,(Disco) (Some G) ,434 Cotton Ave. ,Macon,GA,"(*) - Very popular,(YC) - Young and/or collegiate types,(D) - Dancing,""(G) - Girls/Ms, but seldom exclusively""",Bars/Clubs,,,12/4/2019 7:03am,12/18/2019 1:18pm
352,Dr. Feelgood’s ,(Disco) ,9 Drayton St. ,Savannah,GA,"(YC) - Young and/or collegiate types,(D) - Dancing,(*) - Very popular",Bars/Clubs,,,12/4/2019 7:03am,12/18/2019 1:18pm
370,"
  Downtowner
  ",(Disco) (Game room & 2 show rooms) ,105 W. Main St. ,Louisville,KY,"(*) - Very popular,(YC) - Young and/or collegiate types,(D) - Dancing,(E) - Entertainment,(S) - Shows - impersonators or record pantomime acts - often touristy",Bars/Clubs,,,12/4/2019 7:09am,12/18/2019 1:18pm
369,"
  City Disco 
  ",(Disco) (Looks promising) ,664 So. 4th St. ,Louisville,KY,"(M) - Mixed - Some Straights ,(D) - Dancing,(PT) - Pool Table",Bars/Clubs,,,12/4/2019 7:09am,12/18/2019 1:18pm
368,"
  Badlands Territory 
  ",(Disco – D – upstairs) (5 rooms – something for everyone) ,116 E. Main St. ,Louisville,KY,"(*) - Very popular,(YC) - Young and/or collegiate types,(D) - Dancing",Bars/Clubs,,,12/4/2019 7:09am,12/18/2019 1:18pm
371,Eddie Donaldson’s ,(Some G) (also R-C-AH),1 W. Washington ,Louisville,KY,"""(G) - Girls/Ms, but seldom exclusively"",""(R) - Restaurant, usually serving dinner. A '*' after this symbol does not necessarily indicate quality of food served, but popularity of the place. "",""(C) - Coffee, soft drinks, juices and snacks"",(AH) - After Hours","Restaurant,Bars/Clubs",,,12/4/2019 7:12am,12/18/2019 1:18pm
374,River Club ,(WE*) ,340 E. Oak ,Louisville,KY,"(P) - Private club - Inquire locally to admission,(S) - Shows - impersonators or record pantomime acts - often touristy,(D) - Dancing,(OC) - Older/More Mature Crowd,(WE) - Weekends,(*) - Very popular",Bars/Clubs,,,12/4/2019 7:12am,12/18/2019 1:18pm
373,Morris’ Pub ,(Game room) (Opening in Spring of ’77 – should be a good cruise bar) ,1321 Bardstown Rd. ,Louisville,KY,(PT) - Pool Table,"Cruising Areas,Bars/Clubs",,,12/4/2019 7:12am,12/18/2019 1:17pm
390,B & T Blues Lounge ,,121 North Blvd. ,Baton Rouge,LA,,Bars/Clubs,,,12/4/2019 7:17am,12/18/2019 1:17pm
392,George’s Place ,,860 St. Louis St. ,Baton Rouge,LA,"(D) - Dancing,(*) - Very popular",Bars/Clubs,,,12/4/2019 7:17am,12/18/2019 1:17pm
384,Lucky Lady,,128 Broadway ,Paducah,KY,(*) - Very popular,Bars/Clubs,,,12/4/2019 7:17am,12/18/2019 1:17pm
397,C’ Est La Guerre ,,310 Jefferson ,Houma,LA,"(D) - Dancing,(S) - Shows - impersonators or record pantomime acts - often touristy",Bars/Clubs,,,12/4/2019 7:17am,12/18/2019 1:17pm
396,Coral Reef ,,206 E . Vermillion ,Houma,LA,"(D) - Dancing,(*) - Very popular",Bars/Clubs,,,12/4/2019 7:17am,12/18/2019 1:17pm
391,Dock ,,111 Riverside Mall ,Baton Rouge,LA,"(P) - Private club - Inquire locally to admission,(YC) - Young and/or collegiate types,(D) - Dancing",Bars/Clubs,,,12/4/2019 7:17am,12/18/2019 1:17pm
393,Mirror Room ,,311 North Bl. ,Baton Rouge,LA,"(D) - Dancing,(*) - Very popular",Bars/Clubs,,,12/4/2019 7:17am,12/18/2019 1:17pm
394,Thirsty Tiger ,,3205 Plank Rd.,Baton Rouge,LA,"""(G) - Girls/Ms, but seldom exclusively"",(*) - Very popular",Bars/Clubs,,,12/4/2019 7:17am,12/18/2019 1:17pm
409,T-Johny’s Lounge ,,1547 Sandia ,Morgan City,LA,,Bars/Clubs,,,12/4/2019 7:57am,12/18/2019 1:17pm
407,Charlie’s ,,2nd St. ,Morgan City,LA,(M) - Mixed - Some Straights ,Bars/Clubs,,,12/4/2019 7:57am,12/18/2019 1:17pm
404,Mad Hatter ,,6212 Common St. ,Lake Charles,LA,(*) - Very popular,Bars/Clubs,,,12/4/2019 7:57am,12/18/2019 1:17pm
412,Bourbon Pub ,,801 Bourbon St. ,New Orleans,LA,"""(G) - Girls/Ms, but seldom exclusively"",(D) - Dancing",Bars/Clubs,,,12/4/2019 8:02am,12/18/2019 1:17pm
419,Club Midship ,,606 Iberville ,New Orleans,LA,(*) - Very popular,Bars/Clubs,,,12/4/2019 8:02am,12/18/2019 1:17pm
414,Burgundy House ,"(Very (M) & touristy, not to mention plain clothes cops, but a ‘must’ for morning coffee & doughnuts) ",704 Burgundy St. ,New Orleans,LA,(M) - Mixed - Some Straights ,Restaurant,,,12/4/2019 8:02am,12/18/2019 1:17pm
422,Dirty Dottie’s Cleaners ,(Good source for local info) ,826 No. Rampart St.  ,New Orleans,LA,,Bars/Clubs,,,12/4/2019 8:04am,12/18/2019 1:17pm
431,Grog Shop ,,718 No. Rampart St.  ,New Orleans,LA,"""(G) - Girls/Ms, but seldom exclusively""",Bars/Clubs,,,12/4/2019 8:04am,12/18/2019 1:17pm
432,Hitching Post ,"(Some W, SM) (In rear of Bourbon Pub)",801 Bourbon St. ,New Orleans,LA,"""(SM) - Some motorcycle. Don't confuse with 'M-S,' which means mixed crowds - shows. """,Bars/Clubs,,,12/4/2019 8:04am,12/18/2019 1:17pm
429,Golden Lantern ,"(Some W, SM) ",1239 Royal St. ,New Orleans,LA,"(*) - Very popular,(PT) - Pool Table,(W) - Western or coyboy types,""(SM) - Some motorcycle. Don't confuse with 'M-S,' which means mixed crowds - shows. """,Bars/Clubs,,,12/4/2019 8:04am,12/18/2019 1:17pm
430,Good Friends ,(Some G) ,740 Dauphine ,New Orleans,LA,"(M) - Mixed - Some Straights ,""(G) - Girls/Ms, but seldom exclusively""",Bars/Clubs,,,12/4/2019 8:04am,12/18/2019 1:17pm
425,Finale II ,(Neighborhood bar of very little interest),642 No. Rampart St. ,New Orleans,LA,,Bars/Clubs,,,12/4/2019 8:04am,12/18/2019 1:17pm
421,Corral ,"(Some W, SM) (Above La Fitte’s) ",901 Bourbon St. ,New Orleans,LA,"(*) - Very popular,(PT) - Pool Table",Bars/Clubs,,,12/4/2019 8:04am,12/18/2019 1:17pm
426,Forty-One-Forty-One ,,4141 St. Charles Ave. ,New Orleans,LA,(M) - Mixed - Some Straights ,Bars/Clubs,,,12/4/2019 8:04am,12/18/2019 1:17pm
428,Galley House ,(Good afternoons) ,542 Chartres St. ,New Orleans,LA,(*) - Very popular,Bars/Clubs,,,12/4/2019 8:04am,12/18/2019 1:17pm
434,"
  Igor’s Lounge & Game Room 
  ",,2133 St. Charles Ave. ,New Orleans,LA,"(RT) - 'Raunchy types' - downtown type places - often hustlers,(PT) - Pool Table",Bars/Clubs,,,12/4/2019 8:07am,12/18/2019 1:16pm
444,"
  Ms. Kitty’s 
  ",(New & promising) ,740 Burgundy St. ,New Orleans,LA,"(PT) - Pool Table,(*) - Very popular",Bars/Clubs,,,12/4/2019 8:08am,12/18/2019 1:16pm
448,"
  Pellican News 
  ",(S-WE) (Adm.) ,4233 St. Claude St. ,New Orleans,LA,"(*) - Very popular,(D) - Dancing,(S) - Shows - impersonators or record pantomime acts - often touristy,(WE) - Weekends",Bars/Clubs,,,12/4/2019 8:08am,12/18/2019 1:16pm
447,"
  Parade 
  ",(Disco) (Upstairs at Bourbon Pub) ,801 Bourbon St. ,New Orleans,LA,"(YC) - Young and/or collegiate types,(D) - Dancing,(*) - Very popular",Bars/Clubs,,,12/4/2019 8:08am,12/18/2019 1:16pm
438,"
  Le Bistro 
  ",(Disco) (go go boys – upstairs lounge has a game room – (PT),800 Bourbon St. ,New Orleans,LA,"(YC) - Young and/or collegiate types,(D) - Dancing,(*) - Very popular,(PT) - Pool Table",Bars/Clubs,,,12/4/2019 8:08am,12/18/2019 1:16pm
449,Post Office ,,940 St. Louis St. ,New Orleans,LA,,Bars/Clubs,,,12/4/2019 8:12am,12/18/2019 1:16pm
455,Travis’s ,(T.T.’s) ,834 No. Rampart St. ,New Orleans,LA,(*) - Very popular,Bars/Clubs,,,12/4/2019 8:12am,12/18/2019 1:16pm
456,Travis II,,820 No. Rampart St. ,New Orleans,LA,,Bars/Clubs,,,12/4/2019 8:12am,12/18/2019 1:16pm
453,Society Page ,(Miss T’s) (Afternoons & cocktail hour) Royal Orleans Hotel ,819 St. Louise St. ,New Orleans,LA,(RT) - 'Raunchy types' - downtown type places - often hustlers,"Hotels,Bars/Clubs",,,12/4/2019 8:12am,12/18/2019 1:16pm
461,Zoo ,,400 Dauphine ,New Orleans,LA,"(M) - Mixed - Some Straights ,(D) - Dancing,(PT) - Pool Table",Bars/Clubs,,,12/4/2019 8:13am,12/18/2019 1:16pm
475,Korner ,(‘Bobby’s’) (Some RT) (WE*)  ,800 Louisiana Ave. ,Shreveport,LA,"(RT) - 'Raunchy types' - downtown type places - often hustlers,(WE) - Weekends,(*) - Very popular",Bars/Clubs,,,12/4/2019 8:20am,12/18/2019 1:15pm
473,Florentine ,"(Some G, B) (Disco) ",728 Austin Pl. ,Shreveport,LA,"(P) - Private club - Inquire locally to admission,(YC) - Young and/or collegiate types,(D) - Dancing,""(G) - Girls/Ms, but seldom exclusively"",(B) - Blacks frequent",Bars/Clubs,,,12/4/2019 8:20am,12/18/2019 1:15pm
479,Casa Blanca,(Some G) (Disco) (Also Follies cruise bar) ,220 Pat Harrison Ave. ,Biloxi,MS,"(YC) - Young and/or collegiate types,(D) - Dancing,(*) - Very popular,""(G) - Girls/Ms, but seldom exclusively""","Bars/Clubs,Cruising Areas",,,12/4/2019 8:23am,12/18/2019 3:46pm
489,Mae’s Cabaret ,"(Some G) (Sun. – Thur. 8-12 p.m., Fri. & Sat. 8 p.m. -?) (Occ. S) ",102 So. Farish ,Jackson,MS,"(P) - Private club - Inquire locally to admission,(D) - Dancing,(PT) - Pool Table,(*) - Very popular,(BYOB) - Bring your own bottle,""(G) - Girls/Ms, but seldom exclusively"",(S) - Shows - impersonators or record pantomime acts - often touristy",Bars/Clubs,,,12/5/2019 12:34pm,12/18/2019 1:15pm
495,Castaways,,310 Ingalles,Pascagoula,MS,(M) - Mixed - Some Straights ,Bars/Clubs,,,12/5/2019 12:34pm,12/18/2019 1:15pm
486,Dillinger’s ,"(Some YC, RT, G) (Hwy. 49) ",2309 25th Ave. ,Gulfport,MS,"(D) - Dancing,(PT) - Pool Table,(YC) - Young and/or collegiate types,(RT) - 'Raunchy types' - downtown type places - often hustlers,""(G) - Girls/Ms, but seldom exclusively""",Bars/Clubs,,,12/5/2019 12:34pm,12/18/2019 1:15pm
512,Nicky’s Express ,(Disco) ,1004 Kings Dr.  ,Charlotte,NC,"(YC) - Young and/or collegiate types,(D) - Dancing,(*) - Very popular",Bars/Clubs,,,12/5/2019 12:48pm,12/18/2019 1:15pm
511,New Brass Rail ,,3513 Wilkinson Bl. ,Charlotte,NC,"(OC) - Older/More Mature Crowd,(P) - Private club - Inquire locally to admission,(PT) - Pool Table",Bars/Clubs,,,12/5/2019 12:48pm,12/18/2019 1:15pm
513,Oleen’s Lounge ,"(Disco) (Some YC, ‘Drags’) ",1831 South Blvd. ,Charlotte,NC,"(*) - Very popular,(S) - Shows - impersonators or record pantomime acts - often touristy,(D) - Dancing,(PT) - Pool Table,(YC) - Young and/or collegiate types",Bars/Clubs,,,12/5/2019 12:48pm,12/18/2019 1:15pm
509,Greenhouse ,(G-only) (Disco) (Game room – Closed Mondays) ,119 So. Brevard ,Charlotte,NC,"(D) - Dancing,(P) - Private club - Inquire locally to admission,""(G) - Girls/Ms, but seldom exclusively""",Bars/Clubs,,,12/5/2019 12:48pm,12/18/2019 1:14pm
515,Scorpio’s Lounge ,(Semi-P) (Disco) (Some G) ,2301 Freedom Dr.  ,Charlotte,NC,"(*) - Very popular,(YC) - Young and/or collegiate types,(D) - Dancing,(P) - Private club - Inquire locally to admission,""(G) - Girls/Ms, but seldom exclusively""",Bars/Clubs,,,12/5/2019 12:48pm,12/18/2019 1:14pm
532,"
  Other Side 
  ",(Some G) (Closed Tuesdays) ,457 W. Russell ,Fayetteville,NC,"(P) - Private club - Inquire locally to admission,(YC) - Young and/or collegiate types,(D) - Dancing,(PT) - Pool Table,(*) - Very popular,""(G) - Girls/Ms, but seldom exclusively""",Bars/Clubs,,,12/5/2019 12:51pm,12/18/2019 1:14pm
539,Happy Nights ,(Many G) (Disco) ,2312 E. Bessemer St. ,Greensboro,NC,"(D) - Dancing,(*) - Very popular,""(G) - Girls/Ms, but seldom exclusively""",Bars/Clubs,,,12/5/2019 3:08pm,12/18/2019 1:14pm
544,Paddock Club ,(Disco) (Opens 8 p.m. – Closed Mondays) ,1108 Dickinson Ave.  ,Greenville,NC,"(P) - Private club - Inquire locally to admission,(D) - Dancing,(*) - Very popular",Bars/Clubs,,,12/5/2019 3:08pm,12/18/2019 1:14pm
541,Pied Piper ,(Late*) (Lawndale Shopping Center) ,2132 Lawndale Dr. ,Greensboro,NC,"(M) - Mixed - Some Straights ,(D) - Dancing",Bars/Clubs,,,12/5/2019 3:08pm,12/18/2019 1:14pm
538,General Green Grill,(Late) ,253 No. Green St. ,Greensboro,NC,(M) - Mixed - Some Straights ,Bars/Clubs,,,12/5/2019 3:08pm,12/18/2019 1:14pm
540,Little Davey’s ,(Beer) (also C -R- AH)  ,114 No. Davey ,Greensboro,NC,"""(C) - Coffee, soft drinks, juices and snacks"",""(R) - Restaurant, usually serving dinner. A '*' after this symbol does not necessarily indicate quality of food served, but popularity of the place. "",(AH) - After Hours",Restaurant,,,12/5/2019 3:08pm,12/18/2019 1:14pm
549,Mouse Trap ,(Was closed – hopefully re-opening) ,1622 Glenwood Ave. ,Raleigh,NC,"(P) - Private club - Inquire locally to admission,(YC) - Young and/or collegiate types,(D) - Dancing",Bars/Clubs,,,12/5/2019 4:44pm,12/18/2019 1:14pm
553,David’s Lounge ,(Some G) (Disco – D – Thurs. thru Sun.) ,114 Market St. ,Wilmington,NC,"(*) - Very popular,(YC) - Young and/or collegiate types,""(G) - Girls/Ms, but seldom exclusively"",(D) - Dancing",Bars/Clubs,,,12/5/2019 4:44pm,12/18/2019 1:14pm
554,Other End ,"(On again, off again)  ",8 Market St. ,Wilmington,NC,"(M) - Mixed - Some Straights ,(D) - Dancing",Bars/Clubs,,,12/5/2019 4:44pm,12/18/2019 1:14pm
556,Ye Old Tavern ,"(Was closed, supposedly re-opening) ",12 Market St. ,Wilmington,NC,"(P) - Private club - Inquire locally to admission,(D) - Dancing",Bars/Clubs,,,12/5/2019 4:48pm,12/18/2019 1:14pm
566,H & M Club ,(Disco) (WE-only * until 4 a.m.) ,2300 Two Notch Rd. ,Columbia,SC,"(P) - Private club - Inquire locally to admission,(YC) - Young and/or collegiate types,(D) - Dancing",Bars/Clubs,,,12/5/2019 4:48pm,12/16/2019 3:29pm
565,Fortress ,(Many G) (S-WE) ,5729 Shakespeare Rd. ,Columbia,SC,"(*) - Very popular,(D) - Dancing,(PT) - Pool Table,""(G) - Girls/Ms, but seldom exclusively"",(S) - Shows - impersonators or record pantomime acts - often touristy,(WE) - Weekends",Bars/Clubs,,,12/5/2019 4:48pm,12/18/2019 1:14pm
567,O’Gray’s Lounge ,(Semi P) ,1636 Sumter St. ,Columbia,SC,"(E) - Entertainment,(*) - Very popular,(P) - Private club - Inquire locally to admission",Bars/Clubs,,,12/5/2019 4:48pm,12/18/2019 1:13pm
568,Our Place ,,12322 Assembly St. ,Columbia,SC,"(M) - Mixed - Some Straights ,(RT) - 'Raunchy types' - downtown type places - often hustlers",Bars/Clubs,,,12/5/2019 4:52pm,12/16/2019 3:29pm
575,Heart of Downtown Lounge ,,130 E. Evans St. ,Florence,SC,(*) - Very popular,Bars/Clubs,,,12/5/2019 4:52pm,12/16/2019 3:29pm
577,Club Gemini ,(No sign – just door marked ‘private’) (Some G) ,443 East Stone ,Greenville,SC,"(P) - Private club - Inquire locally to admission,(D) - Dancing,(*) - Very popular,""(G) - Girls/Ms, but seldom exclusively""",Bars/Clubs,,,12/5/2019 4:52pm,12/16/2019 3:27pm
582,Go Go Club ,(Disco) (Occ. S- Some G) ,1077 Duncan Ave. ,Chattanooga,TN,"(YC) - Young and/or collegiate types,(D) - Dancing,(*) - Very popular,(PT) - Pool Table,(S) - Shows - impersonators or record pantomime acts - often touristy,""(G) - Girls/Ms, but seldom exclusively""",Bars/Clubs,,,12/5/2019 4:55pm,12/18/2019 1:13pm
590,Shed ,,453 Parkway ,Gatlinburg,TN,(M) - Mixed - Some Straights ,Bars/Clubs,,,12/5/2019 5:00pm,12/16/2019 3:26pm
600,Huddle ,(Some G) ,219 W. Cumberland ,Knoxville,TN,"(M) - Mixed - Some Straights ,(RT) - 'Raunchy types' - downtown type places - often hustlers,""(G) - Girls/Ms, but seldom exclusively""",Bars/Clubs,,,12/5/2019 5:00pm,12/16/2019 3:26pm
608,Front Page ,"(On again, off again) ",267 So. Cleveland ,Memphis,TN,"(W) - Western or coyboy types,(YC) - Young and/or collegiate types,(D) - Dancing",Bars/Clubs,,,12/5/2019 5:09pm,12/16/2019 3:26pm
611,Rain Check II ,(Disco) ,112 Jackson ,Memphis,TN,"(YC) - Young and/or collegiate types,(D) - Dancing,(*) - Very popular",Bars/Clubs,,,12/5/2019 5:09pm,12/16/2019 3:26pm
605,Butterfly Cabaret ,,1382 Poplar Ave. ,Memphis,TN,"""(G) - Girls/Ms, but seldom exclusively"",(S) - Shows - impersonators or record pantomime acts - often touristy",Bars/Clubs,,,12/5/2019 5:09pm,12/16/2019 3:26pm
616,Compton House ,(Social organ.) ,1502 Compton,Nashville,TN,,Bars/Clubs,,,12/5/2019 5:09pm,12/16/2019 3:26pm
610,Psyche Out ,,76 No. Cleveland ,Memphis,TN,"""(G) - Girls/Ms, but seldom exclusively"",(*) - Very popular",Bars/Clubs,,,12/5/2019 5:09pm,12/16/2019 3:26pm
617,Hi Hat Lounge ,(‘Hustlers’) ,604 Commerce St.,Nashville,TN,(M) - Mixed - Some Straights ,Bars/Clubs,,,12/5/2019 5:09pm,12/16/2019 3:26pm
607,Face & Place ,,38 So. Willet ,Memphis,TN,,Bars/Clubs,,,12/5/2019 5:09pm,12/16/2019 3:26pm
618,Juanita’s ,(Some OC) ,713 Commerce St.,Nashville,TN,"(*) - Very popular,(OC) - Older/More Mature Crowd",Bars/Clubs,,,12/5/2019 5:09pm,12/18/2019 1:13pm
609,George’s Theatre Lounge  ,(Closed Mondays - good Sunday afternoons – Adm. Wed. thru Sun - Recently enlarged)  ,1786 Madison Ave. ,Memphis,TN,"(D) - Dancing,(S) - Shows - impersonators or record pantomime acts - often touristy,(*) - Very popular",Bars/Clubs,,,12/5/2019 5:09pm,12/16/2019 3:26pm
606,Entre Nuit ,,265 So. Cleveland ,Memphis,TN,"(D) - Dancing,(OC) - Older/More Mature Crowd",Bars/Clubs,,,12/5/2019 5:09pm,12/16/2019 3:26pm
622,Other Side ,(Disco) (Some G) ,410 Lea St. at 5th St. ,Nashville,TN,"(*) - Very popular,(YC) - Young and/or collegiate types,(D) - Dancing,""(R) - Restaurant, usually serving dinner. A '*' after this symbol does not necessarily indicate quality of food served, but popularity of the place. "",(PT) - Pool Table,""(G) - Girls/Ms, but seldom exclusively""",Bars/Clubs,,,12/5/2019 5:13pm,12/18/2019 1:13pm
626,Old Plantation ,(Some G) ,1005 N. Fillmore ,Amarillo,TX,"(P) - Private club - Inquire locally to admission,(D) - Dancing,(*) - Very popular,""(G) - Girls/Ms, but seldom exclusively""",Bars/Clubs,,,12/5/2019 5:13pm,12/18/2019 1:13pm
636,Friends & Lovers,"(some G) (disco) (3 bars, art Gallery, green house & hair salon in this new ‘super bar’)  ",222 E. 6th St. ,Austin,TX,"(*) - Very popular,(YC) - Young and/or collegiate types,(D) - Dancing,(S) - Shows - impersonators or record pantomime acts - often touristy,(E) - Entertainment,""(G) - Girls/Ms, but seldom exclusively""",Bars/Clubs,,,12/5/2019 5:17pm,12/18/2019 1:13pm
637,Hollywood Club ,(Looks promising)  ,304 W. 4th ,Austin,TX,"(YC) - Young and/or collegiate types,(D) - Dancing",Bars/Clubs,,,12/5/2019 5:17pm,12/16/2019 3:26pm
649,Club Taboo ,(off Hwy. 69 - Lamar exit) ,5760 Port Arthur Rd.,Beaumont,TX,"(YC) - Young and/or collegiate types,(D) - Dancing,(*) - Very popular",Bars/Clubs,,,12/5/2019 5:50pm,12/16/2019 3:26pm
652,Discus,,4604 Ayers ,Corpus Christi,TX,"""(G) - Girls/Ms, but seldom exclusively"",(D) - Dancing,(PT) - Pool Table,(*) - Very popular",Bars/Clubs,,,12/5/2019 5:50pm,12/16/2019 3:26pm
654,Patte’s Cache,(Gifts & clothes)  ,20 Gaslight Sq. ,Corpus Christi,TX,,Bars/Clubs,,,12/5/2019 5:50pm,12/16/2019 3:26pm
655,"
  Squirrel Cage 
  ",(liquor) (disco) (Looks promising),620 So. Staples ,Corpus Christi,TX,"(PT) - Pool Table,(D) - Dancing",Bars/Clubs,,,12/5/2019 5:55pm,12/16/2019 3:26pm
661,"
  Bon Soir 
  ",,4527 Cole ,Dallas,TX,"(W) - Western or coyboy types,(PT) - Pool Table",Bars/Clubs,,,12/5/2019 5:55pm,12/16/2019 3:25pm
659,"
  Act III
  ","(some OC, RT) ",3113 Live Oak ,Dallas,TX,"(D) - Dancing,(OC) - Older/More Mature Crowd,(RT) - 'Raunchy types' - downtown type places - often hustlers",Bars/Clubs,,,12/5/2019 5:55pm,12/18/2019 1:13pm
656,"
  Zodiac 
  ",(disco) (some G) (liquor) ,617 So. Staples ,Corpus Christi,TX,"(YC) - Young and/or collegiate types,(D) - Dancing,(PT) - Pool Table,(*) - Very popular,""(G) - Girls/Ms, but seldom exclusively""",Bars/Clubs,,,12/5/2019 5:55pm,12/18/2019 1:03pm
662,"
  Boot Camp 
  ",(looks promising) ,2508 No. Fitzhugh ,Dallas,TX,"(W) - Western or coyboy types,(PT) - Pool Table",Bars/Clubs,,,12/5/2019 5:55pm,12/16/2019 3:26pm
663,"
  Brass Rail 
  ",(could be a winner) ,2513 No. Fitzhugh ,Dallas,TX,,Bars/Clubs,,,12/5/2019 5:55pm,12/16/2019 3:26pm
668,"
  Crews Inn
  ",,3220 No. Fitzhugh ,Dallas,TX,"(D) - Dancing,(*) - Very popular",Bars/Clubs,,,12/5/2019 5:55pm,12/16/2019 3:25pm
664,"
  Chuck’s 
  ",,3019 No. Haskell ,Dallas,TX,(W) - Western or coyboy types,Bars/Clubs,,,12/5/2019 5:55pm,12/16/2019 3:26pm
669,"
  Crews Inn 
  ",,3115 Live Oak ,Dallas,TX,(OC) - Older/More Mature Crowd,Bars/Clubs,,,12/5/2019 5:55pm,12/16/2019 3:25pm
670,"
  Dimensions III
  ",(Disco) (Several bars - Game room & The Emporium boutique) ,2617 No. Pearl ,Dallas,TX,"(YC) - Young and/or collegiate types,(D) - Dancing,(PT) - Pool Table,(*) - Very popular",Bars/Clubs,,,12/5/2019 5:55pm,12/16/2019 3:25pm
683,Ramrod,,3224 No. Fitzhugh ,Dallas,TX,,Bars/Clubs,,,12/5/2019 6:00pm,12/16/2019 3:25pm
674,Gene’s Music Box,,307 So. Akard,Dallas,TX,"(M) - Mixed - Some Straights ,(OC) - Older/More Mature Crowd,(RT) - 'Raunchy types' - downtown type places - often hustlers",Bars/Clubs,,,12/5/2019 6:00pm,12/16/2019 3:25pm
672,"Emporium, Ltd. ",(clothes) ,3921 Cedar Springs ,Dallas,TX,,Bars/Clubs,,,12/5/2019 6:00pm,12/16/2019 3:25pm
685,Sassy’s ,(2 bars) ,4516 McKinney ,Dallas,TX,"""(G) - Girls/Ms, but seldom exclusively"",(D) - Dancing,(PT) - Pool Table,(*) - Very popular",Bars/Clubs,,,12/5/2019 6:00pm,12/16/2019 3:25pm
686,Service Station,(disco) ,3215 No. Fitzhugh ,Dallas,TX,"(YC) - Young and/or collegiate types,(W) - Western or coyboy types,(E) - Entertainment,(D) - Dancing",Bars/Clubs,,,12/5/2019 6:00pm,12/16/2019 3:25pm
673,Entre Nuit ,"(some G, B) ",3116 Live Oak ,Dallas,TX,"(D) - Dancing,""(G) - Girls/Ms, but seldom exclusively"",(B) - Blacks frequent",Bars/Clubs,,,12/5/2019 6:00pm,12/18/2019 1:03pm
680,Old Plantation ,(disco) (several bars) ,1807 No. Harwood ,Dallas,TX,"(YC) - Young and/or collegiate types,(D) - Dancing,(S) - Shows - impersonators or record pantomime acts - often touristy,(PT) - Pool Table,(*) - Very popular",Bars/Clubs,,,12/5/2019 6:00pm,12/16/2019 3:25pm
681,Olive Branch ,,2822 McKinney ,Dallas,TX,"""(G) - Girls/Ms, but seldom exclusively""",Bars/Clubs,,,12/5/2019 6:00pm,12/16/2019 3:25pm
682,One Way Inn ,,2509 No. Fitzhugh ,Dallas,TX,,Bars/Clubs,,,12/5/2019 6:00pm,12/16/2019 3:25pm
676,Jug’s ,,3218 No. Fitzhugh ,Dallas,TX,"""(G) - Girls/Ms, but seldom exclusively"",(D) - Dancing",Bars/Clubs,,,12/5/2019 6:00pm,12/16/2019 3:25pm
688,Sun Dance Kids ,"(WE*) (Also C- AH- WE – Eagle Leathers – clothes, etc.)  ",4025 Maple ,Dallas,TX,"(W) - Western or coyboy types,""(SM) - Some motorcycle. Don't confuse with 'M-S,' which means mixed crowds - shows. "",(WE) - Weekends,(*) - Very popular,""(C) - Coffee, soft drinks, juices and snacks"",(AH) - After Hours",Bars/Clubs,,,12/5/2019 6:05pm,12/18/2019 1:03pm
694,Tool Box ,"(Some W, SM) ",1804 No. Harwood ,Dallas,TX,"(W) - Western or coyboy types,""(SM) - Some motorcycle. Don't confuse with 'M-S,' which means mixed crowds - shows. """,Bars/Clubs,,,12/5/2019 6:05pm,12/18/2019 1:03pm
692,Tex’s Ranch ,(Also C – AH) (Maple Ranch Wear – Leather Boutique) ,4117 Maple ,Dallas,TX,"(W) - Western or coyboy types,(D) - Dancing,""(SM) - Some motorcycle. Don't confuse with 'M-S,' which means mixed crowds - shows. "",(*) - Very popular,""(C) - Coffee, soft drinks, juices and snacks"",(AH) - After Hours",Bars/Clubs,,,12/5/2019 6:05pm,12/18/2019 1:03pm
693,T.J.’s ,(Some G) ,3307 McKinney ,Dallas,TX,"(D) - Dancing,""(G) - Girls/Ms, but seldom exclusively""",Bars/Clubs,,,12/5/2019 6:05pm,12/18/2019 1:03pm
695,Villa Fontana ,,1315 Skiles ,Dallas,TX,(OC) - Older/More Mature Crowd,Bars/Clubs,,,12/5/2019 6:05pm,12/16/2019 3:25pm
689,Swamp Trash ,,3014 Throckmorton ,Dallas,TX,(D) - Dancing,Bars/Clubs,,,12/5/2019 6:05pm,12/16/2019 3:25pm
691,Terry's Mail Boxx ,(May ‘pick up’) ,2517 No. Fitzhugh ,Dallas,TX,,Bars/Clubs,,,12/5/2019 6:05pm,12/16/2019 3:25pm
707,Le Milord ,(Latins) ,606 Magoffin ,El Paso,TX,,Bars/Clubs,,,12/5/2019 6:09pm,12/16/2019 3:25pm
709,Pigalle Club ,(Latins) ,441 E. Franklin ,El Paso,TX,"(OC) - Older/More Mature Crowd,(PT) - Pool Table",Bars/Clubs,,,12/5/2019 6:09pm,12/16/2019 3:25pm
708,New Pet Shop ,(Disco) (Sunday brunch – Liquor) ,800 E. San Antonio ,El Paso,TX,"(YC) - Young and/or collegiate types,(D) - Dancing,(*) - Very popular",Bars/Clubs,,,12/5/2019 6:09pm,12/16/2019 3:25pm
717,Bailey Street Wherehouse ,(Ft. Worth’s 1st ‘super bar’) (Disco),259 Bailey ,Ft. Worth,TX,"(*) - Very popular,(YC) - Young and/or collegiate types,(D) - Dancing",Bars/Clubs,,,12/5/2019 6:09pm,12/16/2019 3:25pm
704,Apartment ,,815 Myrtle ,El Paso,TX,,Bars/Clubs,,,12/5/2019 6:09pm,12/16/2019 3:25pm
706,Diamond Lil’s ,(Latins) ,308 S. Florence ,El Paso,TX,"(*) - Very popular,(PT) - Pool Table,(D) - Dancing",Bars/Clubs,,,12/5/2019 6:09pm,12/16/2019 3:25pm
705,D & M,(Latins) (Back room) ,501 S. Mesa St.  ,El Paso,TX,(M) - Mixed - Some Straights ,Bars/Clubs,,,12/5/2019 6:09pm,12/16/2019 3:25pm
711,Time Machine ,(Horizon City) ,207 E. San Antonio ,El Paso,TX,"(YC) - Young and/or collegiate types,(D) - Dancing,(*) - Very popular",Bars/Clubs,,,12/5/2019 6:09pm,12/16/2019 3:25pm
731,Kon Tiki ,(Occ. S) ,214 23rd St. ,Galveston,TX,"(YC) - Young and/or collegiate types,(D) - Dancing,(*) - Very popular,(S) - Shows - impersonators or record pantomime acts - often touristy",Bars/Clubs,,,12/5/2019 6:15pm,12/16/2019 3:24pm
719,Five Hundred Club ,(S-WE*) ,506 W. Magnolia ,Ft. Worth,TX,"(D) - Dancing,(S) - Shows - impersonators or record pantomime acts - often touristy,(WE) - Weekends,(*) - Very popular",Bars/Clubs,,,12/5/2019 6:15pm,12/18/2019 1:03pm
729,Fruit Jar ,,2214 Mechanic ,Galveston,TX,(D) - Dancing,Bars/Clubs,,,12/5/2019 6:15pm,12/16/2019 3:24pm
721,Other Place ,,2308 W. 7th ,Ft. Worth,TX,(*) - Very popular,Bars/Clubs,,,12/5/2019 6:15pm,12/16/2019 3:25pm
723,T.J.’s Back Door ,(Thur. – Sun. only) (Use back door) ,5563 Jacksboro Hwy. ,Ft. Worth,TX,"""(G) - Girls/Ms, but seldom exclusively"",(D) - Dancing",Bars/Clubs,,,12/5/2019 6:15pm,12/16/2019 3:24pm
722,Six-Fifty-One Club ,,651 So. Jennings ,Ft. Worth,TX,"(W) - Western or coyboy types,(PT) - Pool Table,(*) - Very popular",Bars/Clubs,,,12/5/2019 6:15pm,12/16/2019 3:25pm
737,Adonis Adult News Stand ,,4009 Hollister ,Houston,TX,,Book Store,,,12/5/2019 6:22pm,12/16/2019 3:22pm
743,Barn ,"(Some OC, W) ",710 Pacific St. ,Houston,TX,"(*) - Very popular,(OC) - Older/More Mature Crowd,(W) - Western or coyboy types",Bars/Clubs,,,12/5/2019 6:22pm,12/18/2019 1:02pm
740,Arcadia ,"(No booze, (PT) Game room & ‘flicks’) ",1200 W. Alabama ,Houston,TX,(PT) - Pool Table,Bars/Clubs,,,12/5/2019 6:22pm,12/18/2019 1:02pm
741,Athens Grill ,(Seamen) ,8037 Clinton ,Houston,TX,"(M) - Mixed - Some Straights ,(RT) - 'Raunchy types' - downtown type places - often hustlers",Bars/Clubs,,,12/5/2019 6:22pm,12/16/2019 3:22pm
744,Briar Patch ,,2294 Holcombe ,Houston,TX,"(OC) - Older/More Mature Crowd,(*) - Very popular",Bars/Clubs,,,12/5/2019 6:22pm,12/16/2019 3:22pm
750,Detour,,1504 Westheimer ,Houston,TX,,Bars/Clubs,,,12/5/2019 6:26pm,12/16/2019 3:22pm
747,Clothes Circuit ,(Clothing) ,900 Lovett,Houston,TX,,Business,,,12/5/2019 6:26pm,12/16/2019 3:22pm
755,French Quarter All Male Theatre ,,3201 Louisiana ,Houston,TX,,Theatre,,,12/5/2019 6:26pm,12/16/2019 3:22pm
753,Exile ,"(Some W, OC, RT) (Opening afternoons) ",1011 Bell ,Houston,TX,"(*) - Very popular,(PT) - Pool Table,(W) - Western or coyboy types,(OC) - Older/More Mature Crowd,(RT) - 'Raunchy types' - downtown type places - often hustlers",Bars/Clubs,,,12/5/2019 6:26pm,12/18/2019 1:02pm
763,"
  Just Marion &
  Lynn’s 
  ",,"
  817 Fairview 
  ",Houston,TX,"""(G) - Girls/Ms, but seldom exclusively"",(PT) - Pool Table,(*) - Very popular",Bars/Clubs,,,12/5/2019 6:30pm,12/16/2019 3:21pm
765,"
  Lazy J 
  ",,"
  302 Tuam 
  ",Houston,TX,"(W) - Western or coyboy types,(RT) - 'Raunchy types' - downtown type places - often hustlers",Bars/Clubs,,,12/5/2019 6:30pm,12/16/2019 3:21pm
768,"
  Locker 
  ",(Use rear entrance - Leather & ‘toy’ shop) ,"
  1732 Westheimer 
  ",Houston,TX,"""(SM) - Some motorcycle. Don't confuse with 'M-S,' which means mixed crowds - shows. "",(W) - Western or coyboy types,(PT) - Pool Table,(*) - Very popular",Bars/Clubs,,,12/5/2019 6:30pm,12/16/2019 3:21pm
771,"
  Manhole 
  ",(Clothing store) ,"
  1983 W. Gray 
  ",Houston,TX,,Business,,,12/5/2019 6:30pm,12/16/2019 3:21pm
766,"
  Le Branch 
  ",(Gifts & birds) ,"
  2045 W. Alabama 
  ",Houston,TX,,Bars/Clubs,,,12/5/2019 6:30pm,12/16/2019 3:21pm
762,"
  Inside Outside Country
  
  ",(thru rear & next to above) ,"
  1322 Westheimer 
  ",Houston,TX,(W) - Western or coyboy types,Bars/Clubs,,,12/5/2019 6:30pm,12/16/2019 3:21pm
764,"
  Lamp Post 
  ",,"
  2417 Times 
  ",Houston,TX,,Bars/Clubs,,,12/5/2019 6:30pm,12/16/2019 3:21pm
758,"
  Gold Room 
  ",,"
  2802 Austin 
  ",Houston,TX,"(B) - Blacks frequent,(D) - Dancing,(*) - Very popular",Bars/Clubs,,,12/5/2019 6:30pm,12/16/2019 3:21pm
769,"
  Loft 
  ",,"
  2909 So. Main 
  ",Houston,TX,(S) - Shows - impersonators or record pantomime acts - often touristy,Bars/Clubs,,,12/5/2019 6:30pm,12/16/2019 3:21pm
761,"
  Inside Outside 
  ",,"
  1318 Westheimer 
  ",Houston,TX,"(YC) - Young and/or collegiate types,(D) - Dancing,(E) - Entertainment,(*) - Very popular",Bars/Clubs,,,12/5/2019 6:30pm,12/16/2019 3:21pm
759,"
  Grand Slam 
  ",,"
  717 Fairview 
  ",Houston,TX,(OC) - Older/More Mature Crowd,Bars/Clubs,,,12/5/2019 6:30pm,12/16/2019 3:21pm
778,Mr. Peeper’s Glory Hole ,(Arcade & ‘wild back room’) ,2900 Fannin ,Houston,TX,,Bars/Clubs,,,12/5/2019 6:37pm,12/16/2019 3:21pm
775,Mini Park Theatre ,,2907 So. Main ,Houston,TX,,Theatre,,,12/5/2019 6:37pm,12/16/2019 3:21pm
774,Midnite Sun ,(Disco) (2 dance floors) ,534 Westheimer ,Houston,TX,"(HIP) - Heads frequent,(YC) - Young and/or collegiate types,(*) - Very popular,(D) - Dancing",Bars/Clubs,,,12/5/2019 6:37pm,12/16/2019 3:21pm
781,Now or Never ,(Looks promising) ,441 W. Mt. Houston ,Houston,TX,"""(G) - Girls/Ms, but seldom exclusively"",(PT) - Pool Table",Bars/Clubs,,,12/6/2019 10:38am,12/16/2019 3:21pm
794,Union Jack ,(Clothing) ,4025 Westheimer ,Houston,TX,,Bars/Clubs,,,12/6/2019 10:55am,12/16/2019 3:21pm
784,Pink Elephant ,,1218 Leeland ,Houston,TX,(OC) - Older/More Mature Crowd,Bars/Clubs,,,12/6/2019 10:55am,12/16/2019 3:21pm
785,Pleasure Chest,"(Leather, ‘toys’, jewelry, etc.) ",3205 Montrose ,Houston,TX,(*) - Very popular,Bars/Clubs,,,12/6/2019 10:55am,12/16/2019 3:21pm
783,Our Place ,,1419 Richmond ,Houston,TX,(*) - Very popular,Bars/Clubs,,,12/6/2019 10:55am,12/16/2019 3:21pm
789,Silver Bullet Saloon ,"(Some Levi & W, SM) ",1005 California ,Houston,TX,"(*) - Very popular,(W) - Western or coyboy types,""(SM) - Some motorcycle. Don't confuse with 'M-S,' which means mixed crowds - shows. """,Bars/Clubs,,,12/6/2019 10:55am,12/18/2019 12:42pm
790,Sparkle Plenty ,(Disco) ,2912 So. Shepherd ,Houston,TX,(D) - Dancing,Bars/Clubs,,,12/6/2019 10:55am,12/16/2019 3:21pm
786,Ranch Hi Lite ,(Sunday buffet) ,6800 So. Main ,Houston,TX,"(D) - Dancing,(*) - Very popular",Bars/Clubs,,,12/6/2019 10:55am,12/16/2019 3:21pm
788,Sally’s ,,805 Westheimer ,Houston,TX,(D) - Dancing,Bars/Clubs,,,12/6/2019 10:55am,12/16/2019 3:21pm
792,Typhoon Tessie’s ,,106 Tuam ,Houston,TX,(PT) - Pool Table,Bars/Clubs,,,12/6/2019 10:55am,12/16/2019 3:21pm
782,Old Plantation ,(‘Super bar’ with (YC) (Disco) (D) (PT) (S) (E),2020 Kipling ,Houston,TX,"(*) - Very popular,(YC) - Young and/or collegiate types,(D) - Dancing,(PT) - Pool Table,(S) - Shows - impersonators or record pantomime acts - often touristy,(E) - Entertainment",Bars/Clubs,,,12/6/2019 10:55am,12/16/2019 3:21pm
796,Venture – N,,2923 S. Main ,Houston,TX,"(S) - Shows - impersonators or record pantomime acts - often touristy,(E) - Entertainment",Bars/Clubs,,,12/6/2019 10:55am,12/16/2019 3:21pm
808,"
  David’s Wherehouse
  
  ",(Some G) (No sign – enter thru rear) ,2402 Marshall St. ,Lubbock,TX,"(YC) - Young and/or collegiate types,(D) - Dancing,(PT) - Pool Table,(*) - Very popular,""(G) - Girls/Ms, but seldom exclusively""",Bars/Clubs,,,12/6/2019 11:00am,12/18/2019 12:42pm
811,"
  Evolution 
  ",,3409 N. 10th St. ,McAllen,TX,"(YC) - Young and/or collegiate types,(D) - Dancing,(*) - Very popular",Bars/Clubs,,,12/6/2019 11:00am,12/16/2019 3:20pm
807,"
  El Vaquero 
  ",,1802 Santa Ursula ,Laredo,TX,"(S) - Shows - impersonators or record pantomime acts - often touristy,(*) - Very popular",Bars/Clubs,,,12/6/2019 11:00am,12/16/2019 3:21pm
810,"
  Duffy’s Tavern 
  ",,5 S. 16th St. ,McAllen,TX,"(D) - Dancing,(PT) - Pool Table,""(G) - Girls/Ms, but seldom exclusively"",(*) - Very popular",Bars/Clubs,,,12/6/2019 11:00am,12/16/2019 3:20pm
814,"
  Misty Blue Lounge 
  ",(WE*) ,415 No. Jackson ,Odessa,TX,"(YC) - Young and/or collegiate types,(D) - Dancing,(PT) - Pool Table,(WE) - Weekends,(*) - Very popular",Bars/Clubs,,,12/6/2019 11:00am,12/18/2019 12:41pm
816,Crew ,(Looks promising) ,309 W. Market ,San Antonio,TX,,Bars/Clubs,,,12/6/2019 11:42am,12/16/2019 3:20pm
828,Sagittarius ,(Latins) ,3000  No. St. Mary’s ,San Antonio,TX,"(D) - Dancing,(S) - Shows - impersonators or record pantomime acts - often touristy",Bars/Clubs,,,12/6/2019 11:42am,12/16/2019 3:20pm
824,One Penny Pub ,,10026 Wurzbach Rd. ,San Antonio,TX,"(YC) - Young and/or collegiate types,(D) - Dancing,(W) - Western or coyboy types,(*) - Very popular",Bars/Clubs,,,12/6/2019 11:42am,12/16/2019 3:20pm
820,Friendly Lounge ,,622 Roosevelt ,San Antonio,TX,,Bars/Clubs,,,12/6/2019 11:42am,12/16/2019 3:20pm
823,Mary Ellen’s ,(Occ. S) ,815 Fredericksburg Rd. ,San Antonio,TX,"""(G) - Girls/Ms, but seldom exclusively"",(D) - Dancing,(PT) - Pool Table,(S) - Shows - impersonators or record pantomime acts - often touristy",Bars/Clubs,,,12/6/2019 11:42am,12/18/2019 12:41pm
821,Gay Spot ,,1707 So. Hackberry ,San Antonio,TX,,Bars/Clubs,,,12/6/2019 11:42am,12/16/2019 3:20pm
827,Precious Lounge ,(Beer & wine) ,1107 Nagolitos ,San Antonio,TX,"(PT) - Pool Table,(D) - Dancing",Bars/Clubs,,,12/6/2019 11:42am,12/16/2019 3:20pm
825,Paris News ,,1929 No. New Braunfels ,San Antonio,TX,,Book Store,,,12/6/2019 11:42am,12/16/2019 3:20pm
819,El Jardin ,(Patio) (Good Sunday afternoons) ,106 Navarro ,San Antonio,TX,"(OC) - Older/More Mature Crowd,(*) - Very popular",Bars/Clubs,,,12/6/2019 11:42am,12/16/2019 3:20pm
822,Keg ,,826 San Pedro ,San Antonio,TX,"(M) - Mixed - Some Straights ,(S) - Shows - impersonators or record pantomime acts - often touristy",Bars/Clubs,,,12/6/2019 11:42am,12/16/2019 3:20pm
826,Playgirl ,,1512 Basse Rd. ,San Antonio,TX,"""(G) - Girls/Ms, but seldom exclusively""",Bars/Clubs,,,12/6/2019 11:42am,12/16/2019 3:20pm
829,San Antonio Country ,"(5 rooms) (Disco) (Game room) (Some W, HIP, YC) ",1122 No. St. Mary’s ,San Antonio,TX,"(*) - Very popular,(PT) - Pool Table,(D) - Dancing,(W) - Western or coyboy types,(HIP) - Heads frequent,(YC) - Young and/or collegiate types",Bars/Clubs,,,12/6/2019 11:45am,12/18/2019 12:41pm
830,Silhouette ,(Latins) ,2522 Culebra ,San Antonio,TX,"(HIP) - Heads frequent,(RT) - 'Raunchy types' - downtown type places - often hustlers,(*) - Very popular",Bars/Clubs,,,12/6/2019 11:45am,12/16/2019 3:20pm
840,Other End ,(Disco) (Some G) ,2810 No. 19th St. ,Waco,TX,"(YC) - Young and/or collegiate types,(D) - Dancing,(PT) - Pool Table,(*) - Very popular,(BYOB) - Bring your own bottle,(E) - Entertainment,(AH) - After Hours",Bars/Clubs,,,12/6/2019 11:45am,12/16/2019 3:20pm
842,Raysins ,(Some G) ,201 La Salle Ave. ,Waco,TX,"(W) - Western or coyboy types,(YC) - Young and/or collegiate types,(D) - Dancing,(PT) - Pool Table,""(G) - Girls/Ms, but seldom exclusively""",Bars/Clubs,,,12/6/2019 11:45am,12/18/2019 12:41pm
837,Capri Theatre ,,818 East St. ,Texarkana,TX,,Bars/Clubs,,,12/6/2019 11:45am,12/16/2019 3:20pm
851,Windward Isles ,Holt Hotel ,"
  608 8th
  St. 
  ",Wichita Falls,TX,(*) - Very popular,"Hotels,Bars/Clubs",,,12/6/2019 11:50am,12/16/2019 3:20pm
854,Red Barn,,"
  3627 Columbia Pike 
  ",Arlington,VA,(M) - Mixed - Some Straights ,Bars/Clubs,,,12/6/2019 11:50am,12/16/2019 3:19pm
850,Carousel ,,"
  703 Travis 
  ",Wichita Falls,TX,(*) - Very popular,Bars/Clubs,,,12/6/2019 11:50am,12/16/2019 3:20pm
856,Continental ,"(Some RT, B) ",111 W. Tazewell ,Norfolk,VA,"(D) - Dancing,(*) - Very popular,(RT) - 'Raunchy types' - downtown type places - often hustlers,(B) - Blacks frequent",Bars/Clubs,,,12/6/2019 11:54am,12/16/2019 3:20pm
866,Cha Cha Palace ,(Some G) (Disco) (We-only) ,719 Broad St. ,Richmond,VA,"(P) - Private club - Inquire locally to admission,(D) - Dancing,(BYOB) - Bring your own bottle,""(G) - Girls/Ms, but seldom exclusively"",(WE) - Weekends",Bars/Clubs,,,12/6/2019 11:54am,12/18/2019 12:41pm
868,J. Danhill,(Snacks) Richmond Shopping Center ,3526 W. Cary ,Richmond,VA,"(YC) - Young and/or collegiate types,(D) - Dancing,(*) - Very popular",Bars/Clubs,,,12/6/2019 11:54am,12/18/2019 12:41pm
861,Ritz Bar ,"(Some W, SM)",131 Brooke Ave.,Norfolk,VA,"(*) - Very popular,(W) - Western or coyboy types,""(SM) - Some motorcycle. Don't confuse with 'M-S,' which means mixed crowds - shows. """,Bars/Clubs,,,12/6/2019 11:54am,12/18/2019 12:40pm
867,Four-O-Nine Club ,(WE-only*) ,409 W. Broad St. ,Richmond,VA,"(P) - Private club - Inquire locally to admission,(YC) - Young and/or collegiate types,(D) - Dancing,(WE) - Weekends,(*) - Very popular",Bars/Clubs,,,12/6/2019 11:54am,12/18/2019 12:40pm
858,Mickey’s ,,135 Brooke Ave. ,Norfolk,VA,"(YC) - Young and/or collegiate types,(PT) - Pool Table,(*) - Very popular",Bars/Clubs,,,12/6/2019 11:54am,12/16/2019 3:19pm
874,Horoscope ,(Disco) (Thur. thru Sunday only) ,203 4th St. S.W. ,Roanoke,VA,"(M) - Mixed - Some Straights ,(YC) - Young and/or collegiate types,(D) - Dancing,(PT) - Pool Table",Bars/Clubs,,,12/6/2019 12:01pm,12/16/2019 3:19pm
876,The Rainbow ,(Disco) (Best Wed. nights*) ,Opp. Wm. & Mary Hall ,Williamsburg,VA,"(M) - Mixed - Some Straights ,(YC) - Young and/or collegiate types,(D) - Dancing",Bars/Clubs,,,12/6/2019 12:01pm,12/16/2019 3:19pm
25,Rhinestone Circus,(Some girls) (Game room) (Next to Catalina Motel) ,5009 Governors Drive,Huntsville,AL,"(D) - Dancing,(S) - Shows - impersonators or record pantomime acts - often touristy,""(G) - Girls/Ms, but seldom exclusively""",Bars/Clubs,,,11/23/2019 1:19am,11/23/2019 1:38am
30,French Quarter,(Disco) (Some girls),215 Conti St.,Mobile,AL,"(S) - Shows - impersonators or record pantomime acts - often touristy,(YC) - Young and/or collegiate types,(D) - Dancing,(*) - Very popular",Bars/Clubs,,,11/23/2019 1:19am,11/23/2019 1:41am
31,Goldenrod Social Club,(Also C-AH-WE),115 Government St. ,Mobile,AL,"(M) - Mixed - Some Straights ,(RT) - 'Raunchy types' - downtown type places - often hustlers,""(C) - Coffee, soft drinks, juices and snacks"",(AH) - After Hours,(WE) - Weekends",Bars/Clubs,,,11/23/2019 1:19am,11/23/2019 1:41am
29,Fireside,,54 So. Conception,Mobile,AL,"(YC) - Young and/or collegiate types,(D) - Dancing,(*) - Very popular",Bars/Clubs,,,11/23/2019 1:19am,11/23/2019 1:40am
33,T.J.'s Lounge,"(Some G, B, RT)",301 St. Francis,Mobile,AL,"""(G) - Girls/Ms, but seldom exclusively"",(B) - Blacks frequent,(RT) - 'Raunchy types' - downtown type places - often hustlers",Bars/Clubs,,,11/23/2019 1:19am,11/23/2019 1:42am
32,Society Lounge,(Weekends popular),51 So. Conception ,Mobile,AL,"""(G) - Girls/Ms, but seldom exclusively"",(S) - Shows - impersonators or record pantomime acts - often touristy,(WE) - Weekends,(*) - Very popular",Bars/Clubs,,,11/23/2019 1:19am,11/23/2019 1:42am
36,Dexter Pub,,207 Dexter Ave.,Montgomery,AL,"(YC) - Young and/or collegiate types,(D) - Dancing,(*) - Very popular",Bars/Clubs,,,11/23/2019 1:19am,11/23/2019 1:45am
38,Rainbow,(Disco) ,305 Randolph St.,Montgomery,AL,"(YC) - Young and/or collegiate types,(D) - Dancing,(*) - Very popular,(S) - Shows - impersonators or record pantomime acts - often touristy,(BYOB) - Bring your own bottle",Bars/Clubs,,,11/23/2019 1:19am,11/23/2019 1:46am
37,Quinn's,('Subtle'- like an old-time 'speakeasy' - downstairs),80 Commerce ,Montgomery,AL,"(M) - Mixed - Some Straights ,(AH) - After Hours",Bars/Clubs,,,11/23/2019 1:19am,11/23/2019 1:45am
41,Chucker's,,2121 6th St.,Tuscaloosa,AL,"(YC) - Young and/or collegiate types,(D) - Dancing,(*) - Very popular",Bars/Clubs,,,11/23/2019 1:19am,11/23/2019 1:47am
43,Silver Dollar Bar,,2311 7th St.,Tuscaloosa,AL,(M) - Mixed - Some Straights ,Bars/Clubs,,,11/23/2019 1:19am,11/23/2019 1:47am
49,"
  George’s Majestic 
  ",(Back area) ,519 W. Dickson St. ,Fayetteville,AK,"(M) - Mixed - Some Straights ,(*) - Very popular",Bars/Clubs,,,11/24/2019 1:44pm,12/16/2019 3:18pm
50,"
  Bonnie’s 
  ",($1. adm. WE) ,600 block of No. 10 St. ,Ft. Smith,AK,"(S) - Shows - impersonators or record pantomime acts - often touristy,(WE) - Weekends",Bars/Clubs,,,11/24/2019 1:51pm,12/18/2019 12:40pm
51,"
  Hi-Camp Lounge 
  ",,800 No. 10th St. ,Ft. Smith,AK,"(YC) - Young and/or collegiate types,(D) - Dancing",Bars/Clubs,,,11/24/2019 1:51pm,12/16/2019 3:18pm
62,In Town Lounge ,,103 So. Garden Ave.,Clearwater,FL,(D) - Dancing,Bars/Clubs,,,12/3/2019 10:55am,12/16/2019 3:18pm
72,Bull Pen ,,516 Main St. ,Daytona Beach,FL,"(M) - Mixed - Some Straights ,(RT) - 'Raunchy types' - downtown type places - often hustlers",Bars/Clubs,,,12/3/2019 10:56am,12/16/2019 3:19pm
74,Damien’s Yum Yum ,On the Boardwalk nr. the Bandstand (Days only) ,703 No. Ridgewood ,Daytona Beach,FL,"(*) - Very popular,(YC) - Young and/or collegiate types,(D) - Dancing,(S) - Shows - impersonators or record pantomime acts - often touristy",Bars/Clubs,,,12/3/2019 10:56am,12/16/2019 3:19pm
64,Evening Edition ,,5675 No. Banana River Blvd. ,Cocoa Beach,FL,"(*) - Very popular,(D) - Dancing,(PT) - Pool Table",Bars/Clubs,,,12/3/2019 10:56am,12/16/2019 3:18pm
65,Our Place,,4430 No. Banana River Blvd.,Cocoa Beach,FL,(D) - Dancing,Bars/Clubs,,,12/3/2019 10:56am,12/16/2019 3:18pm
653,Jolly Jack ,(Latins) ,411 Peoples,Corpus Christi,TX,"(M) - Mixed - Some Straights ,(PT) - Pool Table",Bars/Clubs,,,12/5/2019 5:50pm,12/16/2019 1:26pm
221,"
  Odds & Ends 
  ",(cruisy) ,4910 Edgewater Dr. ,Orlando,FL,(*) - Very popular,"Bars/Clubs,Cruising Areas",,,12/3/2019 11:49am,12/16/2019 3:14pm
254,Foxtrot Disco ,(S-AH-WE) (Some G) (Cruisy) ,1320 Jackson Bluff Rd. ,Tallahassee,FL,"(P) - Private club - Inquire locally to admission,(BYOB) - Bring your own bottle,(S) - Shows - impersonators or record pantomime acts - often touristy,(AH) - After Hours,(WE) - Weekends,""(G) - Girls/Ms, but seldom exclusively""","Bars/Clubs,Cruising Areas",,,12/3/2019 12:21pm,12/16/2019 3:14pm
264,El Goya ,"(Some W, YC) (Disco) (Game room) (3 bars ) (Cruisy) ",1430 E. 7th Ave. ,Tampa,FL,"(*) - Very popular,(D) - Dancing,(S) - Shows - impersonators or record pantomime acts - often touristy,(PT) - Pool Table,(W) - Western or coyboy types,(YC) - Young and/or collegiate types","Bars/Clubs,Cruising Areas",,,12/3/2019 12:26pm,12/16/2019 3:15pm
278,  Man's country bar   ,(Levi & W) (Cruisy) (go go boys)  ,506 25th St. ,West Palm Beach,FL,"(*) - Very popular,(PT) - Pool Table,(D) - Dancing,(W) - Western or coyboy types","Bars/Clubs,Cruising Areas",,,12/3/2019 12:29pm,12/16/2019 3:15pm
474,Gay 90’s,(Cruisy) (D-WE*) ,716 Louisiana Ave. ,Shreveport,LA,"(P) - Private club - Inquire locally to admission,(D) - Dancing,(WE) - Weekends,(*) - Very popular","Bars/Clubs,Cruising Areas",,,12/4/2019 8:20am,12/16/2019 3:16pm
499,"
  After Dark Lounge 
  ",(Disco) 7 nights downstairs & upstairs lounge (Cruisy-WE) ,80 Asheland Ave. ,Asheville,MS,"(P) - Private club - Inquire locally to admission,(YC) - Young and/or collegiate types,(*) - Very popular,(D) - Dancing,(WE) - Weekends","Bars/Clubs,Cruising Areas",,,12/5/2019 12:43pm,12/16/2019 3:16pm
548,Capital Corral ,(Game room in front – ‘Glitter Gulch’ (YC) (Disco) (D) in rear) (Cruisy)  ,313 W. Hargett ,Raleigh,NC,"(*) - Very popular,(W) - Western or coyboy types,(PT) - Pool Table,(YC) - Young and/or collegiate types,(D) - Dancing","Bars/Clubs,Cruising Areas",,,12/5/2019 4:44pm,12/16/2019 3:16pm
642,Private Cellar ,(some W) (Cruisy) (good days) ,1221 W. 6th St. ,Austin,TX,"(*) - Very popular,(PT) - Pool Table,(W) - Western or coyboy types","Bars/Clubs,Cruising Areas",,,12/5/2019 5:17pm,12/16/2019 3:16pm
756,Galleon ,(Cruisy) (May be moving) ,2720 Richmond ,Houston,TX,(*) - Very popular,"Bars/Clubs,Cruising Areas",,,12/5/2019 6:26pm,12/16/2019 3:17pm
767,"
  Levi’s 
  ",(Cruisy) (also Eagle Leathers Shop)  ,"
  2400 Brazos
  ",Houston,TX,"(*) - Very popular,(W) - Western or coyboy types,""(SM) - Some motorcycle. Don't confuse with 'M-S,' which means mixed crowds - shows. "",(PT) - Pool Table,""(R) - Restaurant, usually serving dinner. A '*' after this symbol does not necessarily indicate quality of food served, but popularity of the place. ""","Bars/Clubs,Cruising Areas",,,12/5/2019 6:30pm,12/16/2019 3:17pm
772,"
  Mary’s
  ",(Good WE afternoons – also Eagle Leathers Shop) (Cruisy),"
  1022 Westheimer 
  ",Houston,TX,"""(SM) - Some motorcycle. Don't confuse with 'M-S,' which means mixed crowds - shows. "",(W) - Western or coyboy types,(*) - Very popular,(WE) - Weekends","Bars/Clubs,Cruising Areas",,,12/5/2019 6:30pm,12/16/2019 3:17pm
178,Double ‘R’ Ranch ,"(Liquor) (This cruisy levi & western complex includes (R) with Sun. brunch & open (AH), game room, 3 bars, and Pleasure Chest leather & ‘toy’ shop) (Disco but NO dancing) ",1001 N.E. 2nd Ave. ,Miami,FL,"(W) - Western or coyboy types,""(SM) - Some motorcycle. Don't confuse with 'M-S,' which means mixed crowds - shows. "",(*) - Very popular,""(R) - Restaurant, usually serving dinner. A '*' after this symbol does not necessarily indicate quality of food served, but popularity of the place. "",(AH) - After Hours","Bars/Clubs,Cruising Areas,Restaurant",,,12/3/2019 11:39am,12/16/2019 3:14pm
22,Upstairs Bar,Heart of Dothan Motel,314 N. Foster,Dothan,AL,(M) - Mixed - Some Straights ,"Bars/Clubs,Hotels",,,11/23/2019 1:19am,11/23/2019 1:35am
488,Holiday Inn Bar ,,900 Broadway Dr. ,Hattiesburg,MS,(M) - Mixed - Some Straights ,"Bars/Clubs,Hotels",,,12/5/2019 12:34pm,12/16/2019 1:28pm
498,"
  Downtowner Motel
  Bar 
  ",,1313 Walnut ,Vicksburg,MS,"(M) - Mixed - Some Straights ,(*) - Very popular","Bars/Clubs,Hotels",,,12/5/2019 12:43pm,12/16/2019 1:27pm
104,"
  Poop Deck 
  ",(Disco) (Liquor) (S-downstairs) Marlin Beach Hotel (Ft. Lauderdale Beach) ,17 So. Atlantic Bl.,Ft. Lauderdale,FL,"(*) - Very popular,(HIP) - Heads frequent,(YC) - Young and/or collegiate types,(D) - Dancing,""(R) - Restaurant, usually serving dinner. A '*' after this symbol does not necessarily indicate quality of food served, but popularity of the place. ""","Bars/Clubs,Restaurant",,,12/3/2019 11:11am,12/16/2019 1:59pm
107,"
  Tangerine 
  ",(Disco) (Liquor) ,2960 No. Federal Hwy. ,Ft. Lauderdale,FL,"(*) - Very popular,(YC) - Young and/or collegiate types,(D) - Dancing,""(R) - Restaurant, usually serving dinner. A '*' after this symbol does not necessarily indicate quality of food served, but popularity of the place. "",(E) - Entertainment,(S) - Shows - impersonators or record pantomime acts - often touristy","Bars/Clubs,Restaurant",,,12/3/2019 11:11am,12/16/2019 1:59pm
150,Aboona Bar & Restaurant ,(Looks promising),401 Front St.,Key West,FL,,"Bars/Clubs,Restaurant",,,12/3/2019 11:24am,12/16/2019 2:08pm
175,Candlelight Club ,"(for Adm. info, inquire at Warehouse VIII)  ",2869 S.W. 27th Ave. ,Miami,FL,"(P) - Private club - Inquire locally to admission,""(R) - Restaurant, usually serving dinner. A '*' after this symbol does not necessarily indicate quality of food served, but popularity of the place. ""","Bars/Clubs,Restaurant",,,12/3/2019 11:34am,12/16/2019 1:59pm
196,"
  Second Landing 
  ",(Liquor) (Rear entrance off parking lot) ,820 S.W. 42nd Ave. ,Miami,FL,"""(G) - Girls/Ms, but seldom exclusively"",""(R) - Restaurant, usually serving dinner. A '*' after this symbol does not necessarily indicate quality of food served, but popularity of the place. "",(D) - Dancing,(*) - Very popular","Bars/Clubs,Restaurant",,,12/3/2019 11:42am,12/16/2019 1:59pm
363,"
  Restaurant
  Montparnasse 
  ",(Day) (‘The Place’ at night – Disco – D – upstairs – recently remodeled & enlarged) ,224 E. Main St. ,Lexington,KY,"(*) - Very popular,(M) - Mixed - Some Straights ,""(R) - Restaurant, usually serving dinner. A '*' after this symbol does not necessarily indicate quality of food served, but popularity of the place. "",(D) - Dancing","Bars/Clubs,Restaurant",,,12/4/2019 7:08am,12/16/2019 1:59pm
860,Occidental ,,209 Granby St. ,Norfolk,VA,"(M) - Mixed - Some Straights ,(B) - Blacks frequent,(RT) - 'Raunchy types' - downtown type places - often hustlers,""(R) - Restaurant, usually serving dinner. A '*' after this symbol does not necessarily indicate quality of food served, but popularity of the place. "",""(C) - Coffee, soft drinks, juices and snacks"",(AH) - After Hours","Bars/Clubs,Restaurant",,,12/6/2019 11:54am,12/16/2019 1:58pm
89,Club House ,(Baths) ,2650 E. Oakland Park ,Ft. Lauderdale,FL,"(P) - Private club - Inquire locally to admission,(*) - Very popular",Baths,,,12/3/2019 11:03am,12/16/2019 1:24pm
96,"
  Gym Health Club
  Baths 
  ",,901 S.W. 27th Ave. ,Ft. Lauderdale,FL,(P) - Private club - Inquire locally to admission,Baths,,,12/3/2019 11:08am,12/16/2019 1:24pm
133,Locker Room ,(Baths) (3 floors - use rear entrance),1914 Hollywood Blvd. ,Hollywood,FL,(*) - Very popular,Baths,,,12/3/2019 11:19am,12/16/2019 3:06pm
176,Clubhouse ,(Baths) (use side entrance) ,299 S.W. 8th St. ,Miami,FL,"(P) - Private club - Inquire locally to admission,(*) - Very popular",Baths,,,12/3/2019 11:34am,12/16/2019 1:24pm
177,Club Miami Baths,,2991 Coral Way,Miami,FL,"(P) - Private club - Inquire locally to admission,(*) - Very popular",Baths,,,12/3/2019 11:38am,12/16/2019 1:24pm
261,Club Tampa Bath ,,215 No. 11th St. ,Tampa,FL,(*) - Very popular,Baths,,,12/3/2019 12:26pm,12/16/2019 2:58pm
299,Club Baths of Atlanta ,(Newly expanded & remodeled) ,76 4th St. N.W. ,Atlanta,GA,(*) - Very popular,Baths,,,12/4/2019 6:49am,12/16/2019 2:01pm
377,Windsor Hotel Sauna Baths ,(Closes 11 p.m.) ,326 S. 5th St. ,Louisville,KY,,"Baths,Hotels",,,12/4/2019 7:12am,12/18/2019 1:29pm
417,Canal Baths ,,738 No. Rampart ,New Orleans,LA,(*) - Very popular,Baths,,,12/4/2019 8:02am,12/16/2019 3:06pm
420,Club New Orleans Baths ,,515 Toulouse Ave. ,New Orleans,LA,(*) - Very popular,Baths,,,12/4/2019 8:04am,12/16/2019 3:06pm
506,"
  Club South Baths of
  Charlotte 
  ",(Looks promising) ,1708 South Blvd. ,Charlotte,NC,,Baths,,,12/5/2019 12:43pm,12/16/2019 2:02pm
505,"
  Club Charlotte
  Baths
  ",,1013 W. Morehead ,Charlotte,NC,,Baths,,,12/5/2019 12:43pm,12/16/2019 2:02pm
634,Club Austin Baths ,(Should be a winner) ,308 W. 16th St. ,Austin,TX,,Baths,,,12/5/2019 5:17pm,12/16/2019 2:04pm
665,"
  Club Baths of
  Dallas 
  ",(& Eagle Leathers – ‘toys’ & things) ,2616 Swiss Ave. ,Dallas,TX,"(YC) - Young and/or collegiate types,(*) - Very popular",Baths,,,12/5/2019 5:55pm,12/16/2019 2:05pm
732,Kon Tiki Baths ,,220 23rd St.,Galveston,TX,(*) - Very popular,Baths,,,12/5/2019 6:17pm,12/16/2019 2:05pm
748,Club Houston Baths ,,2205 Fannin ,Houston,TX,"(YC) - Young and/or collegiate types,(*) - Very popular",Baths,,,12/5/2019 6:26pm,12/16/2019 1:23pm
776,Mr. Frizby’s Baths,,3401 Milan ,Houston,TX,,Baths,,,12/5/2019 6:37pm,12/16/2019 3:06pm
138,Club Baths of Jacksonville ,"(some W, SM in backroom – WE) (Cruisy)  ",1939 Hendricks ,Jacksonville,FL,"(*) - Very popular,(W) - Western or coyboy types,""(SM) - Some motorcycle. Don't confuse with 'M-S,' which means mixed crowds - shows. ""","Baths,Cruising Areas",,,12/3/2019 11:19am,12/18/2019 12:38pm
77,Gay 90’s Gift Shop ,,228 So Seabreeze,Daytona Beach,FL,,Book Store,,,12/3/2019 10:56am,12/16/2019 2:07pm
68,Cheekers ,(Books) ,1150 No. Federal Hwy. ,Dania,FL,"(*) - Very popular,(M) - Mixed - Some Straights ,(YC) - Young and/or collegiate types,(D) - Dancing",Book Store,,,12/3/2019 10:56am,12/16/2019 2:07pm
85,A Adult Book Store ,,1915 So. Federal Hwy. ,Ft. Lauderdale,FL,(*) - Very popular,Book Store,,,12/3/2019 11:03am,12/16/2019 2:07pm
97,"
  Jaybird News 
  ","(J.B.N.) (Books, ‘toys’, etc.) ",2515 W. Broward ,Ft. Lauderdale,FL,(*) - Very popular,Book Store,,,12/3/2019 11:08am,12/16/2019 2:07pm
130,R & R Books ,,W. Hallandale Beach Blvd. ,Hallandale,FL,,Book Store,,,12/3/2019 11:19am,12/16/2019 2:08pm
189,Little River News ,(Books),7839 N.E. 2nd Ave. ,Miami,FL,(*) - Very popular,Book Store,,,12/3/2019 11:41am,12/16/2019 2:08pm
220,"
  Book Worm
  ",(books) ,102 No. Orange Ave. ,Orlando,FL,,Book Store,,,12/3/2019 11:49am,12/16/2019 2:10pm
222,Orlando Book Mart ,(books) ,1104 E. Colonial Drive,Orlando,FL,,Book Store,,,12/3/2019 12:08pm,12/16/2019 2:11pm
276,"
  Cloud Lake Adult Bookstore
  
  ",(Cloud Lake),1320 Southern Blvd. ,West Palm Beach,FL,,Book Store,,,12/3/2019 12:29pm,12/16/2019 2:58pm
298,Climax Book Mart ,"(Open 24 hrs, except early Sun. morning) ",1545 Piedmont Rd. N.E.  ,Atlanta,GA,,Book Store,,,12/4/2019 6:49am,12/16/2019 2:00pm
307,"
  Eros Book Mart 
  ",(Open 24hrs) ,777 Ponce de Leon ,Atlanta,GA,,Book Store,,,12/4/2019 6:52am,12/16/2019 2:00pm
327,Star Book Mart ,,804 No. Highland Ave. ,Atlanta,GA,,Book Store,,,12/4/2019 6:56am,12/16/2019 2:01pm
416,Camp News,(News & much nicer quarters) (use side entrance on St. Anne) ,615 Common St. ,New Orleans,LA,(*) - Very popular,Book Store,,,12/4/2019 8:02am,12/16/2019 3:13pm
427,Franklin News ,(Gretna),1140 Franklin Ave. ,New Orleans,LA,,Book Store,,,12/4/2019 8:04am,12/16/2019 2:01pm
423,Eighteenth Street News ,(Metairie) ,3800 Hessmer Ave.,New Orleans,LA,,Book Store,,,12/4/2019 8:04am,12/16/2019 2:01pm
442,"
  Midtown News 
  ",,4069 Tulane ,New Orleans,LA,,Book Store,,,12/4/2019 8:08am,12/16/2019 2:02pm
450,Rampart News ,,632 Rampart St. ,New Orleans,LA,,Book Store,,,12/4/2019 8:12am,12/16/2019 2:02pm
452,Sidney’s News Stand ,(‘Moms’) (‘Hustlers’ & ‘Drags’) ,917 Decatur St. ,New Orleans,LA,,Book Store,,,12/4/2019 8:12am,12/16/2019 2:02pm
507,Crazy Horse Book Store ,,125 No. King dr. ,Charlotte,NC,(M) - Mixed - Some Straights ,Book Store,,,12/5/2019 12:47pm,12/16/2019 1:28pm
517,Venus Cinema ,(Books) ,410 W Trade St ,Charlotte,NC,(M) - Mixed - Some Straights ,Book Store,,,12/5/2019 12:48pm,12/16/2019 1:28pm
528,"
  Swingers Book
  Store 
  ",,301 E. Chapel Hill St. ,Durham,NC,(M) - Mixed - Some Straights ,Book Store,,,12/5/2019 12:51pm,12/16/2019 1:27pm
529,"
  Tri State News 
  ",(Books) ,215 E. Chapel Hill St. ,Durham,NC,,Book Store,,,12/5/2019 12:51pm,12/16/2019 2:03pm
550,Raleigh Books ,,111 Fayetteville St. ,Raleigh,NC,,Book Store,,,12/5/2019 4:44pm,12/16/2019 2:03pm
546,Hart’s News ,"(Books, movies) ",105 Kivett Dr. ,High Point,NC,,Book Store,,,12/5/2019 4:44pm,12/16/2019 2:03pm
558,North Liberty Books ,,42 No. Liberty ,Winston-Salem,NC,,Book Store,,,12/5/2019 4:48pm,12/16/2019 2:03pm
632,All American News ,(Books) ,2532 Guadalupe ,Austin,TX,,Book Store,,,12/5/2019 5:13pm,12/16/2019 2:04pm
640,Mr. Peepers,(books) ,213 E. 6th St.  ,Austin,TX,,Book Store,,,12/5/2019 5:17pm,12/16/2019 2:04pm
666,"
  Commerce Street News
  
  ",,1513 Commerce St.,Dallas,TX,,Book Store,,,12/5/2019 5:55pm,12/16/2019 2:04pm
667,"
  Copenhagen Book Store
  
  ",(best when not busted) ,2500 Knight ,Dallas,TX,,Book Store,,,12/5/2019 5:55pm,12/16/2019 2:04pm
677,Lobo Book Store ,,3917 Cedar Springs ,Dallas,TX,,Book Store,,,12/5/2019 6:00pm,12/16/2019 2:05pm
745,Carter’s Adult Book Store ,,2819 Louisiana ,Houston,TX,,Book Store,,,12/5/2019 6:22pm,12/16/2019 2:05pm
751,Diner’s News ,(Books) ,204 Westheimer ,Houston,TX,,Book Store,,,12/5/2019 6:26pm,12/16/2019 2:06pm
757,"
  Gas Light Book Store 
  ",,"
  3519 Bellaire 
  ",Houston,TX,,Book Store,,,12/5/2019 6:30pm,12/16/2019 2:06pm
770,"
  Main Street News 
  ",(Books) ,"
  4418 So. Main 
  ",Houston,TX,,Book Store,,,12/5/2019 6:30pm,12/16/2019 2:06pm
780,No. Houston Adult Books ,,5102 Airline,Houston,TX,,Book Store,,,12/5/2019 6:37pm,12/16/2019 2:06pm
797,Warehouse ,(Books & arcade) ,1201 Richmond ,Houston,TX,,Book Store,,,12/6/2019 10:55am,12/16/2019 2:06pm
787,Rosalie’s Too ,(Books) ,900 Preston ,Houston,TX,,Book Store,,,12/6/2019 10:55am,12/16/2019 2:06pm
795,Universal Adult Books ,,1437 W. Alabama ,Houston,TX,,Book Store,,,12/6/2019 10:55am,12/16/2019 2:06pm
813,"
  B & L Books 
  ",,214 N. Grant ,Odessa,TX,,Book Store,,,12/6/2019 11:00am,12/16/2019 2:06pm
815,"
  Adultz News 
  ",(Books) ,519 E. Houston ,San Antonio,TX,,Book Store,,,12/6/2019 11:00am,12/16/2019 2:07pm
294,After Dark Book Shop & Film Gallery ,"(‘Flicks’, Cruisy back room, game room) (Also open AH) ",1067 Peachtree St. N.E.  ,Atlanta,GA,"(*) - Very popular,(PT) - Pool Table,(AH) - After Hours","Book Store,Cruising Areas,Theatre",,,12/4/2019 6:46am,12/16/2019 3:15pm
317,Mr. B’s Esquire Book & Cards ,(Basement film gallery) ,107 Luckie St.,Atlanta,GA,(OC) - Older/More Mature Crowd,"Book Store,Theatre",,,12/4/2019 6:54am,12/16/2019 1:25pm
411,Bank Theatre & Book Store ,(Cruisy) (Disco) (Upstairs at the ‘Parade’ – Adm. charge) ,941 Decatur,New Orleans,LA,"(YC) - Young and/or collegiate types,(*) - Very popular,(D) - Dancing","Book Store,Theatre,Cruising Areas",,,12/4/2019 7:57am,12/16/2019 3:15pm
739,After Dark Book Shop & Film Gallery ,(Cruisy) ,3400 Travis ,Houston,TX,(*) - Very popular,"Book Store,Theatre,Cruising Areas",,,12/5/2019 6:22pm,12/16/2019 3:17pm
791,Studz News ,(Books) (Film gallery & Cruisy arcade) (Opens until a.m.)  ,1132 W. Alabama ,Houston,TX,(*) - Very popular,"Book Store,Theatre,Cruising Areas",,,12/6/2019 10:55am,12/16/2019 3:17pm
100,"
  M.C.C. 
  ",(Above the Tangerine) ,1127 S.W. 2nd Ct.  ,Ft. Lauderdale,FL,(MCC) M.C.C. - Metropolitan Community Church,Church,,,12/3/2019 11:08am,12/16/2019 1:17pm
190,M. C. C. ,,3901 N.W. 2nd Ave. ,Miami,FL,(MCC) M.C.C. - Metropolitan Community Church,Church,,,12/3/2019 11:41am,12/16/2019 1:17pm
268,M.C.C. ,,2904 Concordia Ave. ,Tampa,FL,(MCC) M.C.C. - Metropolitan Community Church,Church,,,12/3/2019 12:26pm,12/16/2019 1:17pm
316,M. C. C ,,800 No. Highland Ave. ,Atlanta,GA,(MCC) M.C.C. - Metropolitan Community Church,Church,,,12/4/2019 6:54am,12/16/2019 1:17pm
441,"
  M.C.C. 
  ",,1934 Burgundy St. ,New Orleans,LA,(MCC) M.C.C. - Metropolitan Community Church,Church,,,12/4/2019 8:08am,12/16/2019 1:17pm
621,M.C.C.,,1502 Edgehill Ave. ,Nashville,TN,,Church,,,12/5/2019 5:13pm,12/16/2019 2:04pm
639,M.C.C.,,408 W. 23rd ,Austin,TX,(MCC) M.C.C. - Metropolitan Community Church,Church,,,12/5/2019 5:17pm,12/16/2019 1:17pm
679,M.C.C. ,,2701 Reagan ,Dallas,TX,(MCC) M.C.C. - Metropolitan Community Church,Church,,,12/5/2019 6:00pm,12/16/2019 1:17pm
720,M.C.C. ,,3024 Forest Ave. ,Ft. Worth,TX,(MCC) M.C.C. - Metropolitan Community Church,Church,,,12/5/2019 6:15pm,12/16/2019 1:17pm
773,M.C.C. ,,1214 Joe Annie ,Houston,TX,(MCC) M.C.C. - Metropolitan Community Church,Church,,,12/5/2019 6:37pm,12/16/2019 1:17pm
11,Mandate Pub,(Weekends popular),318 So. 14th St. ,Birmingham,AL,"(YC) - Young and/or collegiate types,(D) - Dancing,(W) - Western or coyboy types,(WE) - Weekends,(*) - Very popular",Cruising Areas,,,11/23/2019 1:19am,11/23/2019 1:33am
16,Classic Adult Center,,424 19th St. No.,Birmingham,AL,Cruisy Area,Cruising Areas,,,11/23/2019 1:19am,11/23/2019 1:33am
19,Venus Adult Entertainment,(HOT),418 No. 19th St.,Birmingham,AL,"Cruisy Area,(M) - Mixed - Some Straights ",Cruising Areas,,,11/23/2019 1:19am,11/23/2019 1:34am
382,Public Library – York St. ,,,Louisville,KY,Cruisy Area,Cruising Areas,,,12/4/2019 7:17am,12/16/2019 1:20pm
395,Riverside Mall ,,1505 W. Main ,Baton Rouge,LA,Cruisy Area,Cruising Areas,,,12/4/2019 7:17am,12/16/2019 1:20pm
604,U. of Tenn. – Library T-Room ,,,Knoxville,TN,Cruisy Area,Cruising Areas,,,12/5/2019 5:09pm,12/16/2019 1:20pm
4,Pete's,,816 Opalika,Auburn,AL,(M) - Mixed - Some Straights ,"Cruising Areas,Bars/Clubs",,,11/23/2019 1:19am,12/16/2019 3:08pm
5,Butch 'n' Nellies,(Many G) Popular on weekends,1331 3rd Ave. North,Birmingham,AL,"""(G) - Girls/Ms, but seldom exclusively"",(D) - Dancing,(*) - Very popular,(WE) - Weekends","Cruising Areas,Bars/Clubs",,,11/23/2019 1:19am,12/16/2019 3:08pm
7,Chances R,(Private membership club for women) (Looks promising),208 No. 23rd St. ,Birmingham,AL,,"Cruising Areas,Bars/Clubs",,Annoying it doesnt include women label,11/23/2019 1:19am,12/16/2019 3:08pm
6,Candy Cane,(Disco on weekends) (Looks promising),28-37th Ave. South,Birmingham,AL,"(D) - Dancing,(WE) - Weekends","Cruising Areas,Bars/Clubs",,,11/23/2019 1:19am,12/16/2019 3:08pm
8,Focus Phase II,(Disco) (Looks promising),117 No. 21st St.,Birmingham,AL,"(S) - Shows - impersonators or record pantomime acts - often touristy,(D) - Dancing","Cruising Areas,Bars/Clubs",,,11/23/2019 1:19am,12/16/2019 3:09pm
9,Gizmo,(Disco weekends) (Hip) (Unisex) ,909 So. 22nd St.,Birmingham,AL,"(YC) - Young and/or collegiate types,(WE) - Weekends,(D) - Dancing,(*) - Very popular,(HIP) - Heads frequent","Cruising Areas,Bars/Clubs",,,11/23/2019 1:19am,12/18/2019 12:38pm
10,He & She Scene,Blacks popular,1700 1st Ave. No.,Birmingham,AL,"(D) - Dancing,(M) - Mixed - Some Straights ,(B) - Blacks frequent,(*) - Very popular","Cruising Areas,Bars/Clubs",,,11/23/2019 1:19am,12/16/2019 3:08pm
328,Stephen’s ,"(No sign, but don’t miss it! Snacks, Sat. brunch & Sunday ‘Breakfast at Tiffany’s’ is packed & Cruisy)  ",1833 Peachtree Rd. N.E. ,Atlanta,GA,"(YC) - Young and/or collegiate types,(*) - Very popular","Cruising Areas,Bars/Clubs",,,12/4/2019 6:56am,12/16/2019 3:08pm
437,"
  La Fitte’s In
  Exile 
  ",(Cruisy) ,901 Bourbon St.,New Orleans,LA,"(YC) - Young and/or collegiate types,(*) - Very popular","Cruising Areas,Bars/Clubs",,,12/4/2019 8:08am,12/16/2019 3:08pm
12,Redmont Hotel Lounge,,5th Ave. No. at 22nd St.,Birmingham,AL,"(M) - Mixed - Some Straights ,(RT) - 'Raunchy types' - downtown type places - often hustlers,(B) - Blacks frequent,(PT) - Pool Table","Cruising Areas,Hotels",,,11/23/2019 1:19am,12/16/2019 1:14pm
383,Savoy Theatre ,,,Louisville,KY,Cruisy Area,"Cruising Areas,Theatre",,,12/4/2019 7:17am,12/16/2019 1:22pm
838,Capri Adult Theatre ,(Cruisy) ,1319 No. 15th St. ,Waco,TX,(M) - Mixed - Some Straights ,"Cruising Areas,Theatre",,,12/6/2019 11:45am,12/16/2019 1:27pm
76,Eldorado Motel ,,805 No. Atlantic,Daytona Beach,FL,"""(H) - Hotel, motel, or other overnight accomodations""",Hotels,,,12/3/2019 10:56am,12/16/2019 1:16pm
73,Chateau de Valencia ,(Disco) (Some G) (Holly Hill) ,128 No. Atlantic ,Daytona Beach,FL,"""(H) - Hotel, motel, or other overnight accomodations"",""(G) - Girls/Ms, but seldom exclusively""",Hotels,,,12/3/2019 10:56am,12/18/2019 12:37pm
79,Lou-Ray Motel ,,400 So. Atlantic,Daytona Beach,FL,"""(H) - Hotel, motel, or other overnight accomodations""",Hotels,,,12/3/2019 11:02am,12/16/2019 1:16pm
88,Blue Atlantic Motel  ,,2901 Rio Mar St. ,Ft. Lauderdale,FL,"""(H) - Hotel, motel, or other overnight accomodations""",Hotels,,,12/3/2019 11:03am,12/16/2019 1:16pm
87,Bela-Mar Apt. Motel ,,3801 No. Ocean Bl. ,Ft. Lauderdale,FL,"""(H) - Hotel, motel, or other overnight accomodations"",(*) - Very popular",Hotels,,,12/3/2019 11:03am,12/16/2019 1:16pm
81,Sea Dip Motel ,,1233 So. Atlantic,Daytona Beach,FL,"""(H) - Hotel, motel, or other overnight accomodations""",Hotels,,,12/3/2019 11:03am,12/16/2019 1:16pm
80,Nite Fall Motel ,,640 So. Ridgewood,Daytona Beach,FL,"(M) - Mixed - Some Straights ,""(H) - Hotel, motel, or other overnight accomodations""",Hotels,,,12/3/2019 11:03am,12/16/2019 1:16pm
94,"
  Galt Riviera Motel 
  ",,3811 No. Ocean Blvd. ,Ft. Lauderdale,FL,"""(H) - Hotel, motel, or other overnight accomodations""",Hotels,,,12/3/2019 11:08am,12/16/2019 1:16pm
102,"
  Ocean Walk Apts. 
  ",,3008 Castillo St. ,Ft. Lauderdale,FL,"""(H) - Hotel, motel, or other overnight accomodations""",Hotels,,,12/3/2019 11:08am,12/16/2019 1:16pm
152,Big Ruby’s Guest House ,,617 Whitehead ,Key West,FL,"""(H) - Hotel, motel, or other overnight accomodations""",Hotels,,,12/3/2019 11:30am,12/16/2019 1:16pm
156,Key Lime Village ,(disco) (some G) ,727 Truman Ave.,Key West,FL,"(M) - Mixed - Some Straights ,""(H) - Hotel, motel, or other overnight accomodations"",""(G) - Girls/Ms, but seldom exclusively""",Hotels,,,12/3/2019 11:30am,12/18/2019 12:37pm
162,The Pines ,(disco) (Occ. S*),521 United St.,Key West,FL,"(M) - Mixed - Some Straights ,""(H) - Hotel, motel, or other overnight accomodations"",(S) - Shows - impersonators or record pantomime acts - often touristy,(*) - Very popular",Hotels,,,12/3/2019 11:30am,12/18/2019 12:37pm
260,Casa de Felicidad,,5018 Branch Ave. ,Tampa,FL,"""(H) - Hotel, motel, or other overnight accomodations"",(OC) - Older/More Mature Crowd",Hotels,,,12/3/2019 12:26pm,12/16/2019 1:16pm
283,"
  Wakefield Motor Lodge
  
  ",,2806 No. Broad ,West Palm Beach,FL,"""(H) - Hotel, motel, or other overnight accomodations"",(*) - Very popular",Hotels,,,12/3/2019 12:29pm,12/16/2019 1:16pm
279,"
  Southwind Motel 
  ",,2701 No. Broadway ,West Palm Beach,FL,"(M) - Mixed - Some Straights ,""(H) - Hotel, motel, or other overnight accomodations""",Hotels,,,12/3/2019 12:29pm,12/16/2019 1:17pm
323,Ponce de Leon Hotel,,551 Ponce de Leon Ave. N.E. ,Atlanta,GA,"""(H) - Hotel, motel, or other overnight accomodations""",Hotels,,,12/4/2019 6:56am,12/16/2019 1:16pm
364,"
  Y.M.C.A. 
  ",,239 E. High St. ,Lexington,KY,"(M) - Mixed - Some Straights ,""(H) - Hotel, motel, or other overnight accomodations""",Hotels,,,12/4/2019 7:09am,12/16/2019 1:17pm
445,"
  Noble Arms Guest
  House 
  ",,1006 Royal St. ,New Orleans,LA,"""(H) - Hotel, motel, or other overnight accomodations""",Hotels,,,12/4/2019 8:08am,12/16/2019 1:16pm
457,Ursuline’s Guest House ,,708 Ursulines,New Orleans,LA,"""(H) - Hotel, motel, or other overnight accomodations"",(*) - Very popular",Hotels,,,12/4/2019 8:13am,12/16/2019 1:16pm
460,Y.M.C.A. ,,936 St. Charles St.,New Orleans,LA,"(M) - Mixed - Some Straights ,""(H) - Hotel, motel, or other overnight accomodations""",Hotels,,,12/4/2019 8:13am,12/16/2019 1:17pm
458,Vieux Carre Motor Lodge,(‘Hustlers’) ,920 No. Rampart St. ,New Orleans,LA,"(M) - Mixed - Some Straights ,""(H) - Hotel, motel, or other overnight accomodations""",Hotels,,,12/4/2019 8:13am,12/16/2019 1:17pm
519,Y.M.C.A. ,,400 E. Morehead ,Charlotte,NC,"(M) - Mixed - Some Straights ,""(H) - Hotel, motel, or other overnight accomodations""",Hotels,,,12/5/2019 12:48pm,12/16/2019 1:17pm
545,Smith’s Motel ,,2309 So. Memorial Dr. ,Greenville,NC,"(M) - Mixed - Some Straights ,""(H) - Hotel, motel, or other overnight accomodations""",Hotels,,,12/5/2019 3:14pm,12/16/2019 1:17pm
733,Lafitte Hotel ,(Men only – above Robert’s Lafitte) ,409 Rosenberg ,Galveston,TX,"""(H) - Hotel, motel, or other overnight accomodations""",Hotels,,,12/5/2019 6:22pm,12/16/2019 1:16pm
862,Y.M.C.A.,,312 W. Butte St. ,Norfolk,VA,"(M) - Mixed - Some Straights ,""(H) - Hotel, motel, or other overnight accomodations""",Hotels,,,12/6/2019 11:54am,12/16/2019 1:17pm
99,"
  Marlin Beach Hotel
  
  ",(Swim pool & Bar) (Ft. Lauderdale Beach) ,17 So. Atlantic Blvd. ,Ft. Lauderdale,FL,"""(H) - Hotel, motel, or other overnight accomodations"",(*) - Very popular","Hotels,Bars/Clubs",,,12/3/2019 11:08am,12/16/2019 1:29pm
494,Holiday Inn Bar ,,400 No. Lamar ,Oxford,MS,,"Hotels,Bars/Clubs",,,12/5/2019 12:34pm,12/16/2019 2:58pm
531,"
  Holiday Inn bar 
  ",,442 Eastern Blvd. ,Fayetteville,NC,"(M) - Mixed - Some Straights ,(OC) - Older/More Mature Crowd","Hotels,Bars/Clubs",,,12/5/2019 12:51pm,12/16/2019 1:26pm
215,"
  Windward Resort Motel
  
  ","(this one complex includes several bars, (disco) (D) (E) (R) (H) and swimming pool)",16051 Collins Ave. ,Miami Beach,FL,"(*) - Very popular,(D) - Dancing,(E) - Entertainment,""(R) - Restaurant, usually serving dinner. A '*' after this symbol does not necessarily indicate quality of food served, but popularity of the place. "",""(H) - Hotel, motel, or other overnight accomodations""","Hotels,Bars/Clubs,Restaurant",,,12/3/2019 11:49am,12/16/2019 2:10pm
154,Club Key West ,(baths & lodgings),621 Truman Ave.,Key West,FL,(*) - Very popular,"Hotels,Baths",,,12/3/2019 11:30am,12/16/2019 3:06pm
46,"
  Log Cabin Inn
  & Country Store 
  ",,42 Kings Highway ,Eureka Springs,AK,"(M) - Mixed - Some Straights ,""(H) - Hotel, motel, or other overnight accomodations"",""(R) - Restaurant, usually serving dinner. A '*' after this symbol does not necessarily indicate quality of food served, but popularity of the place. "",""(C) - Coffee, soft drinks, juices and snacks""","Hotels,Restaurant",,,11/24/2019 1:44pm,12/16/2019 1:17pm
98,"
  Lauderdale Beach
  Hotel 
  ",(Florida’s Newest resort complex – includes (H) (R) (E) (Several Bars) (YC) (Disco) (D) (Game room) (PT) (Swim pool) (Ft. Lauderdale Beach) ,101 So. Atlantic Blvd. ,Ft. Lauderdale,FL,"(*) - Very popular,""(H) - Hotel, motel, or other overnight accomodations"",""(R) - Restaurant, usually serving dinner. A '*' after this symbol does not necessarily indicate quality of food served, but popularity of the place. "",""(C) - Coffee, soft drinks, juices and snacks"",(E) - Entertainment,(YC) - Young and/or collegiate types,(D) - Dancing,(PT) - Pool Table","Hotels,Restaurant",,,12/3/2019 11:08am,12/16/2019 1:58pm
3,Pasquale's Pizza,(No booze),174 E. Magnolia,Auburn,AL,"""(R) - Restaurant, usually serving dinner. A '*' after this symbol does not necessarily indicate quality of food served, but popularity of the place. "",(M) - Mixed - Some Straights ",Restaurant,,,11/22/2019 2:36pm,11/23/2019 1:23am
13,Steak 'n' Eggs,,1717 10th Ave. So. ,Birmingham,AL,"(M) - Mixed - Some Straights ,""(R) - Restaurant, usually serving dinner. A '*' after this symbol does not necessarily indicate quality of food served, but popularity of the place. "",""(C) - Coffee, soft drinks, juices and snacks"",(AH) - After Hours",Restaurant,,,11/23/2019 1:19am,11/23/2019 1:31am
21,Why Not Eat Here Cafe,,220 Moulton St.,Decatur,AL,(M) - Mixed - Some Straights ,Restaurant,,,11/23/2019 1:19am,11/23/2019 1:34am
23,Pitt Grill,(Late),400 E. Tennessee,Florence,AL,"(M) - Mixed - Some Straights ,""(R) - Restaurant, usually serving dinner. A '*' after this symbol does not necessarily indicate quality of food served, but popularity of the place. "",""(C) - Coffee, soft drinks, juices and snacks""",Restaurant,,,11/23/2019 1:19am,12/16/2019 1:57pm
35,Am-Vets Club,,207 Lee St.,Montgomery,AL,"(M) - Mixed - Some Straights ,""(R) - Restaurant, usually serving dinner. A '*' after this symbol does not necessarily indicate quality of food served, but popularity of the place. "",""(C) - Coffee, soft drinks, juices and snacks"",(AH) - After Hours",Restaurant,,,11/23/2019 1:19am,11/23/2019 1:44am
53,"
  Norma Kristie’s 
  ",(Some G) ,220 Central Ave. ,Hot Springs,AK,"(D) - Dancing,(S) - Shows - impersonators or record pantomime acts - often touristy,""(R) - Restaurant, usually serving dinner. A '*' after this symbol does not necessarily indicate quality of food served, but popularity of the place. "",(*) - Very popular,""(G) - Girls/Ms, but seldom exclusively""",Restaurant,,,11/24/2019 1:51pm,12/18/2019 12:37pm
101,"
  Mezzanine 
  ",,2960 No. Federal Hwy. ,Ft. Lauderdale,FL,"""(R) - Restaurant, usually serving dinner. A '*' after this symbol does not necessarily indicate quality of food served, but popularity of the place. "",(E) - Entertainment,(*) - Very popular",Restaurant,,,12/3/2019 11:08am,12/16/2019 1:19pm
115,Cara Mia ,,1031 No. Tamiami Trail,Ft. Myers,FL,"""(R) - Restaurant, usually serving dinner. A '*' after this symbol does not necessarily indicate quality of food served, but popularity of the place. """,Restaurant,,,12/3/2019 11:14am,12/16/2019 1:18pm
140,Derby House ,,1068 Park St. ,Jacksonville,FL,"(M) - Mixed - Some Straights ,""(R) - Restaurant, usually serving dinner. A '*' after this symbol does not necessarily indicate quality of food served, but popularity of the place. "",""(C) - Coffee, soft drinks, juices and snacks"",(AH) - After Hours",Restaurant,,,12/3/2019 11:21am,12/16/2019 1:17pm
159,Poor Richard’s  ,,408 Greene St. ,Key West,FL,"(M) - Mixed - Some Straights ,(PE) - Pretty elegant - jacket & tie may be required,""(R) - Restaurant, usually serving dinner. A '*' after this symbol does not necessarily indicate quality of food served, but popularity of the place. """,Restaurant,,,12/3/2019 11:30am,12/16/2019 1:17pm
161,The Affair ,"(Disco) (WE*) (S. R. 33, 5 mi. No. of Lakeland Hospital)",90 Duval St. ,Key West,FL,"""(R) - Restaurant, usually serving dinner. A '*' after this symbol does not necessarily indicate quality of food served, but popularity of the place. "",(M) - Mixed - Some Straights ,(WE) - Weekends,(*) - Very popular",Restaurant,,,12/3/2019 11:30am,12/18/2019 12:37pm
158,Monster ,,400 Front St.,Key West,FL,"(D) - Dancing,""(R) - Restaurant, usually serving dinner. A '*' after this symbol does not necessarily indicate quality of food served, but popularity of the place. "",(*) - Very popular",Restaurant,,,12/3/2019 11:30am,12/16/2019 1:16pm
153,China Gate,,1007 Simonton ,Key West,FL,"(M) - Mixed - Some Straights ,""(R) - Restaurant, usually serving dinner. A '*' after this symbol does not necessarily indicate quality of food served, but popularity of the place. """,Restaurant,,,12/3/2019 11:30am,12/16/2019 1:17pm
173,Cactus Lounge ,(Liquor),2041 N.E. Biscayne Blvd.,Miami,FL,"""(R) - Restaurant, usually serving dinner. A '*' after this symbol does not necessarily indicate quality of food served, but popularity of the place. "",(*) - Very popular",Restaurant,,,12/3/2019 11:34am,12/16/2019 1:18pm
184,Hamlet ,(Liquor) (Coconut Grove)  ,3416 Main Hwy. ,Miami,FL,"""(R) - Restaurant, usually serving dinner. A '*' after this symbol does not necessarily indicate quality of food served, but popularity of the place. "",(*) - Very popular",Restaurant,,,12/3/2019 11:39am,12/16/2019 1:18pm
188,Lion’s Den ,(Ladies brunch on Sundays*) (Use W. side entrance of Chez Vivian’s Restaurant) ,7140 S.W. 8th St. ,Miami,FL,"""(R) - Restaurant, usually serving dinner. A '*' after this symbol does not necessarily indicate quality of food served, but popularity of the place. "",(E) - Entertainment,(*) - Very popular",Restaurant,,,12/3/2019 11:41am,12/18/2019 12:36pm
209,"
  Garden Grate 
  ",(Same bldg. as Pin Up),323 23rd St.,Miami Beach,FL,"""(R) - Restaurant, usually serving dinner. A '*' after this symbol does not necessarily indicate quality of food served, but popularity of the place. "",""(G) - Girls/Ms, but seldom exclusively""",Restaurant,,,12/3/2019 11:45am,12/16/2019 1:19pm
212,"
  Niel’s 
  ",,1675 Alton Rd. ,Miami Beach,FL,"(M) - Mixed - Some Straights ,""(R) - Restaurant, usually serving dinner. A '*' after this symbol does not necessarily indicate quality of food served, but popularity of the place. "",""(C) - Coffee, soft drinks, juices and snacks"",(AH) - After Hours",Restaurant,,,12/3/2019 11:49am,12/16/2019 1:17pm
232,Ray Cranford’s ,,721 E. Gregory ,Pensacola,FL,"(M) - Mixed - Some Straights ,""(R) - Restaurant, usually serving dinner. A '*' after this symbol does not necessarily indicate quality of food served, but popularity of the place. "",""(C) - Coffee, soft drinks, juices and snacks"",(AH) - After Hours",Restaurant,,,12/3/2019 12:16pm,12/16/2019 1:17pm
256,Panhandle Mining Co. ,(2 bars) (Disco) ,1363 E. Laffayette ,Tallahassee,FL,"""(R) - Restaurant, usually serving dinner. A '*' after this symbol does not necessarily indicate quality of food served, but popularity of the place. "",(D) - Dancing,(*) - Very popular",Restaurant,,,12/3/2019 12:21pm,12/16/2019 1:19pm
250,Stinger’s ,(Snacks),2257 Ringling Blvd. ,Sarasota,FL,"""(R) - Restaurant, usually serving dinner. A '*' after this symbol does not necessarily indicate quality of food served, but popularity of the place. "",(*) - Very popular",Restaurant,,,12/3/2019 12:21pm,12/16/2019 1:18pm
263,Denny's ,,102 Parker ,Tampa,FL,"(M) - Mixed - Some Straights ,""(R) - Restaurant, usually serving dinner. A '*' after this symbol does not necessarily indicate quality of food served, but popularity of the place. "",""(C) - Coffee, soft drinks, juices and snacks"",(AH) - After Hours",Restaurant,,,12/3/2019 12:26pm,12/16/2019 1:17pm
288,Dunkin Donuts ,,Prince & Milledge ,Athens,GA,"(M) - Mixed - Some Straights ,""(R) - Restaurant, usually serving dinner. A '*' after this symbol does not necessarily indicate quality of food served, but popularity of the place. "",""(C) - Coffee, soft drinks, juices and snacks"",(AH) - After Hours",Restaurant,,,12/4/2019 6:46am,12/16/2019 1:17pm
304,Dunk & Dine ,,2305 Cheshire Bridge Rd. ,Atlanta,GA,"(M) - Mixed - Some Straights ,""(R) - Restaurant, usually serving dinner. A '*' after this symbol does not necessarily indicate quality of food served, but popularity of the place. """,Restaurant,,,12/4/2019 6:49am,12/16/2019 1:17pm
301,Cove ,(Game room & patio – good days – open Sundays*),586 Worchester Dr. N.E. ,Atlanta,GA,"""(R) - Restaurant, usually serving dinner. A '*' after this symbol does not necessarily indicate quality of food served, but popularity of the place. "",(*) - Very popular",Restaurant,,,12/4/2019 6:49am,12/18/2019 12:36pm
306,Encore ,"(This super complex includes several bars with (R) (E) in ‘Mendel’s Den’ upstairs & (YC) (Some B, G) (Disco) (D) at ‘Together’ downstairs – enter thru parking lot in rear) (nr. 6th & Juniper)  ",845 Peachtree St N.E.,Atlanta,GA,"(YC) - Young and/or collegiate types,(*) - Very popular,""(R) - Restaurant, usually serving dinner. A '*' after this symbol does not necessarily indicate quality of food served, but popularity of the place. "",(E) - Entertainment,(D) - Dancing,""(G) - Girls/Ms, but seldom exclusively"",(B) - Blacks frequent",Restaurant,,,12/4/2019 6:49am,12/18/2019 12:36pm
311,"
  Home plate 
  ",(Beer & wine) Also C - AH - WE)   ,567 Ponce de Leon Ave. N.E. ,Atlanta,GA,"(M) - Mixed - Some Straights ,""(G) - Girls/Ms, but seldom exclusively"",""(R) - Restaurant, usually serving dinner. A '*' after this symbol does not necessarily indicate quality of food served, but popularity of the place. "",""(C) - Coffee, soft drinks, juices and snacks"",(AH) - After Hours,(WE) - Weekends",Restaurant,,,12/4/2019 6:52am,12/18/2019 12:36pm
310,"
  Gene & Gabe’s 
  ",(Sundays from 4 p.m.) ,1578 Piedmont Rd. N.E. ,Atlanta,GA,"(M) - Mixed - Some Straights ,(PE) - Pretty elegant - jacket & tie may be required,""(R) - Restaurant, usually serving dinner. A '*' after this symbol does not necessarily indicate quality of food served, but popularity of the place. """,Restaurant,,,12/4/2019 6:52am,12/16/2019 1:17pm
315,Mary Mac’s Tea Room ,Peachtree Battle  Shopping Center ,224 Ponce de Leon Ave. N.E.  ,Atlanta,GA,"(M) - Mixed - Some Straights ,""(R) - Restaurant, usually serving dinner. A '*' after this symbol does not necessarily indicate quality of food served, but popularity of the place. """,Restaurant,,,12/4/2019 6:54am,12/16/2019 1:17pm
321,Peasant Uptown ,,3500 Peachtree Rd. N.E.,Atlanta,GA,"(M) - Mixed - Some Straights ,""(R) - Restaurant, usually serving dinner. A '*' after this symbol does not necessarily indicate quality of food served, but popularity of the place. """,Restaurant,,,12/4/2019 6:56am,12/16/2019 1:17pm
326,Shelleys’ Place ,(Disco) (Open Sundays*),1720 Peachtree Rd. N.E. ,Atlanta,GA,"(PE) - Pretty elegant - jacket & tie may be required,""(R) - Restaurant, usually serving dinner. A '*' after this symbol does not necessarily indicate quality of food served, but popularity of the place. "",(D) - Dancing,(*) - Very popular",Restaurant,,,12/4/2019 6:56am,12/18/2019 12:36pm
324,Prince George Inn ,(Open Sundays),114 6th St. N.E. ,Atlanta,GA,"(M) - Mixed - Some Straights ,""(R) - Restaurant, usually serving dinner. A '*' after this symbol does not necessarily indicate quality of food served, but popularity of the place. """,Restaurant,,,12/4/2019 6:56am,12/16/2019 1:17pm
322,Pleasant Peasant ,,555 Peachtree St. N.E. ,Atlanta,GA,"(M) - Mixed - Some Straights ,(PE) - Pretty elegant - jacket & tie may be required,""(R) - Restaurant, usually serving dinner. A '*' after this symbol does not necessarily indicate quality of food served, but popularity of the place. """,Restaurant,,,12/4/2019 6:56am,12/16/2019 1:17pm
353,Johnnie Ganem’s ,,501 Habersham ,Savannah,GA,"(M) - Mixed - Some Straights ,""(R) - Restaurant, usually serving dinner. A '*' after this symbol does not necessarily indicate quality of food served, but popularity of the place. """,Restaurant,,,12/4/2019 7:03am,12/16/2019 1:17pm
361,Bungalow ,(Some G),121 Mill St. ,Lexington,KY,"(M) - Mixed - Some Straights ,""(R) - Restaurant, usually serving dinner. A '*' after this symbol does not necessarily indicate quality of food served, but popularity of the place. "",(*) - Very popular,""(G) - Girls/Ms, but seldom exclusively""",Restaurant,,,12/4/2019 7:03am,12/18/2019 12:35pm
362,"
  Hospitality Inn 
  ",(Paris Pike) ,2143 N. Broadway ,Lexington,KY,"(M) - Mixed - Some Straights ,""(R) - Restaurant, usually serving dinner. A '*' after this symbol does not necessarily indicate quality of food served, but popularity of the place. "",""(C) - Coffee, soft drinks, juices and snacks"",(AH) - After Hours",Restaurant,,,12/4/2019 7:08am,12/16/2019 1:17pm
376,Windmill ,(Some B) ,912 E. Broadway ,Louisville,KY,"(M) - Mixed - Some Straights ,""(R) - Restaurant, usually serving dinner. A '*' after this symbol does not necessarily indicate quality of food served, but popularity of the place. "",""(C) - Coffee, soft drinks, juices and snacks"",(AH) - After Hours,(B) - Blacks frequent",Restaurant,,,12/4/2019 7:12am,12/18/2019 12:35pm
375,Steak ’n’ Eggs ,,1136 S. 4th St. ,Louisville,KY,"(M) - Mixed - Some Straights ,(RT) - 'Raunchy types' - downtown type places - often hustlers,""(R) - Restaurant, usually serving dinner. A '*' after this symbol does not necessarily indicate quality of food served, but popularity of the place. "",""(C) - Coffee, soft drinks, juices and snacks"",(AH) - After Hours",Restaurant,,,12/4/2019 7:12am,12/16/2019 1:17pm
385,Sambo’s,,Baton Rouge Hwy. 924  Jackson ,Alexandria,LA,"(M) - Mixed - Some Straights ,""(R) - Restaurant, usually serving dinner. A '*' after this symbol does not necessarily indicate quality of food served, but popularity of the place. "",""(C) - Coffee, soft drinks, juices and snacks"",(AH) - After Hours",Restaurant,,,12/4/2019 7:17am,12/16/2019 1:17pm
413,Brady’s ,(Some G) (Sundays best) (Closed 11 p.m. some nights) ,700 No. Rampart St. ,New Orleans,LA,"""(R) - Restaurant, usually serving dinner. A '*' after this symbol does not necessarily indicate quality of food served, but popularity of the place. "",""(G) - Girls/Ms, but seldom exclusively""",Restaurant,,,12/4/2019 8:02am,12/18/2019 12:35pm
418,Chopping Block ,(‘Hustlers’)  ,1017 Dumaine St. ,New Orleans,LA,"(M) - Mixed - Some Straights ,""(R) - Restaurant, usually serving dinner. A '*' after this symbol does not necessarily indicate quality of food served, but popularity of the place. """,Restaurant,,,12/4/2019 8:02am,12/16/2019 1:17pm
433,Ichabod’s ,(Looks promising) ,701 Bourbon St. ,New Orleans,LA,"(M) - Mixed - Some Straights ,""(R) - Restaurant, usually serving dinner. A '*' after this symbol does not necessarily indicate quality of food served, but popularity of the place. """,Restaurant,,,12/4/2019 8:04am,12/16/2019 1:17pm
424,Fatted Calf ,,727 St. Peter St.  ,New Orleans,LA,"(M) - Mixed - Some Straights ,""(R) - Restaurant, usually serving dinner. A '*' after this symbol does not necessarily indicate quality of food served, but popularity of the place. """,Restaurant,,,12/4/2019 8:04am,12/16/2019 1:17pm
435,"
  Jonathan’s 
  ",,714 No. Rampart St. ,New Orleans,LA,"(M) - Mixed - Some Straights ,(PE) - Pretty elegant - jacket & tie may be required,""(R) - Restaurant, usually serving dinner. A '*' after this symbol does not necessarily indicate quality of food served, but popularity of the place. """,Restaurant,,,12/4/2019 8:08am,12/16/2019 1:17pm
440,"
  Maxey’s Coffee Pot 
  ",,714 St. Peter St. ,New Orleans,LA,"(M) - Mixed - Some Straights ,""(R) - Restaurant, usually serving dinner. A '*' after this symbol does not necessarily indicate quality of food served, but popularity of the place. "",(*) - Very popular",Restaurant,,,12/4/2019 8:08am,12/16/2019 1:17pm
439,"
  Marti’s
  ",,1041 Dumaine St. ,New Orleans,LA,"(PE) - Pretty elegant - jacket & tie may be required,""(R) - Restaurant, usually serving dinner. A '*' after this symbol does not necessarily indicate quality of food served, but popularity of the place. "",(*) - Very popular",Restaurant,,,12/4/2019 8:08am,12/16/2019 1:18pm
436,"
  Lautrec
  ",,514 Toulouse ,New Orleans,LA,"(M) - Mixed - Some Straights ,(PE) - Pretty elegant - jacket & tie may be required,""(R) - Restaurant, usually serving dinner. A '*' after this symbol does not necessarily indicate quality of food served, but popularity of the place. """,Restaurant,,,12/4/2019 8:08am,12/16/2019 1:17pm
476,Little Grill ,Washington – Youree Hotel ,315 Travis St. ,Shreveport,LA,"(M) - Mixed - Some Straights ,""(R) - Restaurant, usually serving dinner. A '*' after this symbol does not necessarily indicate quality of food served, but popularity of the place. "",""(C) - Coffee, soft drinks, juices and snacks"",(AH) - After Hours","Restaurant,Hotels",,,12/4/2019 8:20am,12/18/2019 12:35pm
500,"
  Howard Johnsons 
  ",,190 Hendersonville Rd. ,Asheville,MS,"(M) - Mixed - Some Straights ,""(R) - Restaurant, usually serving dinner. A '*' after this symbol does not necessarily indicate quality of food served, but popularity of the place. "",""(C) - Coffee, soft drinks, juices and snacks"",(AH) - After Hours",Restaurant,,,12/5/2019 12:43pm,12/16/2019 1:17pm
510,Josh’s ,,224 East Blvd.  ,Charlotte,NC,"""(R) - Restaurant, usually serving dinner. A '*' after this symbol does not necessarily indicate quality of food served, but popularity of the place. "",(*) - Very popular",Restaurant,,,12/5/2019 12:48pm,12/16/2019 1:18pm
561,Love Inn ,,1668 Hwy. 171 ,Charleston,SC,"(M) - Mixed - Some Straights ,""(R) - Restaurant, usually serving dinner. A '*' after this symbol does not necessarily indicate quality of food served, but popularity of the place. "",""(C) - Coffee, soft drinks, juices and snacks"",(AH) - After Hours",Restaurant,,,12/5/2019 4:48pm,12/16/2019 1:17pm
583,Sambo’s ,,2500 Brainerd Rd. ,Chattanooga,TN,"(M) - Mixed - Some Straights ,""(R) - Restaurant, usually serving dinner. A '*' after this symbol does not necessarily indicate quality of food served, but popularity of the place. "",""(C) - Coffee, soft drinks, juices and snacks"",(AH) - After Hours",Restaurant,,,12/5/2019 4:55pm,12/16/2019 1:17pm
594,Long Branch Cafe ,,124 E. Market ,Johnson City,TN,"""(R) - Restaurant, usually serving dinner. A '*' after this symbol does not necessarily indicate quality of food served, but popularity of the place. "",(RT) - 'Raunchy types' - downtown type places - often hustlers,(WE) - Weekends",Restaurant,,,12/5/2019 5:00pm,12/16/2019 1:19pm
598,Carousel ,(Some G) (Disco) (2 floors) ,1501 White Ave. So. ,Knoxville,TN,"(*) - Very popular,(YC) - Young and/or collegiate types,(D) - Dancing,""(R) - Restaurant, usually serving dinner. A '*' after this symbol does not necessarily indicate quality of food served, but popularity of the place. "",(E) - Entertainment,(S) - Shows - impersonators or record pantomime acts - often touristy,""(G) - Girls/Ms, but seldom exclusively""",Restaurant,,,12/5/2019 5:00pm,12/18/2019 12:35pm
601,Jerry’s,,7811 Kingston Pike ,Knoxville,TN,"(M) - Mixed - Some Straights ,""(R) - Restaurant, usually serving dinner. A '*' after this symbol does not necessarily indicate quality of food served, but popularity of the place. "",""(C) - Coffee, soft drinks, juices and snacks"",(AH) - After Hours",Restaurant,,,12/5/2019 5:00pm,12/16/2019 1:17pm
619,Jungle Lounge ,"(Some G, RT) (Liquor – best late*) ",715 Commerce St.,Nashville,TN,"""(R) - Restaurant, usually serving dinner. A '*' after this symbol does not necessarily indicate quality of food served, but popularity of the place. "",""(G) - Girls/Ms, but seldom exclusively"",(RT) - 'Raunchy types' - downtown type places - often hustlers,(*) - Very popular",Restaurant,,,12/5/2019 5:13pm,12/18/2019 12:35pm
620,Malone’s ,,407 1st Ave. So.,Nashville,TN,"(M) - Mixed - Some Straights ,""(R) - Restaurant, usually serving dinner. A '*' after this symbol does not necessarily indicate quality of food served, but popularity of the place. "",""(C) - Coffee, soft drinks, juices and snacks"",(AH) - After Hours",Restaurant,,,12/5/2019 5:13pm,12/16/2019 1:17pm
635,Copper Skillet ,,3400 North ,Austin,TX,"(M) - Mixed - Some Straights ,""(R) - Restaurant, usually serving dinner. A '*' after this symbol does not necessarily indicate quality of food served, but popularity of the place. "",""(C) - Coffee, soft drinks, juices and snacks"",(AH) - After Hours",Restaurant,,,12/5/2019 5:17pm,12/16/2019 1:17pm
687,Steak ’n’ Eggs,"(some B, RT)  ",3849 Cedar Springs ,Dallas,TX,"(M) - Mixed - Some Straights ,""(R) - Restaurant, usually serving dinner. A '*' after this symbol does not necessarily indicate quality of food served, but popularity of the place. "",""(C) - Coffee, soft drinks, juices and snacks"",(B) - Blacks frequent,(RT) - 'Raunchy types' - downtown type places - often hustlers",Restaurant,,,12/5/2019 6:00pm,12/18/2019 12:32pm
678,Lucas B & B,,3520 Oak Lawn ,Dallas,TX,"(M) - Mixed - Some Straights ,""(R) - Restaurant, usually serving dinner. A '*' after this symbol does not necessarily indicate quality of food served, but popularity of the place. "",""(C) - Coffee, soft drinks, juices and snacks"",(AH) - After Hours",Restaurant,,,12/5/2019 6:00pm,12/16/2019 1:17pm
690,Tabby’s,,4832 Gaston ,Dallas,TX,"""(R) - Restaurant, usually serving dinner. A '*' after this symbol does not necessarily indicate quality of food served, but popularity of the place. """,Restaurant,,,12/5/2019 6:05pm,12/16/2019 1:18pm
716,Aub’s ,(S-WE*) ,1308 St. Louis St.,Ft. Worth,TX,"""(R) - Restaurant, usually serving dinner. A '*' after this symbol does not necessarily indicate quality of food served, but popularity of the place. "",(S) - Shows - impersonators or record pantomime acts - often touristy,(WE) - Weekends,(*) - Very popular",Restaurant,,,12/5/2019 6:09pm,12/18/2019 12:32pm
742,Auntie Mame ,(Deli) Open AH & lunches)  ,2278 W. Holcombe ,Houston,TX,"""(R) - Restaurant, usually serving dinner. A '*' after this symbol does not necessarily indicate quality of food served, but popularity of the place. "",(AH) - After Hours",Restaurant,,,12/5/2019 6:22pm,12/18/2019 12:31pm
735,Robert’s Lafitte,,409 Rosenberg ,Galveston,TX,"(S) - Shows - impersonators or record pantomime acts - often touristy,(D) - Dancing,""(R) - Restaurant, usually serving dinner. A '*' after this symbol does not necessarily indicate quality of food served, but popularity of the place. "",(*) - Very popular",Restaurant,,,12/5/2019 6:22pm,12/16/2019 1:19pm
760,"
  Harrigan’s 
  ",(Very M) ,"
  2202 Kirby 
  ",Houston,TX,"(PE) - Pretty elegant - jacket & tie may be required,""(R) - Restaurant, usually serving dinner. A '*' after this symbol does not necessarily indicate quality of food served, but popularity of the place. "",(M) - Mixed - Some Straights ",Restaurant,,,12/5/2019 6:30pm,12/18/2019 12:31pm
779,Mug ,,515 Alabama,Houston,TX,"""(R) - Restaurant, usually serving dinner. A '*' after this symbol does not necessarily indicate quality of food served, but popularity of the place. """,Restaurant,,,12/5/2019 6:37pm,12/16/2019 1:18pm
793,Uncle Charlie’s Eatery ,"(Disco, but NO dancing) ",805 Pacific ,Houston,TX,"""(R) - Restaurant, usually serving dinner. A '*' after this symbol does not necessarily indicate quality of food served, but popularity of the place. "",(*) - Very popular",Restaurant,,,12/6/2019 10:55am,12/16/2019 1:18pm
818,Earl Abel’s ,,4200 Broadway ,San Antonio,TX,"(M) - Mixed - Some Straights ,""(R) - Restaurant, usually serving dinner. A '*' after this symbol does not necessarily indicate quality of food served, but popularity of the place. "",""(C) - Coffee, soft drinks, juices and snacks"",(AH) - After Hours",Restaurant,,,12/6/2019 11:42am,12/16/2019 1:17pm
843,Steak ’n’ Eggs ,,1707 Washington Ave. ,Waco,TX,"(M) - Mixed - Some Straights ,""(R) - Restaurant, usually serving dinner. A '*' after this symbol does not necessarily indicate quality of food served, but popularity of the place. "",""(C) - Coffee, soft drinks, juices and snacks"",(AH) - After Hours",Restaurant,,,12/6/2019 11:45am,12/16/2019 1:17pm
852,Steve’s ,,"
  2700 Jefferson Davis
  Hwy. 
  ",Alexandria,VA,"(M) - Mixed - Some Straights ,""(R) - Restaurant, usually serving dinner. A '*' after this symbol does not necessarily indicate quality of food served, but popularity of the place. "",""(C) - Coffee, soft drinks, juices and snacks"",(AH) - After Hours",Restaurant,,,12/6/2019 11:50am,12/16/2019 1:17pm
859,Nickelodeon ,,118 W. City Hall Ave. ,Norfolk,VA,"""(R) - Restaurant, usually serving dinner. A '*' after this symbol does not necessarily indicate quality of food served, but popularity of the place. "",(YC) - Young and/or collegiate types,(PT) - Pool Table",Restaurant,,,12/6/2019 11:54am,12/16/2019 1:19pm
857,Cue ,(Some G) (Disco) ,4601 Killiam ,Norfolk,VA,"(YC) - Young and/or collegiate types,(D) - Dancing,""(R) - Restaurant, usually serving dinner. A '*' after this symbol does not necessarily indicate quality of food served, but popularity of the place. "",(PT) - Pool Table,(*) - Very popular,""(G) - Girls/Ms, but seldom exclusively""",Restaurant,,,12/6/2019 11:54am,12/18/2019 12:31pm
875,Last Straw ,,9 W. Salem Ave. ,Roanoke,VA,"""(R) - Restaurant, usually serving dinner. A '*' after this symbol does not necessarily indicate quality of food served, but popularity of the place. "",(*) - Very popular",Restaurant,,,12/6/2019 12:01pm,12/16/2019 1:18pm
459,Wanda’s ,,704 Iberville,New Orleans,LA,"(*) - Very popular,""(R) - Restaurant, usually serving dinner. A '*' after this symbol does not necessarily indicate quality of food served, but popularity of the place. ""","Restaurant,Bars/Clubs",,,12/4/2019 8:13am,12/16/2019 2:02pm
308,"
  Gallus
  ",(Downstairs cruise bar side entrance – ‘fun’ Sundays – serves brunch)  ,49 6th St. N.E.  ,Atlanta,GA,"(M) - Mixed - Some Straights ,(PE) - Pretty elegant - jacket & tie may be required,""(R) - Restaurant, usually serving dinner. A '*' after this symbol does not necessarily indicate quality of food served, but popularity of the place. "",(*) - Very popular","Restaurant,Bars/Clubs,Cruising Areas",,,12/4/2019 6:52am,12/16/2019 1:26pm
443,"
  Mr. Perky’s
  Pancake House 
  ",(Late) Downtowner Motor Inn,541 Bourbon St. ,New Orleans,LA,"(M) - Mixed - Some Straights ,""(R) - Restaurant, usually serving dinner. A '*' after this symbol does not necessarily indicate quality of food served, but popularity of the place. ""","Restaurant,Hotels",,,12/4/2019 8:08am,12/16/2019 1:26pm
14,Tomkat Adult Theatre,,9221 Todd Dr. ,Birmingham,AL,,Theatre,,,11/23/2019 1:19am,11/23/2019 1:32am
90,Continental Male Theatre ,,3551 W. Broward ,Ft. Lauderdale,FL,,Theatre,,,12/3/2019 11:03am,12/16/2019 2:07pm
210,"
  Kitty Kat Theater  
  ",,7770 Biscayne Blvd.,Miami Beach,FL,,Theatre,,,12/3/2019 11:45am,12/16/2019 2:08pm
309,"
  Gay Paree Cinema
  ",,90 Walton St. ,Atlanta,GA,,Theatre,,,12/4/2019 6:52am,12/16/2019 2:00pm
451,Ramrod Theatre ,,914 Decatur St.,New Orleans,LA,,Theatre,,,12/4/2019 8:12am,12/16/2019 2:02pm
508,French Art Cinema ,,3511 Wilkinson Blvd. ,Charlotte,NC,,Theatre,,,12/5/2019 12:48pm,12/16/2019 2:03pm
516,Upstairs Cinema ,,2209 S. Blvd ,Charlotte,NC,(M) - Mixed - Some Straights ,Theatre,,,12/5/2019 12:48pm,12/16/2019 1:28pm
581,Classic Cinema ,,3818 Brainerd Rd. ,Chattanooga,TN,,Theatre,,,12/5/2019 4:55pm,12/16/2019 2:03pm
675,Hayloft Theatre ,,4100 Maple ,Dallas,TX,,Theatre,,,12/5/2019 6:00pm,12/16/2019 2:05pm
446,"
  Old Chelsea Theatre
  
  ",(Cruisy & much ‘action’) ,829 Camp St. ,New Orleans,LA,,"Theatre,Cruising Areas",,,12/4/2019 8:08am,12/16/2019 3:08pm
265,Kennedy Book Nook ,,1729 W. Kennedy Blvd. ,Tampa,FL,,"5.,Book Store",,,12/3/2019 12:26pm,12/16/2019 2:58pm