ID,title,description,streetaddress,city,state,amenityfeatures,type,unclearaddress,notes,dateadded,lastmodified
4,Darvo's,(Very M) (Disco) (Could 'pick up'),167 S. Gay St.,Auburn,AL,"(M) - Mixed Crowds - Some Straights,(YC) - Young and/or collegiate types,(D) - Dancing",Bars/Clubs,,,9/9/2019 2:38pm,9/9/2019 2:53pm
6,Haley Center,"(4th floor T-Room) & Stanford Park nr. Langton Hall (Auburn Univ)
",,Auburn,AL,Cruisy Area,Cruising Areas,,,9/9/2019 2:38pm,9/9/2019 2:55pm
7,Bell Watling's,"(Disco) (2 bars)
",607 N. 21st St.,Birmingham,AL,"(*) - Very popular,(YC) - Young and/or collegiate types,(D) - Dancing,(S) - Shows - impersonators or record pantomime acts - often touristy",Bars/Clubs,,,9/9/2019 2:38pm,9/9/2019 2:56pm
8,Birmingham Adult Books & Cinema,,7610 1st Ave. N.,Birmingham,AL,(M) - Mixed Crowds - Some Straights,"Book Store,Theatre",,,9/9/2019 2:38pm,9/9/2019 2:56pm
9,Focus Phase II,(Many L) (Disco) (Popular on weekends),117 N. 21st St.,Birmingham,AL,"""(L) - Ladies/Ms, but seldom exclusively unless noted"",(S) - Shows - impersonators or record pantomime acts - often touristy,(W) - Western or coyboy types,(*) - Very popular,(AYOR) -  At Your Own Risk - Dangerous - Usually Fuzz",Bars/Clubs,,,9/9/2019 2:38pm,9/9/2019 2:57pm
10,Gizmo ,"Popular After hours
",909 S. 22nd St.,Birmingham,AL,"(P) - Private club - Inquire locally to admission,(M) - Mixed Crowds - Some Straights,(OC) - Older/More Mature Crowd,(D) - Dancing,(WE) = Weekends,(AH) - After Hours,(*) - Very popular",Bars/Clubs,,,9/9/2019 2:38pm,9/9/2019 2:59pm
11,Lighthouse,"(Disco)
",1909 1st Ave. S. ,Birmingham,AL,"(YC) - Young and/or collegiate types,(D) - Dancing,(*) - Very popular",Bars/Clubs,,,9/9/2019 2:38pm,9/9/2019 2:59pm
14,Steak 'n' Eggs,,1717 10th Ave. S.,Birmingham,AL,"(M) - Mixed Crowds - Some Straights,""(R) - Restaurant, usually serving dinner. A '*' after this symbol does not necessarily indicate quality of food served, but popularity of the place. "",""(C) - Coffee, soft drinks and sometimes snacks"",(AH) - After Hours",Restaurant,,,9/9/2019 2:38pm,9/9/2019 3:00pm
23,Pitt Grill,"(Late)
",400 E. Tennessee,Florence,AL,"(M) - Mixed Crowds - Some Straights,""(R) - Restaurant, usually serving dinner. A '*' after this symbol does not necessarily indicate quality of food served, but popularity of the place. "",""(C) - Coffee, soft drinks and sometimes snacks""",Restaurant,,,9/9/2019 2:38pm,9/9/2019 3:04pm
26,Hideaway,(Some L) (Disco),2011 Cox Ave.,Huntsville,AL,"(YC) - Young and/or collegiate types,(D) - Dancing,""(L) - Ladies/Ms, but seldom exclusively unless noted"",(*) - Very popular",Bars/Clubs,,,9/9/2019 2:38pm,9/11/2019 9:15am
27,J.B.'s Yumm Yumm Tree,(Disco) (Some L) (Next to Catalina Motel),5099 Governors Dr.,Huntsville,AL,"(*) - Very popular,(YC) - Young and/or collegiate types,(D) - Dancing,""(L) - Ladies/Ms, but seldom exclusively unless noted""",Bars/Clubs,,,9/9/2019 2:38pm,9/11/2019 9:15am
34,Crews Pub,(Cruisy),301 St. Francis,Mobile,AL,"(P) - Private club - Inquire locally to admission,(PT) - Pool Table,(*) - Very popular","Bars/Clubs,Cruising Areas",,,9/9/2019 2:38pm,9/15/2019 10:02pm
35,Fireside,(Cruisy),54 S. Conception,Mobile,AL,"(*) - Very popular,(D) - Dancing","Bars/Clubs,Cruising Areas",,,9/9/2019 2:38pm,9/15/2019 10:02pm
36,French Quarter,(Some L) (Disco),215 Conti St.,Mobile,AL,"(*) - Very popular,(YC) - Young and/or collegiate types,(D) - Dancing,(S) - Shows - impersonators or record pantomime acts - often touristy,""(L) - Ladies/Ms, but seldom exclusively unless noted""",Bars/Clubs,,,9/9/2019 2:38pm,9/11/2019 12:26pm
37,Society Lounge,"(Disco) (Many L, B)",53 Conception,Mobile,AL,"(D) - Dancing,(S) - Shows - impersonators or record pantomime acts - often touristy,""(L) - Ladies/Ms, but seldom exclusively unless noted"",(B) - Blacks frequent",Bars/Clubs,,,9/9/2019 2:38pm,9/11/2019 12:26pm
42,Ce-Ray's Corral,(Disco) (Adm),2015 Federal Dr.,Montgomery,AL,"(P) - Private club - Inquire locally to admission,(M) - Mixed Crowds - Some Straights,(YC) - Young and/or collegiate types,(D) - Dancing,(S) - Shows - impersonators or record pantomime acts - often touristy,(PT) - Pool Table,(*) - Very popular",Bars/Clubs,,,9/9/2019 2:38pm,9/11/2019 12:40pm
43,Dexter Pub,,207 Dexter Ave.,Montgomery,AL,"(D) - Dancing,(OC) - Older/More Mature Crowd",Bars/Clubs,,,9/9/2019 2:38pm,9/11/2019 12:40pm
44,Forum Books,"(peep shows - 'flicks')
",19 S. Lawrence St.,Montgomery,AL,(*) - Very popular,Book Store,,,9/9/2019 2:38pm,9/11/2019 12:29pm
48,Omelet Shop,,107 Columbus Parkway,Opelika,AL,"Cruisy Area,(M) - Mixed Crowds - Some Straights,""(R) - Restaurant, usually serving dinner. A '*' after this symbol does not necessarily indicate quality of food served, but popularity of the place. "",""(C) - Coffee, soft drinks and sometimes snacks"",(AH) - After Hours,(AYOR) -  At Your Own Risk - Dangerous - Usually Fuzz","Cruising Areas,Restaurant",,,9/9/2019 2:38pm,9/11/2019 12:31pm
50,Consolidated Mine Co. ,Holiday Inn. (Disco),3170 Victory Dr.,Phenix City,AL,"(M) - Mixed Crowds - Some Straights,(D) - Dancing","Bars/Clubs,Hotels",,,9/9/2019 2:38pm,9/11/2019 12:35pm
51,Chucker's ,,2121 6th St.,Tuscaloosa,AL,"(YC) - Young and/or collegiate types,(D) - Dancing,(*) - Very popular",Bars/Clubs,,,9/9/2019 2:38pm,9/11/2019 12:44pm
53,Silver Dollar Bar,,2311 7th St.,Tuscaloosa,AL,(M) - Mixed Crowds - Some Straights,Bars/Clubs,,,9/9/2019 2:38pm,9/11/2019 12:44pm
59,Log Cabin Inn & Country Store,,42 Kings Highway,Eureka Springs,AR,"(M) - Mixed Crowds - Some Straights,""(H) - Hotel, motel, or other overnight accomodations"",""(R) - Restaurant, usually serving dinner. A '*' after this symbol does not necessarily indicate quality of food served, but popularity of the place. ""","Restaurant,Hotels",,,9/9/2019 2:38pm,9/13/2019 9:21am
60,George's Majestic,,519 W. Dickson,Fayetteville,AR,"(OC) - Older/More Mature Crowd,(M) - Mixed Crowds - Some Straights",Bars/Clubs,,,9/9/2019 2:38pm,9/13/2019 9:27am
61,R.D.'s Disco,(Disco) (Show Address Book for Admission) (Rear),325 W. Dickson,Fayetteville,AR,"(P) - Private club - Inquire locally to admission,(YC) - Young and/or collegiate types,(D) - Dancing,(*) - Very popular",Bars/Clubs,,,9/9/2019 2:38pm,9/13/2019 9:27am
62,Ruby's Begonia's,,216 W. Dickson St.,Fayetteville,AR,"(P) - Private club - Inquire locally to admission,(M) - Mixed Crowds - Some Straights,(YC) - Young and/or collegiate types,""(R) - Restaurant, usually serving dinner. A '*' after this symbol does not necessarily indicate quality of food served, but popularity of the place. """,Restaurant,,,9/9/2019 2:38pm,9/13/2019 9:22am
64,Macho's,(Disco) (Some L),634 Division,Ft. Smith,AR,"(M) - Mixed Crowds - Some Straights,(YC) - Young and/or collegiate types,(D) - Dancing,""(L) - Ladies/Ms, but seldom exclusively unless noted"",(*) - Very popular",Bars/Clubs,,,9/9/2019 2:38pm,9/13/2019 9:27am
65,Rafter's,(Formerly Bonnie's Showbar) (Disco) (Some L),3028 N. 6th St.,Ft. Smith,AR,"(*) - Very popular,(YC) - Young and/or collegiate types,""(L) - Ladies/Ms, but seldom exclusively unless noted""",Bars/Clubs,,,9/9/2019 2:38pm,9/13/2019 9:27am
69,Norma Kristie's,(Some L),220 Central Ave.,Hot Springs,AR,"(*) - Very popular,(D) - Dancing,(S) - Shows - impersonators or record pantomime acts - often touristy,""(R) - Restaurant, usually serving dinner. A '*' after this symbol does not necessarily indicate quality of food served, but popularity of the place. "",""(L) - Ladies/Ms, but seldom exclusively unless noted""",Restaurant,,,9/9/2019 2:38pm,9/13/2019 9:24am
72,Discovery,"(Disco)
",6323 Asher,Little Rock,AR,"(YC) - Young and/or collegiate types,""(R) - Restaurant, usually serving dinner. A '*' after this symbol does not necessarily indicate quality of food served, but popularity of the place. "",(S) - Shows - impersonators or record pantomime acts - often touristy,(D) - Dancing,(*) - Very popular",Restaurant,,,9/9/2019 2:38pm,9/13/2019 9:25am
73,French Quarter,(unisex),113 S. Main,Little Rock,AR,(D) - Dancing,Bars/Clubs,,,9/9/2019 2:38pm,9/13/2019 9:27am
80,Movie Arcade,(Peep shows),3500 Asher,Little Rock,AR,Cruisy Area,Cruising Areas,,,9/9/2019 2:38pm,9/13/2019 9:26am
83,In Town Lounge,,103 S. Garden Ave.,Clearwater,FL,"(M) - Mixed Crowds - Some Straights,(D) - Dancing,(OC) - Older/More Mature Crowd",Bars/Clubs,,,9/9/2019 2:38pm,9/13/2019 9:41am
84,Pro Shop,(Some L),840 Cleveland,Clearwater,FL,"""(L) - Ladies/Ms, but seldom exclusively unless noted"",(PT) - Pool Table,(D) - Dancing",Bars/Clubs,,,9/9/2019 2:38pm,9/13/2019 9:41am
86,Evening Edition,(Disco) (Game Room) (Closes 2am weekdays & 4am WE) Bayview Shopping Plaza,5675 N. Atlantic,Cocoa Beach,FL,"(D) - Dancing,(PT) - Pool Table",Bars/Clubs,,,9/9/2019 2:38pm,9/13/2019 9:41am
88,Beach Side,,415 Main St,Daytona Beach,FL,"(PT) - Pool Table,(OC) - Older/More Mature Crowd",Bars/Clubs,,,9/9/2019 2:38pm,9/13/2019 9:41am
89,Cobb's Corner,,1650 Ridegwood,Daytona Beach,FL,"(M) - Mixed Crowds - Some Straights,""(R) - Restaurant, usually serving dinner. A '*' after this symbol does not necessarily indicate quality of food served, but popularity of the place. """,Restaurant,,,9/9/2019 2:38pm,9/13/2019 9:36am
90,Danish Book World,,120 Orange Ave,Daytona Beach,FL,(M) - Mixed Crowds - Some Straights,Book Store,,,9/9/2019 2:38pm,9/13/2019 9:36am
92,Inferno,"(Disco). 1 block north of Main, 3 blocks West of Atlantic
",28 N. Grandview,Daytona Beach,FL,"(*) - Very popular,(D) - Dancing,(YC) - Young and/or collegiate types",Bars/Clubs,,,9/9/2019 2:38pm,9/13/2019 9:41am
93,Jimmy's Emporium,,607 Main St.,Daytona Beach,FL,"""(R) - Restaurant, usually serving dinner. A '*' after this symbol does not necessarily indicate quality of food served, but popularity of the place. """,Restaurant,,,9/9/2019 2:38pm,9/13/2019 9:37am
94,Landmark,(Some W) (Cruisy) (Game room) (H-upstairs) (3-3-79: new managment has blown it. They also refuse to pay me for '79 books),615 Main St.,Daytona Beach,FL,"(W) - Western or coyboy types,""(SM) - Some motorcycle. Don't confuse with 'M-S,' which means mixed crowds - shows. "",""(H) - Hotel, motel, or other overnight accomodations""","Hotels,Bars/Clubs,Cruising Areas",,,9/9/2019 2:38pm,9/15/2019 10:03pm
95,Nutt Inn,('Mixed bag') Opposite Inferno,20 Fern Lane,Daytona Beach,FL,,Bars/Clubs,,,9/9/2019 2:38pm,9/13/2019 9:41am
96,Whitehall Inn,,640 N. Atlantic Ave,Daytona Beach,FL,"(M) - Mixed Crowds - Some Straights,""(H) - Hotel, motel, or other overnight accomodations""","Hotels,Bars/Clubs",,,9/9/2019 2:38pm,9/13/2019 9:40am
97,Zodiac Lounge,(Disco) (Some L) (S. Daytona Beach),1654 S. Ridgewood ,Daytona Beach,FL,"(YC) - Young and/or collegiate types,(*) - Very popular,(D) - Dancing,""(L) - Ladies/Ms, but seldom exclusively unless noted"",(S) - Shows - impersonators or record pantomime acts - often touristy",Bars/Clubs,,,9/9/2019 2:38pm,9/13/2019 9:41am
99,A Adult Book Store,(Back Room) (Beware: they have ripped me off twice 1-5-79) ,1915 S. Federal Hwy.,Ft. Lauderdale,FL,,Bars/Clubs,,,9/9/2019 2:38pm,9/13/2019 12:23pm
100,Ambiance,(Oakland Park),1000 N.E. 45th Ct.,Ft. Lauderdale,FL,"""(R) - Restaurant, usually serving dinner. A '*' after this symbol does not necessarily indicate quality of food served, but popularity of the place. """,Restaurant,,,9/9/2019 2:38pm,9/13/2019 12:23pm
101,Bela-Mar Apt.-Motel,(Ft. Lauderdale Beach),3801 N. Ocean Blvd.,Ft. Lauderdale,FL,"""(H) - Hotel, motel, or other overnight accomodations"",(M) - Mixed Crowds - Some Straights",Hotels,,,9/9/2019 2:38pm,9/13/2019 12:24pm
102,Blue Atlantic,,2901 Rio Mar St.,Ft. Lauderdale,FL,"(M) - Mixed Crowds - Some Straights,""(H) - Hotel, motel, or other overnight accomodations""",Hotels,,,9/9/2019 2:38pm,9/13/2019 12:24pm
103,CBC Ft. Lauderdale,(Baths),3271 W. Broward Blvd.,Ft. Lauderdale,FL,(YC) - Young and/or collegiate types,Baths,,,9/9/2019 2:38pm,9/13/2019 12:24pm
104,Centennial Male Theatre,,3551 W. Broward,Ft. Lauderdale,FL,,Theatre,,,9/9/2019 2:38pm,9/13/2019 12:25pm
105,Chick'n Lick'n,,1313 E. Las Olas Blvd.,Ft. Lauderdale,FL,"(M) - Mixed Crowds - Some Straights,""(R) - Restaurant, usually serving dinner. A '*' after this symbol does not necessarily indicate quality of food served, but popularity of the place. """,Restaurant,,,9/9/2019 2:38pm,9/13/2019 12:25pm
106,Club House,(Baths) (Dull),2650 E. Oakand Park Blvd.,Ft. Lauderdale,FL,,Baths,,,9/9/2019 2:38pm,9/13/2019 12:25pm
107,Copa,(Disco) (Liquor) (Open until 5 am) (3 bars- the Pits in back-(PT))(Some W) & Wiz Boutique near front door,624 S.E. 28th St. ,Ft. Lauderdale,FL,"(*) - Very popular,(YC) - Young and/or collegiate types,(D) - Dancing,(PT) - Pool Table,(W) - Western or coyboy types",Bars/Clubs,,,9/9/2019 2:38pm,9/13/2019 12:29pm
109,Encore Theatre,,211 S.W. 2nd St.,Ft. Lauderdale,FL,,Theatre,,,9/9/2019 2:38pm,9/13/2019 12:28pm
110,Everglades,(Cruisy) (Hot dogs),1931 S.E. 6th Ave.,Ft. Lauderdale,FL,"(W) - Western or coyboy types,(*) - Very popular,(PT) - Pool Table","Bars/Clubs,Cruising Areas",,,9/9/2019 2:38pm,9/15/2019 10:03pm
111,Galt Riviera Motel,,3811 N. Ocean Blvd. ,Ft. Lauderdale,FL,"""(H) - Hotel, motel, or other overnight accomodations""",Hotels,,,9/9/2019 2:38pm,9/13/2019 12:29pm
112,Grenell Arms,(Dirty & scruffy),2926 Cortez,Ft. Lauderdale,FL,"""(H) - Hotel, motel, or other overnight accomodations""",Hotels,,,9/9/2019 2:38pm,9/13/2019 1:02pm
113,Grotto,(Looking up),1914 E. Oakland,Ft. Lauderdale,FL,"(W) - Western or coyboy types,""(SM) - Some motorcycle. Don't confuse with 'M-S,' which means mixed crowds - shows. """,Bars/Clubs,,,9/9/2019 2:38pm,9/13/2019 12:30pm
114,Gym Health Club,(Club Lauderdale) (Baths),901 S.W. 27th Ave.,Ft. Lauderdale,FL,"(*) - Very popular,(P) - Private club - Inquire locally to admission",Baths,,,9/9/2019 2:38pm,9/13/2019 12:31pm
115,Helen's Hole,(Bar adj. Gym Club Lauderdale Baths),901 S.W. 27th Ave.,Ft. Lauderdale,FL,(P) - Private club - Inquire locally to admission,Bars/Clubs,,"since note says its next baths, I copied same address",9/9/2019 2:38pm,9/13/2019 12:32pm
116,Highway News,(Books),2223 S. Federal Hwy.,Ft. Lauderdale,FL,,Book Store,,,9/9/2019 2:38pm,9/13/2019 12:32pm
117,Junque Store,"(Books, etc.)",455 N.E. 16th Ave.,Ft. Lauderdale,FL,,Book Store,,,9/9/2019 2:38pm,9/13/2019 12:34pm
118,Lefty's,(Cruisy) (Liquor),710 N. Federal Hwy.,Ft. Lauderdale,FL,"(YC) - Young and/or collegiate types,(*) - Very popular","Bars/Clubs,Cruising Areas",,,9/9/2019 2:38pm,9/15/2019 10:03pm
119,M.C.C.,,1127 S.W. 2nd Ct.,Ft. Lauderdale,FL,,Church,,,9/9/2019 2:38pm,9/13/2019 12:34pm
120,Marlin Beach,"(Swimpool & bar)
",17 S. Atlantic Blvd.,Ft. Lauderdale,FL,"(*) - Very popular,""(H) - Hotel, motel, or other overnight accomodations""",Hotels,,,9/9/2019 2:38pm,9/13/2019 12:54pm
121,Oasis Motel,"(Sauna & hot tub)
",1200 S. Miami Rd.,Ft. Lauderdale,FL,"""(H) - Hotel, motel, or other overnight accomodations""",Hotels,,,9/9/2019 2:38pm,9/13/2019 12:55pm
122,Odds & Ends,(Many L),3148 N.E. 12th Ave.,Ft. Lauderdale,FL,"(*) - Very popular,""(L) - Ladies/Ms, but seldom exclusively unless noted""",Bars/Clubs,,,9/9/2019 2:38pm,9/13/2019 12:56pm
123,Pipeline,(Guest house),400 N.E. 2nd St.,Ft. Lauderdale,FL,"""(H) - Hotel, motel, or other overnight accomodations""",Hotels,,,9/9/2019 2:38pm,9/13/2019 12:56pm
124,Poop Deck,(Disco) (Afternoon 'tea dance') (Liquor) Marlin Beach Hotel (Ft. Lauderdale Beach),17 S. Atlantic Blvd.,Ft. Lauderdale,FL,"(YC) - Young and/or collegiate types,(D) - Dancing,""(R) - Restaurant, usually serving dinner. A '*' after this symbol does not necessarily indicate quality of food served, but popularity of the place. "",(S) - Shows - impersonators or record pantomime acts - often touristy,(E) - Entertainment,(*) - Very popular","Restaurant,Bars/Clubs,Hotels",,,9/9/2019 2:38pm,12/18/2019 3:55pm
125,Premier Motel,,3110 Belmar,Ft. Lauderdale,FL,"""(H) - Hotel, motel, or other overnight accomodations""",Hotels,,,9/9/2019 2:38pm,9/13/2019 1:00pm
126,Saloon,(Thursday Arcade),219 S.W. 1st Ave.,Ft. Lauderdale,FL,(OC) - Older/More Mature Crowd,Bars/Clubs,,,9/9/2019 2:38pm,9/13/2019 1:01pm
127,Sandpiper,,2135 w. Davie Blvd.,Ft. Lauderdale,FL,"(*) - Very popular,""(R) - Restaurant, usually serving dinner. A '*' after this symbol does not necessarily indicate quality of food served, but popularity of the place. "",(E) - Entertainment",Restaurant,,,9/9/2019 2:38pm,9/13/2019 1:00pm
128,S.I.R. Apts,,705 S.E. 2nd St.,Ft. Lauderdale,FL,"""(H) - Hotel, motel, or other overnight accomodations""",Hotels,,,9/9/2019 2:38pm,9/13/2019 1:01pm
129,Tacky's,(Levi & W) (Sunday Brunch) (Open until 4am),2509 W. Broward,Ft. Lauderdale,FL,"(W) - Western or coyboy types,(PT) - Pool Table",Bars/Clubs,,,9/9/2019 2:38pm,9/13/2019 1:01pm
130,13 Buttons,(DIsco),1440 S.E. 17th St. Causeway,Ft. Lauderdale,FL,"(P) - Private club - Inquire locally to admission,(YC) - Young and/or collegiate types,(D) - Dancing,(*) - Very popular",Bars/Clubs,,,9/9/2019 2:38pm,9/14/2019 6:55pm
131,Tony's Villa,(Italian Restaurant),2468 Wilton Manor Rd.,Ft. Lauderdale,FL,"(M) - Mixed Crowds - Some Straights,""(R) - Restaurant, usually serving dinner. A '*' after this symbol does not necessarily indicate quality of food served, but popularity of the place. """,Restaurant,,,9/9/2019 2:38pm,9/14/2019 6:44pm
132,Tunnel Bar,('Mixed bag'),545 S. Federal Hwy.,Ft. Lauderdale,FL,(PT) - Pool Table,Bars/Clubs,,,9/9/2019 2:38pm,9/14/2019 6:45pm
133,Vel's Anchor House,(Looks promising) (Sunrise),6096 W. Oakland Pk. Blvd,Ft. Lauderdale,FL,"""(R) - Restaurant, usually serving dinner. A '*' after this symbol does not necessarily indicate quality of food served, but popularity of the place. """,Restaurant,,,9/9/2019 2:38pm,9/14/2019 6:45pm
134,Victoria Park,,900 N.E. 20th Ave.,Ft. Lauderdale,FL,"(M) - Mixed Crowds - Some Straights,""(R) - Restaurant, usually serving dinner. A '*' after this symbol does not necessarily indicate quality of food served, but popularity of the place. ""","Restaurant,Bars/Clubs",,,9/9/2019 2:38pm,9/14/2019 6:55pm
135,Waynesart ,(Unique statues- see ad for brochure) (305-463-1666),900 Andrews Ave.,Ft. Lauderdale,FL,,"Restaurant,Bars/Clubs",,,9/9/2019 2:38pm,9/14/2019 6:55pm
136,Zelda's,(DIsco) (Snacks) (Weekends popular),4050 N.W. 9th Ave.,Ft. Lauderdale,FL,"(YC) - Young and/or collegiate types,(D) - Dancing,(E) - Entertainment,(PT) - Pool Table,(WE) = Weekends,(*) - Very popular","Restaurant,Bars/Clubs",,,9/9/2019 2:38pm,9/14/2019 6:55pm
140,Blarney Stone,(Some L),2891 Palm Blvd. Blvd.,Ft. Myers,FL,"""(L) - Ladies/Ms, but seldom exclusively unless noted""",Bars/Clubs,,,9/9/2019 2:38pm,9/14/2019 6:55pm
141,Bradford Hotel Lounge,,2255 S. 1st St.,Ft. Myers,FL,(M) - Mixed Crowds - Some Straights,"Hotels,Bars/Clubs",,,9/9/2019 2:38pm,9/14/2019 6:52pm
142,Cara Mia,(DIsco),5306 S. Cleveland,Ft. Myers,FL,"(M) - Mixed Crowds - Some Straights,""(R) - Restaurant, usually serving dinner. A '*' after this symbol does not necessarily indicate quality of food served, but popularity of the place. "",(D) - Dancing",Restaurant,,,9/9/2019 2:38pm,9/14/2019 6:53pm
143,Club,,1514 Jackson,Ft. Myers,FL,"(*) - Very popular,(PT) - Pool Table,(P) - Private club - Inquire locally to admission,(YC) - Young and/or collegiate types,(BYOB) - Bring your own bottle",Bars/Clubs,,,9/9/2019 2:38pm,9/14/2019 6:55pm
144,M.C.C. ,,1520 Jackson,Ft. Myers,FL,,Church,,,9/9/2019 2:38pm,9/14/2019 6:52pm
149,Lobby,(DIsco) (Thur arcade) (Hwy. 98 near Fountain Square),231 Miracle Mile,Ft. Walton Beach,FL,"(M) - Mixed Crowds - Some Straights,(YC) - Young and/or collegiate types",Bars/Clubs,,,9/9/2019 2:38pm,9/14/2019 6:55pm
152,Melody Club,(DIsco),4130 N.W. 6th St.,Gainsville,FL,"(YC) - Young and/or collegiate types,(D) - Dancing,(*) - Very popular",Bars/Clubs,,,9/9/2019 2:38pm,9/14/2019 6:56pm
153,Playmate Adult Book Store,('Flciks' & cruisy arcade),4134 N.W. 6th St.,Gainsville,FL,,Book Store,,,9/9/2019 2:38pm,9/14/2019 6:56pm
154,Spectrum ,(DIsco dancing) (Could be a winner),210 W. 2nd Ave.,Gainsville,FL,"(YC) - Young and/or collegiate types,(D) - Dancing,(*) - Very popular",Bars/Clubs,,,9/9/2019 2:38pm,9/14/2019 6:58pm
155,Zoo,(DIsco) (Occasional shows),203 N.W. 6th St.,Gainsville,FL,"(*) - Very popular,(YC) - Young and/or collegiate types,(D) - Dancing,(S) - Shows - impersonators or record pantomime acts - often touristy",Bars/Clubs,,,9/9/2019 2:38pm,9/14/2019 6:58pm
159,Back Room,(Liquor),800 N. Federal Hwy.,Hallandale,FL,"""(L) - Ladies/Ms, but seldom exclusively unless noted"",(D) - Dancing,(PT) - Pool Table",Bars/Clubs,,,9/9/2019 2:38pm,9/14/2019 6:58pm
160,J.P.'s,,1795 Okeechobee Rd.,Hilaleah,FL,"(M) - Mixed Crowds - Some Straights,""(L) - Ladies/Ms, but seldom exclusively unless noted"",(S) - Shows - impersonators or record pantomime acts - often touristy",Bars/Clubs,,,9/9/2019 2:38pm,9/14/2019 11:51pm
161,Locker Room,(Baths) (Use rear entrance),1914 Hollywood Blvd.,Hollywood,FL,(*) - Very popular,Baths,,,9/9/2019 2:38pm,9/14/2019 11:51pm
162,Michael's,(Dull),715 S. 21st St.,Hollywood,FL,"(E) - Entertainment,(S) - Shows - impersonators or record pantomime acts - often touristy,""(R) - Restaurant, usually serving dinner. A '*' after this symbol does not necessarily indicate quality of food served, but popularity of the place. """,Restaurant,,,9/14/2019 6:47pm,9/14/2019 11:52pm
163,Top's,(Ladies only),2025 Pembroke Rd.,Hollywood,FL,"""(L) - Ladies/Ms, but seldom exclusively unless noted""",Bars/Clubs,,,9/14/2019 6:47pm,9/14/2019 11:52pm
165,Back Door,"(Disco) (Some L) at Glove St.
",6644 Arlington Rd.,Jacksonville,FL,"(YC) - Young and/or collegiate types,(D) - Dancing,""(L) - Ladies/Ms, but seldom exclusively unless noted"",(*) - Very popular",Bars/Clubs,,,9/14/2019 6:47pm,9/15/2019 12:04am
166,Brothers,"(Disco) (Some W, SM - back room- WE) (Cruisy)",484 May St.,Jacksonville,FL,"(YC) - Young and/or collegiate types,(D) - Dancing,(W) - Western or coyboy types,""(SM) - Some motorcycle. Don't confuse with 'M-S,' which means mixed crowds - shows. "",(WE) = Weekends,(*) - Very popular","Bars/Clubs,Cruising Areas",,,9/14/2019 6:47pm,9/15/2019 10:03pm
167,Brothers Corner House,,643 Edison Ave.,Jacksonville,FL,"""(R) - Restaurant, usually serving dinner. A '*' after this symbol does not necessarily indicate quality of food served, but popularity of the place. "",(M) - Mixed Crowds - Some Straights,(PE) - Pretty elegant - jacket & tie may be required",Restaurant,,,9/14/2019 6:47pm,9/14/2019 11:59pm
168,Club Baths of Jacksonville,,1939 Hendricks,Jacksonville,FL,(*) - Very popular,Baths,,,9/14/2019 6:47pm,9/15/2019 12:00am
169,Country Palace,(Disco),527 Main St.,Jacksonville,FL,"(D) - Dancing,(S) - Shows - impersonators or record pantomime acts - often touristy,(*) - Very popular",Bars/Clubs,,,9/14/2019 6:47pm,9/15/2019 12:04am
170,Derby House,,1068 Park St.,Jacksonville,FL,"(M) - Mixed Crowds - Some Straights,""(R) - Restaurant, usually serving dinner. A '*' after this symbol does not necessarily indicate quality of food served, but popularity of the place. "",""(C) - Coffee, soft drinks and sometimes snacks"",(AH) - After Hours",Restaurant,,,9/14/2019 6:47pm,9/15/2019 12:00am
172,Flamingo ,"(Some OC, B, RT, 'Hustlers')",408 Main St.,Jacksonville,FL,"(OC) - Older/More Mature Crowd,(B) - Blacks frequent,(RT) - 'Raunchy types' - downtown type places - often hustlers",Bars/Clubs,,,9/14/2019 6:47pm,9/15/2019 12:04am
174,Metro News Mart,,115 E. Forsyth St.,Jacksonville,FL,,Bars/Clubs,,,9/14/2019 6:47pm,9/15/2019 12:04am
175,My Little Dude,(Some L) Under Hwy 17,2951 Roosevelt,Jacksonville,FL,"""(L) - Ladies/Ms, but seldom exclusively unless noted"",(S) - Shows - impersonators or record pantomime acts - often touristy",Bars/Clubs,,,9/14/2019 6:47pm,9/15/2019 12:04am
176,Phoenix,(Cruisy),1440 San Marco Blvd.,Jacksonville,FL,"(W) - Western or coyboy types,""(SM) - Some motorcycle. Don't confuse with 'M-S,' which means mixed crowds - shows. "",(*) - Very popular","Bars/Clubs,Cruising Areas",,,9/14/2019 6:47pm,9/15/2019 10:03pm
177,Springfield,(Some L),1724 N. Main St.,Jacksonville,FL,"(M) - Mixed Crowds - Some Straights,""(L) - Ladies/Ms, but seldom exclusively unless noted""",Bars/Clubs,,,9/14/2019 6:47pm,9/15/2019 12:04am
180,Junction,(Opens 3pm),1261 King St.,Jacksonville,FL,"(YC) - Young and/or collegiate types,(*) - Very popular",Bars/Clubs,,,9/14/2019 6:47pm,9/15/2019 12:04am
181,Bo's Crowbar,,504 N. 1st St.,Jacksonville Beach,FL,"(*) - Very popular,(YC) - Young and/or collegiate types,(D) - Dancing,(PT) - Pool Table",Bars/Clubs,,,9/14/2019 6:47pm,9/15/2019 12:14am
182,Anabel's,(Good days),422 Smith Lane,Key West,FL,"(B) - Blacks frequent,(W) - Western or coyboy types,(PT) - Pool Table",Bars/Clubs,,,9/14/2019 6:47pm,9/15/2019 12:14am
183,Big Ruby's Inn,(Guest house),409 Smith Lane,Key West,FL,"""(H) - Hotel, motel, or other overnight accomodations"",(*) - Very popular",Hotels,,,9/14/2019 6:47pm,9/15/2019 12:13am
184,Casa Donovan Guest House,,617 Whitehead,Key West,FL,"""(H) - Hotel, motel, or other overnight accomodations"",(*) - Very popular",Hotels,,,9/14/2019 6:47pm,9/15/2019 12:13am
185,Cavanaugh's Boutique,"(Liquid, etc.)",520 Front St.,Key West,FL,,Bars/Clubs,,,9/14/2019 6:47pm,9/15/2019 12:14am
186,Claire,(open for breakfast too),900 Duval St.,Key West,FL,"""(R) - Restaurant, usually serving dinner. A '*' after this symbol does not necessarily indicate quality of food served, but popularity of the place. "",(E) - Entertainment",Restaurant,,,9/14/2019 6:47pm,9/15/2019 12:12am
187,Club Key West,C.B.C. Club Lodge (Baths & motel units),621 Truman Ave.,Key West,FL,(*) - Very popular,Baths,,,9/14/2019 6:47pm,9/15/2019 12:13am
188,Curry House Guest House,,806 Fleming St.,Key West,FL,"""(H) - Hotel, motel, or other overnight accomodations""",Hotels,,,9/14/2019 6:47pm,9/15/2019 12:13am
189,Cypress House,(Guest house) (should be a winner),601 Caroline,Key West,FL,"""(H) - Hotel, motel, or other overnight accomodations""",Hotels,,,9/14/2019 6:47pm,9/15/2019 12:14am
190,Dan Fleming Guest House,,1423 Eliza St.,Key West,FL,"""(H) - Hotel, motel, or other overnight accomodations""",Hotels,,,9/14/2019 6:47pm,9/15/2019 1:39am
191,Delmonico's,(Disco) (Patio & gardens),218 Duval St.,Key West,FL,"(YC) - Young and/or collegiate types,(*) - Very popular,(D) - Dancing",Bars/Clubs,,,9/14/2019 6:47pm,9/15/2019 1:40am
192,El Carique,(Cuban),125 Duval St.,Key West,FL,"(M) - Mixed Crowds - Some Straights,""(R) - Restaurant, usually serving dinner. A '*' after this symbol does not necessarily indicate quality of food served, but popularity of the place. """,Restaurant,,,9/14/2019 6:47pm,9/15/2019 1:40am
193,Five-Eleven Eaton St.,,511 Eaton St.,Key West,FL,"""(H) - Hotel, motel, or other overnight accomodations""",Hotels,,,9/14/2019 6:47pm,9/15/2019 1:40am
194,Garden House,(Apts.) (Whirlpool),329 Elizabeth St.,Key West,FL,"""(H) - Hotel, motel, or other overnight accomodations""",Hotels,,,9/14/2019 6:47pm,9/15/2019 1:43am
195,Gideon Lowe House,,409 William St.,Key West,FL,"""(H) - Hotel, motel, or other overnight accomodations""",Hotels,,,9/14/2019 6:47pm,9/15/2019 1:43am
196,Halcyon Guest House,(Weekly or monthly rates),329 William St.,Key West,FL,"(PE) - Pretty elegant - jacket & tie may be required,""(H) - Hotel, motel, or other overnight accomodations""",Hotels,,,9/14/2019 6:47pm,9/15/2019 1:44am
197,Hurricane Alley Guest House,,5 Simonton,Key West,FL,"""(H) - Hotel, motel, or other overnight accomodations"",(*) - Very popular",Hotels,,,9/14/2019 6:47pm,9/15/2019 1:44am
198,Island House,,1129 Fleming St.,Key West,FL,"(M) - Mixed Crowds - Some Straights,""(H) - Hotel, motel, or other overnight accomodations""",Hotels,,,9/14/2019 6:47pm,9/15/2019 1:44am
199,Key Lodge Motel,,1004 Duval St.,Key West,FL,"(M) - Mixed Crowds - Some Straights,""(H) - Hotel, motel, or other overnight accomodations"",(*) - Very popular",Hotels,,,9/14/2019 6:47pm,9/15/2019 1:45am
200,Key West Book,"(Movies, etc.)",528 Duval St.,Key West,FL,,Book Store,,,9/14/2019 6:47pm,9/15/2019 1:45am
201,Lanai Apts. of Key West,,1100 Angela St.,Key West,FL,,Bars/Clubs,,,9/14/2019 6:47pm,9/15/2019 1:46am
202,La Terraza de Marti,(R & Beer bar),1125 Duval St.,Key West,FL,"""(H) - Hotel, motel, or other overnight accomodations"",""(R) - Restaurant, usually serving dinner. A '*' after this symbol does not necessarily indicate quality of food served, but popularity of the place. "",(*) - Very popular","Hotels,Restaurant",,,9/14/2019 6:47pm,9/15/2019 1:46am
204,Leather Loft,"(Clothes, etc.) Behind the Monster",400 Front St.,Key West,FL,,Bars/Clubs,,added in Monster address,9/14/2019 6:47pm,9/15/2019 1:48am
205,Monster,"(Disco) (Several bars, patio & garden) (Cruisy)",400 Front St.,Key West,FL,"(YC) - Young and/or collegiate types,(*) - Very popular,(D) - Dancing,""(R) - Restaurant, usually serving dinner. A '*' after this symbol does not necessarily indicate quality of food served, but popularity of the place. ""","Bars/Clubs,Restaurant,Cruising Areas",,,9/14/2019 6:47pm,9/15/2019 10:03pm
206,News Stand,(books & peep shows),919 Duval St.,Key West,FL,,Book Store,,,9/14/2019 6:47pm,9/15/2019 1:49am
207,One Havana Lane,,1 Havana Lane,Key West,FL,"""(H) - Hotel, motel, or other overnight accomodations""",Hotels,,,9/14/2019 6:47pm,9/15/2019 1:49am
208,Pigeon House Patio,,303 Whitehead,Key West,FL,"(*) - Very popular,(PE) - Pretty elegant - jacket & tie may be required,(M) - Mixed Crowds - Some Straights,""(R) - Restaurant, usually serving dinner. A '*' after this symbol does not necessarily indicate quality of food served, but popularity of the place. """,Restaurant,,,9/14/2019 6:47pm,9/15/2019 1:49am
209,Pines Guest House,,521 United St. ,Key West,FL,"""(H) - Hotel, motel, or other overnight accomodations"",(*) - Very popular",Hotels,,,9/14/2019 6:47pm,9/15/2019 1:50am
210,Pleasure Chest,"(Erotica, etc.)",208 Duval St.,Key West,FL,,Book Store,,,9/14/2019 6:47pm,9/15/2019 1:50am
211,Poor Richard's Buttery,,1208 Simonton St.,Key West,FL,"(PE) - Pretty elegant - jacket & tie may be required,(M) - Mixed Crowds - Some Straights,""(R) - Restaurant, usually serving dinner. A '*' after this symbol does not necessarily indicate quality of food served, but popularity of the place. "",(*) - Very popular",Restaurant,,,9/14/2019 6:47pm,9/15/2019 1:50am
212,Port of Call,,425 Front St.,Key West,FL,"(M) - Mixed Crowds - Some Straights,""(R) - Restaurant, usually serving dinner. A '*' after this symbol does not necessarily indicate quality of food served, but popularity of the place. """,Restaurant,,,9/14/2019 6:47pm,9/15/2019 1:51am
213,Rooftop Cafe,(Lunches),310 Front St.,Key West,FL,"(M) - Mixed Crowds - Some Straights,""(R) - Restaurant, usually serving dinner. A '*' after this symbol does not necessarily indicate quality of food served, but popularity of the place. "",(*) - Very popular",Restaurant,,,9/14/2019 6:47pm,9/15/2019 1:51am
214,Simonton Court Guest House,,320 Simonton,Key West,FL,"""(H) - Hotel, motel, or other overnight accomodations"",(*) - Very popular",Hotels,,,9/14/2019 6:47pm,9/15/2019 1:52am
215,Southwind Motel,"(Some W, SM, FFA)",1321 Simonton St.,Key West,FL,"""(H) - Hotel, motel, or other overnight accomodations"",(*) - Very popular,(W) - Western or coyboy types,""(SM) - Some motorcycle. Don't confuse with 'M-S,' which means mixed crowds - shows. "",""(FFA) - Final Faith of America, or ask your friendly SM Serviceman""",Hotels,,,9/14/2019 6:47pm,9/15/2019 1:52am
217,Tutti & Frutti,(Ice Cream Parlor),522 Duval,Key West,FL,,Business,,,9/14/2019 6:47pm,9/15/2019 1:53am
218,Walt's Conch House,,316 Peacon Lane,Key West,FL,"""(H) - Hotel, motel, or other overnight accomodations""",Hotels,,,9/14/2019 6:47pm,9/15/2019 1:53am
223,Green Parrot,(Disco) (Occasional shows),1028 E. Main St.,Lakeland,FL,"(D) - Dancing,(PT) - Pool Table,(S) - Shows - impersonators or record pantomime acts - often touristy,(*) - Very popular",Bars/Clubs,,,9/14/2019 6:47pm,9/15/2019 1:55am
225,Music Box Lounge,,629 Lake Ave.,Lake Worth,FL,(*) - Very popular,Bars/Clubs,,,9/14/2019 6:47pm,9/15/2019 1:56am
227,Back Room- Surf & Sound Lounge,(Wed.-Sund. 9pm-2am),14601 Gulf Blvd.,Medeira Beach,FL,,Bars/Clubs,,,9/14/2019 6:47pm,9/15/2019 11:16am
228,Other End Lounge,(Cruisy beach bar- 2pm-2am),13143 Gulf Blvd.,Medeira Beach,FL,"(YC) - Young and/or collegiate types,(D) - Dancing,(S) - Shows - impersonators or record pantomime acts - often touristy",Bars/Clubs,,,9/14/2019 6:47pm,9/15/2019 11:16am
229,Cactus Lounge,(Liquor) (Some 'midnight cowboys'),2041 N.E. Biscayne Blvd.,Miami,FL,"""(R) - Restaurant, usually serving dinner. A '*' after this symbol does not necessarily indicate quality of food served, but popularity of the place. "",(*) - Very popular",Restaurant,,,9/14/2019 6:47pm,9/15/2019 11:23am
230,Cambridge,Dancing upstairs. Disco,2847 Coral Way,Miami,FL,"""(R) - Restaurant, usually serving dinner. A '*' after this symbol does not necessarily indicate quality of food served, but popularity of the place. "",(E) - Entertainment,(P) - Private club - Inquire locally to admission,""(L) - Ladies/Ms, but seldom exclusively unless noted"",(D) - Dancing","Restaurant,Bars/Clubs",,,9/14/2019 6:47pm,9/15/2019 11:23am
231,Candlelight Club,,2869 S.W. 27th Ave.,Miami,FL,"(P) - Private club - Inquire locally to admission,""(R) - Restaurant, usually serving dinner. A '*' after this symbol does not necessarily indicate quality of food served, but popularity of the place. """,Restaurant,,,9/14/2019 6:47pm,9/15/2019 11:24am
232,Cervantes,(Clothing),800 Douglas Rd.,Miami,FL,,Business,,,9/14/2019 6:47pm,9/15/2019 11:26am
233,Clubhouse,(Baths),299 S.W. 8th St.,Miami,FL,(P) - Private club - Inquire locally to admission,Baths,,,9/14/2019 6:47pm,9/15/2019 11:26am
234,Club Miami Baths,,2991 Coral Way,Miami,FL,"(YC) - Young and/or collegiate types,(P) - Private club - Inquire locally to admission,(*) - Very popular",Baths,,,9/14/2019 6:47pm,9/15/2019 11:26am
235,Double 'R',"(Liquor) (This cruisy levi & western complex has several bars, game room & Pleasure Chest shop) (R- Sun. brunch & AH) ('Wild back room') ",1001 N.E. 2nd Ave.,Miami,FL,"""(R) - Restaurant, usually serving dinner. A '*' after this symbol does not necessarily indicate quality of food served, but popularity of the place. "",(*) - Very popular,(W) - Western or coyboy types","Bars/Clubs,Restaurant",,Added western label based on descirption,9/14/2019 6:47pm,9/15/2019 11:28am
236,El Carol,(Liquor) ,930 Le Jeune Rd.,Miami,FL,(OC) - Older/More Mature Crowd,Bars/Clubs,,,9/14/2019 6:47pm,9/15/2019 11:29am
237,Fox Hole,('Dull'),2000 N.E. 2nd Ave.,Miami,FL,"(OC) - Older/More Mature Crowd,(PT) - Pool Table",Bars/Clubs,,,9/14/2019 6:47pm,9/15/2019 11:29am
238,Grove Bookworm,(Books) (Coconut Grove),3025 Fuller St.,Miami,FL,(*) - Very popular,Book Store,,,9/14/2019 6:47pm,9/15/2019 11:29am
239,Hamlet,(Liquor) (Good Sun. & Mon. when the hairdressers are off),3416 Main Hwy.,Miami,FL,"""(R) - Restaurant, usually serving dinner. A '*' after this symbol does not necessarily indicate quality of food served, but popularity of the place. "",(*) - Very popular",Restaurant,,,9/14/2019 6:47pm,9/15/2019 11:30am
240,Karleman's,(Patio),6822 Biscayne Blvd.,Miami,FL,(PT) - Pool Table,Bars/Clubs,,,9/14/2019 6:47pm,9/15/2019 11:33am
241,Le Bistro,(French restaurant) (Coconut Grove),2611 Ponce de Leon,Miami,FL,"(M) - Mixed Crowds - Some Straights,""(R) - Restaurant, usually serving dinner. A '*' after this symbol does not necessarily indicate quality of food served, but popularity of the place. """,Restaurant,,,9/14/2019 6:47pm,9/15/2019 11:31am
242,Leprechan,,7305 Bird Rd.,Miami,FL,"(OC) - Older/More Mature Crowd,(E) - Entertainment",Bars/Clubs,,,9/14/2019 6:47pm,9/15/2019 11:33am
243,Little River News,(Books),7839 N.E. 2nd Ave.,Miami,FL,,Book Store,,,9/14/2019 6:47pm,9/15/2019 11:32am
245,Mine Shaft,(Cruisy) ('wild back room') (Liquor) ,112 S. Miami Ave.,Miami,FL,"(*) - Very popular,""(SM) - Some motorcycle. Don't confuse with 'M-S,' which means mixed crowds - shows. "",(W) - Western or coyboy types,""(FFA) - Final Faith of America, or ask your friendly SM Serviceman""","Bars/Clubs,Cruising Areas",,,9/14/2019 6:47pm,9/15/2019 10:03pm
246,Page 36 Disco,(Disco) (was 'hot' but future uncertain) (Miami Springs) ,4591 N.W. 36th St. ,Miami,FL,"(YC) - Young and/or collegiate types,(D) - Dancing",Bars/Clubs,,,9/14/2019 6:47pm,9/15/2019 7:58pm
247,Peter's,(Disco),1717 N.W. 17th Ave.,Miami,FL,"(D) - Dancing,(M) - Mixed Crowds - Some Straights",Bars/Clubs,,,9/14/2019 6:47pm,9/15/2019 7:58pm
248,Pleasure Chest,"(leather, books, toys, erotica, etc.) (At Club Miami Baths & Double R)",2991 Coral Way,Miami,FL,(*) - Very popular,"Book Store,Business",,copied address from club miami bahts,9/14/2019 6:47pm,9/15/2019 11:36am
249,Putty Cat Theatre,,7770 Biscayne Blvd.,Miami,FL,,Theatre,,,9/14/2019 6:47pm,9/15/2019 11:36am
250,Red Rooster,(Looking up),2404 N.E. 2nd Ave,Miami,FL,(OC) - Older/More Mature Crowd,Bars/Clubs,,,9/14/2019 6:47pm,9/15/2019 7:58pm
251,Sebastian's,(Disco) (Liquor),2490 S.W. 17th Ave.,Miami,FL,"(*) - Very popular,""(L) - Ladies/Ms, but seldom exclusively unless noted"",""(R) - Restaurant, usually serving dinner. A '*' after this symbol does not necessarily indicate quality of food served, but popularity of the place. "",(D) - Dancing,(P) - Private club - Inquire locally to admission","Restaurant,Bars/Clubs",,,9/14/2019 6:47pm,9/15/2019 7:57pm
252,Second Landing,(Liquor),820 S.W. 42nd Ave.,Miami,FL,"""(R) - Restaurant, usually serving dinner. A '*' after this symbol does not necessarily indicate quality of food served, but popularity of the place. "",(D) - Dancing","Restaurant,Bars/Clubs",,,9/14/2019 6:47pm,9/15/2019 7:58pm
253,Seventy-Ninth St. Twin Cinema,,137 N.E. 79th St.,Miami,FL,,Theatre,,,9/14/2019 6:47pm,9/15/2019 7:58pm
254,The Trip,(Disco) (Sunday 'tea dance'),2301 S.W. 32nd Ave.,Miami,FL,"(YC) - Young and/or collegiate types,(D) - Dancing,(*) - Very popular",Bars/Clubs,,,9/14/2019 6:47pm,9/15/2019 8:02pm
255,13 Buttons,(Disco) ('wild back room') (2 bars) (3 blocks west of N.W. 27th Ave. & 20th Sts.),2998 N.W. North River Dr.,Miami,FL,"(*) - Very popular,(P) - Private club - Inquire locally to admission,(YC) - Young and/or collegiate types,(D) - Dancing,(PT) - Pool Table,(S) - Shows - impersonators or record pantomime acts - often touristy,(E) - Entertainment",Bars/Clubs,,,9/15/2019 11:16am,9/15/2019 8:02pm
256,Uncle Charlie's Downtown,(Disco) (Game Room) (open until 5am),201 N.E. 2nd Ave.,Miami,FL,"(*) - Very popular,(P) - Private club - Inquire locally to admission,(YC) - Young and/or collegiate types,(D) - Dancing,(E) - Entertainment",Bars/Clubs,,,9/15/2019 11:16am,9/15/2019 8:02pm
258,Volume V,(Books) (Coconut Grove),3031 Grand Ave.,Miami,FL,,Book Store,,,9/15/2019 11:16am,9/15/2019 8:03pm
259,Yucky's,(Head shop) (Coconut Grove),3418 Main Hwy.,Miami,FL,,Business,,,9/15/2019 11:16am,9/15/2019 8:04pm
260,Zum Alten Fritz,(German restaurant) (looks promising),1727 Coral Way,Miami,FL,"(M) - Mixed Crowds - Some Straights,""(R) - Restaurant, usually serving dinner. A '*' after this symbol does not necessarily indicate quality of food served, but popularity of the place. """,Bars/Clubs,,,9/15/2019 11:16am,9/15/2019 8:04pm
271,Paris Male Theatre,,550 Washington Ave.,Miami Beach,FL,,Theatre,,,9/15/2019 11:16am,9/15/2019 8:06pm
272,Pin Up & adj. Nite Owl & Middle Room,,2228 Park Ave.,Miami Beach,FL,,Bars/Clubs,,,9/15/2019 11:16am,9/15/2019 8:06pm
273,Pirates Den,(Baths),16051 Collins Ave.,Miami Beach,FL,,Baths,,,9/15/2019 11:16am,9/15/2019 8:07pm
274,Windward Resort Motel,"(Disco) (This fun complex includes restaurant, hotel, disco, pool)",16051 Collins Ave.,Miami Beach,FL,"""(R) - Restaurant, usually serving dinner. A '*' after this symbol does not necessarily indicate quality of food served, but popularity of the place. "",""(H) - Hotel, motel, or other overnight accomodations"",(D) - Dancing,(S) - Shows - impersonators or record pantomime acts - often touristy","Hotels,Bars/Clubs,Restaurant",,,9/15/2019 11:16am,9/15/2019 8:07pm
277,Phoenix One,(Very mixed),17450 Biscayne Blvd.,North Miami,FL,"(P) - Private club - Inquire locally to admission,(PE) - Pretty elegant - jacket & tie may be required,(M) - Mixed Crowds - Some Straights,""(R) - Restaurant, usually serving dinner. A '*' after this symbol does not necessarily indicate quality of food served, but popularity of the place. """,Restaurant,,,9/15/2019 11:16am,9/15/2019 8:23pm
278,Pink Elephant,,13705 Biscayne Blvd.,North Miami,FL,"(D) - Dancing,(PT) - Pool Table",Bars/Clubs,,,9/15/2019 11:16am,9/15/2019 8:23pm
279,Adult Book Shop,,1011 W. Colonial Dr.,Orlando,FL,,Business,,,9/15/2019 11:16am,9/15/2019 8:24pm
280,Connection,,1124 Orange Ave.,Orlando,FL,"""(R) - Restaurant, usually serving dinner. A '*' after this symbol does not necessarily indicate quality of food served, but popularity of the place. """,Restaurant,,,9/15/2019 11:16am,9/15/2019 8:24pm
281,Hank's Place,,2825 N. Orange Blossom Trail,Orlando,FL,"(W) - Western or coyboy types,""(SM) - Some motorcycle. Don't confuse with 'M-S,' which means mixed crowds - shows. "",(*) - Very popular",Bars/Clubs,,,9/15/2019 11:16am,9/15/2019 8:25pm
282,Midnight News,(Books),410 N. Orange Trail,Orlando,FL,,Book Store,,,9/15/2019 11:16am,9/15/2019 8:25pm
283,Nite Own Disco,(Open 'til 7am - cl. Thurs) (Some Ladies),1000 Humphries,Orlando,FL,"(*) - Very popular,(P) - Private club - Inquire locally to admission,(YC) - Young and/or collegiate types,(D) - Dancing,(S) - Shows - impersonators or record pantomime acts - often touristy,""(L) - Ladies/Ms, but seldom exclusively unless noted""",Bars/Clubs,,,9/15/2019 11:16am,9/15/2019 8:26pm
284,Odds & Ends,includes adj. 'Last Spot' an afterhours BYOB club ,4910 Edgewater Dr.,Orlando,FL,"(S) - Shows - impersonators or record pantomime acts - often touristy,(AH) - After Hours,(BYOB) - Bring your own bottle",Bars/Clubs,,,9/15/2019 11:16am,9/15/2019 8:27pm
285,Orlando Book Mark,,1104 E. Colonial Dr.,Orlando,FL,,Book Store,,,9/15/2019 11:16am,9/15/2019 8:27pm
286,Parliament House,(This super complex is one of America's finest) (Disco) (5 bars) (Restaurant open 24 hrs.) (Lounge) (Some western) (Motel units),410 N. Orange Blossom Trail,Orlando,FL,"(*) - Very popular,(YC) - Young and/or collegiate types,(D) - Dancing,""(R) - Restaurant, usually serving dinner. A '*' after this symbol does not necessarily indicate quality of food served, but popularity of the place. "",(PT) - Pool Table,(S) - Shows - impersonators or record pantomime acts - often touristy,(W) - Western or coyboy types,""(H) - Hotel, motel, or other overnight accomodations""","Bars/Clubs,Restaurant,Hotels",,,9/15/2019 11:16am,12/18/2019 3:56pm
287,San Juan Grand Central Resort,& Royal Palm Disco (Burned - may or may not be re-opening),32 N. Orange Blossom Trail,Orlando,FL,"""(H) - Hotel, motel, or other overnight accomodations"",(YC) - Young and/or collegiate types,(D) - Dancing","Bars/Clubs,Hotels",,,9/15/2019 11:16am,9/15/2019 8:39pm
292,Fiesta Room,,110 Harrison Ave.,Panama City,FL,"(*) - Very popular,(D) - Dancing",Bars/Clubs,,,9/15/2019 11:16am,9/15/2019 8:40pm
295,Aquarius,,6120 Lillian Hwy.,Pensacola,FL,"""(L) - Ladies/Ms, but seldom exclusively unless noted"",(PT) - Pool Table",Bars/Clubs,,,9/15/2019 11:16am,9/15/2019 8:40pm
296,Chat & Chew,,331 S. Palafox,Pensacola,FL,"""(R) - Restaurant, usually serving dinner. A '*' after this symbol does not necessarily indicate quality of food served, but popularity of the place. "",""(C) - Coffee, soft drinks and sometimes snacks"",(AH) - After Hours",Restaurant,,,9/15/2019 11:16am,9/15/2019 8:41pm
297,Fiesta Room,(Some 'hustlers') (best days) (Maybe closing) San Carlos Hotel,1 N. Palafox,Pensacola,FL,(OC) - Older/More Mature Crowd,"Hotels,Bars/Clubs",,,9/15/2019 11:16am,9/15/2019 8:41pm
298,Lighthouse Disco,(Disco) (Supposedly opening soon- should be a smash hit),400 Barrancas,Pensacola,FL,"(YC) - Young and/or collegiate types,(D) - Dancing",Bars/Clubs,,,9/15/2019 11:16am,9/15/2019 8:45pm
299,Mr. G's Bottle Club,,501 W. Main,Pensacola,FL,"(P) - Private club - Inquire locally to admission,(M) - Mixed Crowds - Some Straights,(AH) - After Hours",Bars/Clubs,,,9/15/2019 11:16am,9/15/2019 8:50pm
300,Quite Village Inn,(Sunday buffet) (Liquor),3107 E. Cervantes,Pensacola,FL,(D) - Dancing,Bars/Clubs,,,9/15/2019 11:16am,9/15/2019 8:50pm
301,Red Carpet,(Military),204 Old Corry Rd.,Pensacola,FL,"(PT) - Pool Table,(YC) - Young and/or collegiate types",Bars/Clubs,,,9/15/2019 11:16am,9/15/2019 8:50pm
302,Red Garter,(Disco) (Liquor) (Cruise bar & game room upstairs) ,327 S. Palafox,Pensacola,FL,"(*) - Very popular,(YC) - Young and/or collegiate types,(D) - Dancing,(S) - Shows - impersonators or record pantomime acts - often touristy",Bars/Clubs,,,9/15/2019 11:16am,9/15/2019 8:50pm
306,Beachcomber,,826 Tamiami Trail,Port Charlotte,FL,(M) - Mixed Crowds - Some Straights,Bars/Clubs,,,9/15/2019 11:16am,9/15/2019 8:56pm
307,Mother's,(Disco),145 W. Marion Ave.,Punta Gorda,FL,"(D) - Dancing,(*) - Very popular",Bars/Clubs,,,9/15/2019 11:16am,9/15/2019 8:57pm
308,Airline Beach,T-rooms in park near bridge,,Punta Gorda,FL,Cruisy Area,Cruising Areas,,,9/15/2019 11:16am,9/15/2019 8:57pm
309,Engine Room,(Looking good- hot Mondays),1020 S. 4th St.,St. Petersburg,FL,(*) - Very popular,Bars/Clubs,,,9/15/2019 11:16am,9/15/2019 8:59pm
310,Grand Central,(A 'drag' or two),2235 Central,St. Petersburg,FL,,Bars/Clubs,,,9/15/2019 11:16am,9/15/2019 9:01pm
311,Marilyn's Closet,,8302 N. 4th St.,St. Petersburg,FL,"(M) - Mixed Crowds - Some Straights,""(L) - Ladies/Ms, but seldom exclusively unless noted"",(PT) - Pool Table",Bars/Clubs,,,9/15/2019 11:16am,9/15/2019 9:01pm
312,Sherwood,(Liquor),7 N. 1st St.,St. Petersburg,FL,"(OC) - Older/More Mature Crowd,(*) - Very popular",Bars/Clubs,,,9/15/2019 11:16am,9/15/2019 9:01pm
313,Wedgewood Inn,(Disco)(newly remodeled super complex) (Some ladies) (Apts & swimming pool),445 18th Ave. S. ,St. Petersburg,FL,"(YC) - Young and/or collegiate types,""(L) - Ladies/Ms, but seldom exclusively unless noted"",(D) - Dancing,""(R) - Restaurant, usually serving dinner. A '*' after this symbol does not necessarily indicate quality of food served, but popularity of the place. "",""(H) - Hotel, motel, or other overnight accomodations"",(AH) - After Hours","Bars/Clubs,Hotels,Restaurant",,,9/15/2019 11:16am,9/15/2019 9:00pm
314,Bayshore Dr.,from 2nd to Vinay Park,,St. Petersburg,FL,Cruisy Area,Cruising Areas,,,9/15/2019 11:16am,9/15/2019 9:01pm
315,Maximo Park,,,St. Petersburg,FL,Cruisy Area,Cruising Areas,,,9/15/2019 11:16am,9/15/2019 8:58pm
316,Skyway Bridge Park,,,St. Petersburg,FL,Cruisy Area,Cruising Areas,,,9/15/2019 11:16am,9/15/2019 8:58pm
317,M.C.C.,,636 S. Washington Blvd.,Sarasota,FL,,Church,,,9/15/2019 11:16am,9/15/2019 9:01pm
319,Cantina or Casbah,(Mexican restaurant) (Disco),666 W. Tennessee,Tallahassee,FL,"(D) - Dancing,""(R) - Restaurant, usually serving dinner. A '*' after this symbol does not necessarily indicate quality of food served, but popularity of the place. """,Restaurant,,,9/15/2019 11:16am,9/15/2019 9:04pm
320,City of Knight,(Disco) (Wed - Sat) (Open 'til 4am- Best 10pm-2am) ,506 S. Woodward,Tallahassee,FL,"(BYOB) - Bring your own bottle,(M) - Mixed Crowds - Some Straights,(*) - Very popular,(YC) - Young and/or collegiate types,(D) - Dancing,(S) - Shows - impersonators or record pantomime acts - often touristy",Bars/Clubs,,,9/15/2019 11:16am,9/15/2019 9:05pm
325,Bridge Club,,5519 W. Hillsborough Ave.,Tampa,FL,"(P) - Private club - Inquire locally to admission,(BYOB) - Bring your own bottle,(AH) - After Hours,(W) - Western or coyboy types",Bars/Clubs,,,9/15/2019 11:16am,9/15/2019 9:21pm
326,Carousel,,1806 W. Platt,Tampa,FL,"""(L) - Ladies/Ms, but seldom exclusively unless noted"",(D) - Dancing",Bars/Clubs,,,9/15/2019 11:16am,9/15/2019 9:28pm
327,Casa de Felicidad,,5018 Branch Ave.,Tampa,FL,"""(H) - Hotel, motel, or other overnight accomodations"",(OC) - Older/More Mature Crowd",Hotels,,,9/15/2019 11:16am,9/15/2019 9:28pm
328,Club Tampa Baths,,215 N. 11th St.,Tampa,FL,,Baths,,,9/15/2019 11:16am,9/15/2019 9:29pm
329,El Goya,(Disco) (western cruise bar) (super complex- when finished should be Tampa's hottest) (Ybor City),1430 E. 7th Ave.,Tampa,FL,"(YC) - Young and/or collegiate types,(D) - Dancing,(S) - Shows - impersonators or record pantomime acts - often touristy,(*) - Very popular",Bars/Clubs,,,9/15/2019 11:16am,9/15/2019 9:41pm
330,4427 Club,(Margie's),4427 W. Kennedy,Tampa,FL,"""(L) - Ladies/Ms, but seldom exclusively unless noted"",(D) - Dancing,(*) - Very popular",Bars/Clubs,,,9/15/2019 11:16am,9/15/2019 9:41pm
331,Kikiki,(Some levi) (Cruisy),909 N. Tampa,Tampa,FL,"(*) - Very popular,(W) - Western or coyboy types,(PT) - Pool Table","Bars/Clubs,Cruising Areas",,,9/15/2019 11:16am,9/15/2019 10:03pm
332,M.C.C,,2904 Concordia Ave.,Tampa,FL,,Church,,,9/15/2019 11:16am,9/15/2019 9:50pm
334,Old Plantation,(Disco),1725 W. Kennedy Blvd.,Tampa,FL,"(YC) - Young and/or collegiate types,(D) - Dancing,(*) - Very popular",Bars/Clubs,,,9/15/2019 11:16am,9/15/2019 9:52pm
335,Rene's,(Disco),2605 W. Kennedy ,Tampa,FL,"(D) - Dancing,(S) - Shows - impersonators or record pantomime acts - often touristy",Bars/Clubs,,,9/15/2019 11:16am,9/15/2019 9:52pm
336,Trade Boutique,at Rene's,2605 W. Kennedy ,Tampa,FL,"(W) - Western or coyboy types,(*) - Very popular",Bars/Clubs,,,9/15/2019 11:16am,9/15/2019 9:52pm
343,Cloud Lake Adult Book Store,,1320 Southern Blvd.,West Palm Beach,FL,,Book Store,,,9/15/2019 11:16am,9/15/2019 9:57pm
344,Kismet,(Disco),1412 Southern Blvd.,West Palm Beach,FL,"(D) - Dancing,(S) - Shows - impersonators or record pantomime acts - often touristy,(*) - Very popular",Bars/Clubs,,,9/15/2019 11:16am,9/15/2019 9:58pm
345,Man's Land,(Levi and Western) (Crusiy),508 25th St.,West Palm Beach,FL,"(W) - Western or coyboy types,(PT) - Pool Table,(D) - Dancing,(*) - Very popular",Bars/Clubs,,,9/15/2019 11:16am,9/15/2019 10:00pm
346,Orion,(Cruisy) (Shades of San Franscio's Castro St.),3635 S. Dixie Hwy,West Palm Beach,FL,"(*) - Very popular,(YC) - Young and/or collegiate types","Bars/Clubs,Cruising Areas",,,9/15/2019 11:16am,9/15/2019 10:03pm
347,Ricky's Place,,3240 S. Dixie Hwy,West Palm Beach,FL,,Bars/Clubs,,,9/15/2019 11:16am,9/15/2019 10:00pm
348,Air Force 'B.A.' Beach,,,West Palm Beach,FL,Cruisy Area,Cruising Areas,,,9/15/2019 11:16am,9/15/2019 9:49pm
349,Palm Beach Mall,,,West Palm Beach,FL,Cruisy Area,Cruising Areas,,,9/15/2019 11:16am,9/15/2019 9:49pm
350,"US 1, betw. 25th & 36th St.s",,,West Palm Beach,FL,Cruisy Area,Cruising Areas,,,9/15/2019 11:16am,9/15/2019 9:49pm
351,Dan's,,122 N. Jefferson St.,Albany,GA,(M) - Mixed Crowds - Some Straights,Bars/Clubs,,,9/15/2019 11:16am,9/15/2019 10:05pm
352,Eben's Bamboo Lounge,,104 N. Jackson,Albany,GA,"(M) - Mixed Crowds - Some Straights,(PT) - Pool Table",Bars/Clubs,,,9/15/2019 11:16am,9/15/2019 10:05pm
355,Key to America Motel Bar,,Prince & Milledge,Athens,GA,(M) - Mixed Crowds - Some Straights,"Hotels,Bars/Clubs",,,9/15/2019 11:16am,9/15/2019 10:05pm
360,Academy,(Disco),2110 Peachtree Rd.,Atlanta,GA,"(*) - Very popular,(P) - Private club - Inquire locally to admission,""(R) - Restaurant, usually serving dinner. A '*' after this symbol does not necessarily indicate quality of food served, but popularity of the place. "",(D) - Dancing","Restaurant,Bars/Clubs",,,9/15/2019 11:16am,9/22/2019 8:43pm
361,After Dark Bookshop & Film Gallery,"(Flicks, game room, pool table) (Cruisy) (Also open after hours)",1067 Peachtree St. N.E.,Atlanta,GA,"(*) - Very popular,(PT) - Pool Table,(AH) - After Hours","Book Store,Theatre,Cruising Areas",,,9/15/2019 11:16am,9/22/2019 8:44pm
362,Animals,(Disco),1055 Peachstree St. N.E. ,Atlanta,GA,"(P) - Private club - Inquire locally to admission,(S) - Shows - impersonators or record pantomime acts - often touristy,(D) - Dancing,(*) - Very popular",Bars/Clubs,,,9/15/2019 11:16am,9/22/2019 8:45pm
363,Annex,(Disco) (Should be a winner),563 Ponce de Leon,Atlanta,GA,"(PT) - Pool Table,(D) - Dancing,""(R) - Restaurant, usually serving dinner. A '*' after this symbol does not necessarily indicate quality of food served, but popularity of the place. ""","Bars/Clubs,Restaurant",,,9/15/2019 11:16am,9/22/2019 8:46pm
364,Armory,Near 6th,838 Juniper N.E.,Atlanta,GA,,Bars/Clubs,,,9/15/2019 11:16am,9/22/2019 8:46pm
365,Back Street,"('Tops' in Atlanta - super complex - several bars) (Disco) (Some ladies, blacks) (Enter thru parking lot in rear) (nr. 6th & Juniper)",645 Peachtree N.E. ,Atlanta,GA,"(*) - Very popular,(P) - Private club - Inquire locally to admission,(YC) - Young and/or collegiate types,(E) - Entertainment,(D) - Dancing,""(L) - Ladies/Ms, but seldom exclusively unless noted"",(B) - Blacks frequent",Bars/Clubs,,,9/15/2019 11:16am,9/22/2019 8:48pm
367,Blue Room,,86 Cain N.W.,Atlanta,GA,"(M) - Mixed Crowds - Some Straights,(OC) - Older/More Mature Crowd,(B) - Blacks frequent,(RT) - 'Raunchy types' - downtown type places - often hustlers",Bars/Clubs,,,9/22/2019 8:35pm,9/22/2019 8:48pm
368,Books & Things,,1080 Peachtree St. N.E.,Atlanta,GA,,Book Store,,,9/22/2019 8:35pm,9/22/2019 8:49pm
369,Bulldog & Co,"(Some levi, western, SM)",893 Peachtree St. N.E.,Atlanta,GA,"(*) - Very popular,(W) - Western or coyboy types,""(FFA) - Final Faith of America, or ask your friendly SM Serviceman""",Bars/Clubs,,,9/22/2019 8:35pm,9/22/2019 8:50pm
370,Cameo,at Cain N.W. ,188 Williams,Atlanta,GA,"(M) - Mixed Crowds - Some Straights,(B) - Blacks frequent,(RT) - 'Raunchy types' - downtown type places - often hustlers",Bars/Clubs,,,9/22/2019 8:35pm,9/22/2019 8:59pm
371,Climax Book Mart,(Cruisy) (Open 24 hrs except early Sunday morn.) ,1545 Piedmont Rd. N.E.,Atlanta,GA,,"Book Store,Cruising Areas",,,9/22/2019 8:35pm,9/22/2019 9:00pm
372,Club Baths of Atlanta,,76 4th St. N.W.,Atlanta,GA,(*) - Very popular,Baths,,,9/22/2019 8:35pm,9/22/2019 9:01pm
373,Down Under Book Store,"(Books, erotica, cruisy peep shows) (open 24 hrs.) At Cypress",45 8th St. ,Atlanta,GA,(*) - Very popular,"Book Store,Cruising Areas",,,9/22/2019 8:35pm,9/22/2019 10:01pm
374,Dunk & Dine,,2305 Cheshire Bridge Rd.,Atlanta,GA,"(M) - Mixed Crowds - Some Straights,""(R) - Restaurant, usually serving dinner. A '*' after this symbol does not necessarily indicate quality of food served, but popularity of the place. """,Restaurant,,,9/22/2019 8:35pm,9/22/2019 10:01pm
376,Eros Book Mart,(Open 24 hrs.) ,777 Ponce de Leon,Atlanta,GA,,Book Store,,,9/22/2019 8:35pm,9/22/2019 10:02pm
377,Frank Powell's,Restuarant & Lounge (enter thru parking lot in rear),1139 W. Peachtree St.,Atlanta,GA,"""(R) - Restaurant, usually serving dinner. A '*' after this symbol does not necessarily indicate quality of food served, but popularity of the place. """,Restaurant,,,9/22/2019 8:35pm,9/22/2019 10:03pm
378,Gallus,(Upstairs- Sun. brunch) (Downstairs cruise bar - some 'midnight cowboys'),49 6th St. N.E. ,Atlanta,GA,"(M) - Mixed Crowds - Some Straights,(PE) - Pretty elegant - jacket & tie may be required,""(R) - Restaurant, usually serving dinner. A '*' after this symbol does not necessarily indicate quality of food served, but popularity of the place. ""","Restaurant,Bars/Clubs,Cruising Areas",,,9/22/2019 8:35pm,9/22/2019 10:04pm
379,Gay Paree Cinema,,90 Walton St.,Atlanta,GA,,Theatre,,,9/22/2019 8:35pm,9/22/2019 10:04pm
380,Gene & Gabe's,(Very mixed),1578 Piedmont Rd. N.E.,Atlanta,GA,"(M) - Mixed Crowds - Some Straights,(PE) - Pretty elegant - jacket & tie may be required,""(R) - Restaurant, usually serving dinner. A '*' after this symbol does not necessarily indicate quality of food served, but popularity of the place. """,Restaurant,,,9/22/2019 8:35pm,9/22/2019 10:05pm
381,Le Cove,(Game room & patio - good days - open Sundays),508 Worchester Dr. N.E.,Atlanta,GA,"""(R) - Restaurant, usually serving dinner. A '*' after this symbol does not necessarily indicate quality of food served, but popularity of the place. "",(*) - Very popular",Restaurant,,,9/22/2019 8:35pm,9/22/2019 10:05pm
382,Le Pavillion Hotel,,14 17th St. N.E.,Atlanta,GA,"""(H) - Hotel, motel, or other overnight accomodations""",Hotels,,,9/22/2019 8:35pm,9/22/2019 10:06pm
383,Locker Room,Hollywood Hots ('Drag shows') (Sauna & baths),2325 Cheshire Br. Rd. N.E. ,Atlanta,GA,"(D) - Dancing,(AH) - After Hours,(*) - Very popular","Bars/Clubs,Baths",,,9/22/2019 8:35pm,9/22/2019 10:07pm
384,Mary Mac's Tea Room,('down country southern cooking'),224 Ponce de Leon,Atlanta,GA,"(M) - Mixed Crowds - Some Straights,""(R) - Restaurant, usually serving dinner. A '*' after this symbol does not necessarily indicate quality of food served, but popularity of the place. """,Restaurant,,,9/22/2019 8:35pm,9/22/2019 10:07pm
385,M.C.C,,800 N. Highland Ave.,Atlanta,GA,,Church,,,9/22/2019 8:35pm,9/30/2019 2:59pm
387,Mr. B's Esquire Books & Cards,(Basement film gallery),107 Luckie St.,Atlanta,GA,(OC) - Older/More Mature Crowd,"Book Store,Theatre",,,9/22/2019 8:35pm,9/30/2019 3:00pm
388,Ms. Garbo's,,2206 Cheshire Br. Rd. N.E.,Atlanta,GA,"""(L) - Ladies/Ms, but seldom exclusively unless noted"",""(R) - Restaurant, usually serving dinner. A '*' after this symbol does not necessarily indicate quality of food served, but popularity of the place. "",(D) - Dancing",Restaurant,,,9/22/2019 8:35pm,9/30/2019 3:01pm
389,Numbers,(Some L) (Disco) (Best late - AH),1888 Cheshire Bridge Rd.,Atlanta,GA,"(P) - Private club - Inquire locally to admission,(YC) - Young and/or collegiate types,""(L) - Ladies/Ms, but seldom exclusively unless noted"",(D) - Dancing,(AH) - After Hours,(*) - Very popular",Bars/Clubs,,,9/22/2019 8:35pm,9/30/2019 3:19pm
390,Onyx Show Bar,(Good afternons),341 W. Peachtree N.W. ,Atlanta,GA,"(S) - Shows - impersonators or record pantomime acts - often touristy,(*) - Very popular",Bars/Clubs,,,9/22/2019 8:35pm,9/30/2019 3:19pm
391,P's,Ponce de Leon Hotel (Levi cruise bar),551 Ponce de Leon Ave. N.E.,Atlanta,GA,"(*) - Very popular,""(SM) - Some motorcycle. Don't confuse with 'M-S,' which means mixed crowds - shows. "",(W) - Western or coyboy types","Bars/Clubs,Cruising Areas,Hotels",,,9/22/2019 8:35pm,12/18/2019 3:56pm
392,Peasant Upton,,3500 Peactree Rd N.E.,Atlanta,GA,"(M) - Mixed Crowds - Some Straights,""(R) - Restaurant, usually serving dinner. A '*' after this symbol does not necessarily indicate quality of food served, but popularity of the place. """,Restaurant,,,9/22/2019 8:35pm,9/30/2019 3:20pm
393,Pleasant Peasant,,555 Peachtree St. N.E.,Atlanta,GA,"(M) - Mixed Crowds - Some Straights,(PE) - Pretty elegant - jacket & tie may be required,""(R) - Restaurant, usually serving dinner. A '*' after this symbol does not necessarily indicate quality of food served, but popularity of the place. """,Restaurant,,,9/22/2019 8:35pm,9/30/2019 3:21pm
394,Pleasure Chest,"(Leather, 'toys', erotica, etc.)",957 Peachtree St. N.E. ,Atlanta,GA,(*) - Very popular,Business,,,9/22/2019 8:35pm,9/30/2019 3:21pm
395,Ponce de Leon News,,752 Ponce de Leon,Atlanta,GA,,Book Store,,,9/22/2019 8:35pm,9/30/2019 3:21pm
396,Prince George Inn,,114 6th St. N.E.,Atlanta,GA,"""(R) - Restaurant, usually serving dinner. A '*' after this symbol does not necessarily indicate quality of food served, but popularity of the place. """,Restaurant,,,9/22/2019 8:35pm,9/30/2019 3:22pm
397,Shelley's Place,(Lunch),1720 Peachtree Rd. N.E.,Atlanta,GA,"""(R) - Restaurant, usually serving dinner. A '*' after this symbol does not necessarily indicate quality of food served, but popularity of the place. "",(D) - Dancing",Restaurant,,,9/22/2019 8:35pm,9/30/2019 3:22pm
398,Star Book Mart,,804 N. Highland Ave.,Atlanta,GA,,Business,,,9/22/2019 8:35pm,9/30/2019 3:22pm
399,Stephen's,(Best Sundays_,1833 Peachtree Rd. N.E.,Atlanta,GA,"""(R) - Restaurant, usually serving dinner. A '*' after this symbol does not necessarily indicate quality of food served, but popularity of the place. "",(*) - Very popular",Restaurant,,,9/22/2019 8:35pm,9/30/2019 3:47pm
400,Sweet Gum Head,(3-1-79: Nice show club - wish they would pay me for '79 books) (behind Tiger Auto parts),2284 Cheshire Br. Rd. N.E.,Atlanta,GA,,Bars/Clubs,,,9/22/2019 8:35pm,9/30/2019 3:48pm
401,Tex's,"(Some W, SM) (was closed - may be re-opening)",1026 N. Highland,Atlanta,GA,"(W) - Western or coyboy types,""(SM) - Some motorcycle. Don't confuse with 'M-S,' which means mixed crowds - shows. """,Bars/Clubs,,,9/22/2019 8:35pm,9/30/2019 3:49pm
402,Tower Lounge,,735 Forest Rd. N.E.,Atlanta,GA,"""(L) - Ladies/Ms, but seldom exclusively unless noted"",(D) - Dancing,(PT) - Pool Table",Bars/Clubs,,,9/22/2019 8:35pm,9/30/2019 3:49pm
403,Union Station Book Store,,593 Dutch Valley Rd. N.E.,Atlanta,GA,,Book Store,,,9/22/2019 8:35pm,9/30/2019 3:50pm
413,Peacock,(Some L),1321 New Savannah Rd.,Augusta,GA,"(YC) - Young and/or collegiate types,""(L) - Ladies/Ms, but seldom exclusively unless noted"",(D) - Dancing,(*) - Very popular",Bars/Clubs,,,9/22/2019 8:35pm,9/30/2019 3:53pm
414,Reflections,(Disco) (Some L),1632 Walton Way,Augusta,GA,"(D) - Dancing,""(L) - Ladies/Ms, but seldom exclusively unless noted"",(*) - Very popular",Bars/Clubs,,,9/22/2019 8:35pm,9/30/2019 3:53pm
415,Bottoms Up Lounge,(Some L) (Disco),1407 1st Ave.,Columbus,GA,"""(L) - Ladies/Ms, but seldom exclusively unless noted"",(PT) - Pool Table,(D) - Dancing,(*) - Very popular",Baths,,,9/22/2019 8:35pm,11/12/2019 11:38pm
416,Deep Purple,"(Some, L, B) (Drags) (Cruisy)",1307 1st Ave.,Columbus,GA,"(PT) - Pool Table,""(L) - Ladies/Ms, but seldom exclusively unless noted"",(B) - Blacks frequent,(*) - Very popular","Bars/Clubs,Cruising Areas",,,9/22/2019 8:35pm,11/12/2019 11:39pm
417,Den-Mini Adult Theatre,(Some B),13 E. 11th St. ,Columbus,GA,(B) - Blacks frequent,Theatre,,,9/22/2019 8:35pm,11/12/2019 11:39pm
418,Fiesta Lounge,(Maybe changing names) (No signs),512 12th St.,Columbus,GA,(PT) - Pool Table,Bars/Clubs,,,9/22/2019 8:35pm,11/12/2019 11:39pm
419,Foxes Cinema,(Cruisy),3009 Victory Dr.,Columbus,GA,"(M) - Mixed Crowds - Some Straights,(*) - Very popular","Theatre,Cruising Areas",,,9/22/2019 8:35pm,11/12/2019 11:40pm
420,Southern News,(Books),3006 Victory Dr.,Columbus,GA,,"Book Store,Business",,,9/22/2019 8:35pm,11/12/2019 11:40pm
421,Steffi's Beer Cellar,(Very M) (Military) ,4131 Vicotry Dr.,Columbus,GA,"(M) - Mixed Crowds - Some Straights,(AYOR) -  At Your Own Risk - Dangerous - Usually Fuzz",Bars/Clubs,,,9/22/2019 8:35pm,11/12/2019 11:41pm
422,Thor Book Store,,15 W. 11th St.,Columbus,GA,(*) - Very popular,"Book Store,Business",,,9/22/2019 8:35pm,11/12/2019 11:41pm
427,410 Lounge,,410 Cotton Ave.,Macon,GA,(D) - Dancing,Bars/Clubs,,,9/22/2019 8:35pm,11/12/2019 11:42pm
428,We Three Lounge,(Disco) (Some L),434 Cotton Ave.,Macon,GA,"(D) - Dancing,""(L) - Ladies/Ms, but seldom exclusively unless noted""",Bars/Clubs,,,9/22/2019 8:35pm,11/12/2019 11:43pm
429,Dr. Feelgood's,(Disco) (Cruisy),9 Drayton St.,Savannah,GA,"(YC) - Young and/or collegiate types,(D) - Dancing,(*) - Very popular","Bars/Clubs,Cruising Areas",,,9/22/2019 8:35pm,11/12/2019 11:43pm
430,Johnnie Ganem's,,501 Habersham,Savannah,GA,"(M) - Mixed Crowds - Some Straights,""(R) - Restaurant, usually serving dinner. A '*' after this symbol does not necessarily indicate quality of food served, but popularity of the place. "",""(C) - Coffee, soft drinks and sometimes snacks"",(AH) - After Hours","Bars/Clubs,Restaurant",,,9/22/2019 8:35pm,11/12/2019 11:44pm
431,Missy's Adult Boutiques,& 2412 Skidaway Rd.,10 Whittaker St.,Savannah,GA,,Business,,,9/22/2019 8:35pm,11/12/2019 11:44pm
433,Planters Tavern Bar,(Downstairs at Pink House),23 Abercorn St.,Savannah,GA,"(M) - Mixed Crowds - Some Straights,(PE) - Pretty elegant - jacket & tie may be required,(OC) - Older/More Mature Crowd,(E) - Entertainment",Bars/Clubs,,,9/22/2019 8:35pm,11/12/2019 11:46pm
439,Bungalow, (Some L) nr. Main,121 Mill St.,Lexington,KY,"(M) - Mixed Crowds - Some Straights,""(R) - Restaurant, usually serving dinner. A '*' after this symbol does not necessarily indicate quality of food served, but popularity of the place. """,Restaurant,,,9/22/2019 8:35pm,11/12/2019 11:59pm
440,Hospitality Inn,(Paris Pike),2143 N. Broadway,Lexington,KY,"(M) - Mixed Crowds - Some Straights,""(R) - Restaurant, usually serving dinner. A '*' after this symbol does not necessarily indicate quality of food served, but popularity of the place. "",""(C) - Coffee, soft drinks and sometimes snacks"",(AH) - After Hours",Restaurant,,,9/22/2019 8:35pm,11/12/2019 11:59pm
441,Johnny Angel,(Days) (The place at night) (Some YC) (Disco),224 E. Main St.,Lexington,KY,"(*) - Very popular,(M) - Mixed Crowds - Some Straights,""(R) - Restaurant, usually serving dinner. A '*' after this symbol does not necessarily indicate quality of food served, but popularity of the place. "",(YC) - Young and/or collegiate types,(D) - Dancing","Bars/Clubs,Restaurant",,,9/22/2019 8:35pm,11/13/2019 12:00am
442,Y.M.C.A.,(Not what it used to be),239 E. High St.,Lexington,KY,"(M) - Mixed Crowds - Some Straights,""(H) - Hotel, motel, or other overnight accomodations""",Hotels,,,9/22/2019 8:35pm,11/13/2019 12:00am
446,Badlands Territory,(Disco) (D Upstairs) (Cruisy) (PT & game room) (3 bars) (Something for everyone),116 E. Main St.,Louisville,KY,"(YC) - Young and/or collegiate types,(*) - Very popular,(D) - Dancing,(PT) - Pool Table","Cruising Areas,Bars/Clubs",,,9/22/2019 8:35pm,11/13/2019 12:07am
447,Berkeley Hotel,(Old but clean),664 River City Mall,Louisville,KY,"(M) - Mixed Crowds - Some Straights,""(H) - Hotel, motel, or other overnight accomodations""",Hotels,,,9/22/2019 8:35pm,11/13/2019 12:08am
448,Camera's Eye,"(Books, films, crusiy arcade)",105 W. Main St.,Louisville,KY,,"Cruising Areas,Book Store,Business",,,9/22/2019 8:35pm,11/13/2019 12:08am
449,City Disco,"(2 rooms) (Disco) (Some OC, YC, Hustlers) (Looks promising) (betw. Broadway & Chestnut)",662 River City Mall,Louisville,KY,"(D) - Dancing,(OC) - Older/More Mature Crowd,(YC) - Young and/or collegiate types",Bars/Clubs,,,9/22/2019 8:35pm,11/13/2019 12:09am
450,Downtowner,(Disco) (Many L) (WE popular),105 W. Main St.,Louisville,KY,"(D) - Dancing,(E) - Entertainment,(S) - Shows - impersonators or record pantomime acts - often touristy,""(L) - Ladies/Ms, but seldom exclusively unless noted"",(WE) = Weekends,(*) - Very popular",Bars/Clubs,,,9/22/2019 8:35pm,11/13/2019 12:10am
451,Durango,"(Some W, SM) (Should be a winner)",414 E. Oak,Louisville,KY,"(W) - Western or coyboy types,""(SM) - Some motorcycle. Don't confuse with 'M-S,' which means mixed crowds - shows. """,Bars/Clubs,,,9/22/2019 8:35pm,11/13/2019 12:11am
452,Main Entrance,(Books & Arcade) ,219 S. 3rd St.,Louisville,KY,(M) - Mixed Crowds - Some Straights,Book Store,,,9/22/2019 8:35pm,11/13/2019 12:11am
453,Morris' 620 Club,(May be opening soon),620 S. 3rd St.,Louisville,KY,,Bars/Clubs,,,9/22/2019 8:35pm,11/13/2019 12:12am
454,Peek-O-Rama Adult Books,,222 W. Market,Louisville,KY,,Book Store,,,9/22/2019 8:35pm,11/13/2019 12:12am
455,River City Club,(also called Club Odyssey),340 E. Oak,Louisville,KY,"(P) - Private club - Inquire locally to admission,(S) - Shows - impersonators or record pantomime acts - often touristy,(D) - Dancing",Bars/Clubs,,,9/22/2019 8:35pm,11/13/2019 12:12am
456,River City News,,653 River City News,Louisville,KY,(*) - Very popular,Business,,,9/22/2019 8:35pm,11/13/2019 12:12am
457,Steak 'n' Eggs,,1136 S. 4th,Louisville,KY,"(M) - Mixed Crowds - Some Straights,""(R) - Restaurant, usually serving dinner. A '*' after this symbol does not necessarily indicate quality of food served, but popularity of the place. "",""(C) - Coffee, soft drinks and sometimes snacks"",(AH) - After Hours,(RT) - 'Raunchy types' - downtown type places - often hustlers",Restaurant,,,9/22/2019 8:35pm,11/13/2019 12:13am
458,Trixie's,(River City Ent.) (Book store & 'wild back room),206 S. 2nd St.,Louisville,KY,,Book Store,,,9/22/2019 8:35pm,11/13/2019 12:13am
464,Owensboro Motor Inn Lounge,,401 Frederica,Owensboro,KY,(M) - Mixed Crowds - Some Straights,Bars/Clubs,,,9/22/2019 8:35pm,11/13/2019 12:14am
466,Nutcracker Lounge,(Disco) (WE Popular),1304 Washington St.,Alexandria,LA,"(YC) - Young and/or collegiate types,(D) - Dancing,(WE) = Weekends,(*) - Very popular",Bars/Clubs,,,9/22/2019 8:35pm,11/13/2019 12:15am
467,Silly Sally's,(Disco),924 Jackson,Alexandria,LA,"(YC) - Young and/or collegiate types,(D) - Dancing,(*) - Very popular",Bars/Clubs,,,9/22/2019 8:35pm,11/13/2019 12:15am
472,Betty's Place,,3205 Plank Rd.,Baton Rouge,LA,"""(L) - Ladies/Ms, but seldom exclusively unless noted"",(*) - Very popular",Bars/Clubs,,,9/22/2019 8:36pm,11/24/2019 3:30pm
473,Dock,(Disco),2160 Highland Rd.,Baton Rouge,LA,"(*) - Very popular,(P) - Private club - Inquire locally to admission,(YC) - Young and/or collegiate types,(D) - Dancing",Bars/Clubs,,,9/22/2019 8:36pm,11/24/2019 3:31pm
474,George's Place,(Some levi & western) (Cruisy) (Plans patio soon),860 St. Louis St.,Baton Rouge,LA,"(*) - Very popular,(P) - Private club - Inquire locally to admission,(W) - Western or coyboy types","Bars/Clubs,Cruising Areas",,,9/22/2019 8:36pm,11/24/2019 3:31pm
475,La Garconniere,"(3 rooms- Western cruise bar, Restaurant snacks & pizza & disco dancing in back)",1564 Nicholson,Baton Rouge,LA,"(W) - Western or coyboy types,""(R) - Restaurant, usually serving dinner. A '*' after this symbol does not necessarily indicate quality of food served, but popularity of the place. "",(D) - Dancing,(*) - Very popular","Bars/Clubs,Restaurant",,,9/22/2019 8:36pm,11/24/2019 3:32pm
476,Mirror Room,"(Some older crowd, ladies)",311 North Blvd.,Baton Rouge,LA,"(D) - Dancing,(OC) - Older/More Mature Crowd,""(L) - Ladies/Ms, but seldom exclusively unless noted""",Bars/Clubs,,,9/22/2019 8:36pm,11/24/2019 3:33pm
477,Riverside Pub,(Some RT),121 North Blvd.,Baton Rouge,LA,"(PT) - Pool Table,(RT) - 'Raunchy types' - downtown type places - often hustlers",Bars/Clubs,,,9/22/2019 8:36pm,11/24/2019 3:35pm
479,Diogenes Club,"(Some ladies, young) (Disco)",1300 W. Main,Houma,LA,"""(L) - Ladies/Ms, but seldom exclusively unless noted"",(YC) - Young and/or collegiate types,(D) - Dancing,(S) - Shows - impersonators or record pantomime acts - often touristy",Bars/Clubs,,,9/22/2019 8:36pm,11/24/2019 3:37pm
480,Peoples Choice,(Disco) (Looks promising),1301 Daritaria,Houma,LA,"(D) - Dancing,(S) - Shows - impersonators or record pantomime acts - often touristy,(*) - Very popular",Bars/Clubs,,,9/22/2019 8:36pm,11/24/2019 3:37pm
482,C'Est La Guerre,(Weekends popular) (Many ladies),609 N. University,Lafayette,LA,"(WE) = Weekends,(*) - Very popular,(D) - Dancing,(S) - Shows - impersonators or record pantomime acts - often touristy,""(L) - Ladies/Ms, but seldom exclusively unless noted""",Bars/Clubs,,,9/22/2019 8:36pm,11/24/2019 3:40pm
483,Southern Comfort,(Disco) (Some Ladies) (Also 'quiet bar' & courtyard) ,310 Jefferson,Lafayette,LA,"(YC) - Young and/or collegiate types,(*) - Very popular,(D) - Dancing,(PT) - Pool Table,""(L) - Ladies/Ms, but seldom exclusively unless noted""",Bars/Clubs,,,9/22/2019 8:36pm,11/24/2019 3:41pm
488,Judge Roy Beans,,611 Pujo St.,Lake Charles,LA,"(M) - Mixed Crowds - Some Straights,(AYOR) -  At Your Own Risk - Dangerous - Usually Fuzz",Bars/Clubs,,,9/22/2019 8:36pm,11/24/2019 3:42pm
492,"River City, Ltd.",(Disco),400 De Siard,Monroe,LA,"(*) - Very popular,(YC) - Young and/or collegiate types,(D) - Dancing,(S) - Shows - impersonators or record pantomime acts - often touristy",Bars/Clubs,,,9/22/2019 8:36pm,11/24/2019 3:44pm
493,Steak & Egg,(Some RT) (popular after hours),507 Louisville Ave.,Monroe,LA,"(M) - Mixed Crowds - Some Straights,""(R) - Restaurant, usually serving dinner. A '*' after this symbol does not necessarily indicate quality of food served, but popularity of the place. "",""(C) - Coffee, soft drinks and sometimes snacks"",(RT) - 'Raunchy types' - downtown type places - often hustlers,(AH) - After Hours,(*) - Very popular",Restaurant,,,9/22/2019 8:36pm,11/24/2019 3:45pm
494,Terre Haute House,(Very mixed) (Reservations) ,311 Hudson Lane,Monroe,LA,"(M) - Mixed Crowds - Some Straights,(PE) - Pretty elegant - jacket & tie may be required,""(R) - Restaurant, usually serving dinner. A '*' after this symbol does not necessarily indicate quality of food served, but popularity of the place. "",(*) - Very popular",Restaurant,,,9/22/2019 8:36pm,11/24/2019 3:47pm
501,T-Johny's Lounge,,1547 Sandia,Morgan City,LA,,Bars/Clubs,,,9/22/2019 8:36pm,11/24/2019 3:49pm
503,Al's Backstage,(best late),1109 Decatur St.,New Orleans,LA,"""(R) - Restaurant, usually serving dinner. A '*' after this symbol does not necessarily indicate quality of food served, but popularity of the place. """,Restaurant,,,9/22/2019 8:36pm,11/24/2019 4:01pm
504,Apple Barrel,& 4936 Prytania St.,1940 Dauphine,New Orleans,LA,"(M) - Mixed Crowds - Some Straights,""(R) - Restaurant, usually serving dinner. A '*' after this symbol does not necessarily indicate quality of food served, but popularity of the place. """,Bars/Clubs,,located in two locations. ,9/22/2019 8:36pm,11/24/2019 4:03pm
505,Bourbon Pub,(Disco dancing upstairs at the 'Parade') (Game room) (Cruisy),801 Bourbon St.,New Orleans,LA,"(YC) - Young and/or collegiate types,(D) - Dancing,(*) - Very popular","Bars/Clubs,Cruising Areas",,,9/22/2019 8:36pm,11/24/2019 4:04pm
506,Bourgoyne Guest House,"(for info & check in, see 'Washing Well' Laundryteria next door)",839 Bourbon St.,New Orleans,LA,"""(H) - Hotel, motel, or other overnight accomodations""",Hotels,,,9/22/2019 8:36pm,11/24/2019 4:05pm
507,Brady's,,700 N. Rampart St.,New Orleans,LA,"""(L) - Ladies/Ms, but seldom exclusively unless noted"",(D) - Dancing",Bars/Clubs,,,9/22/2019 8:36pm,11/24/2019 4:06pm
509,Camp Baths,(Best to avoid),512 Gravier,New Orleans,LA,,Baths,,,9/22/2019 8:36pm,11/24/2019 4:06pm
510,Camp News,(Books & erotica) ,615 Common St.,New Orleans,LA,(*) - Very popular,Book Store,,,9/22/2019 8:36pm,11/24/2019 4:06pm
511,Canal Baths,(Some older crowd),738 N. Rampart,New Orleans,LA,"""(H) - Hotel, motel, or other overnight accomodations"",(OC) - Older/More Mature Crowd,(*) - Very popular","Hotels,Baths",,,9/22/2019 8:36pm,11/24/2019 4:07pm
512,Charlene's,(closed Monday),940 Elysian Fields,New Orleans,LA,"(*) - Very popular,""(L) - Ladies/Ms, but seldom exclusively unless noted""",Bars/Clubs,,,9/22/2019 8:36pm,11/24/2019 4:07pm
513,Chelsey's,(Looks promising),727 Bourbon St.,New Orleans,LA,"(M) - Mixed Crowds - Some Straights,""(R) - Restaurant, usually serving dinner. A '*' after this symbol does not necessarily indicate quality of food served, but popularity of the place. """,Restaurant,,,9/22/2019 8:36pm,11/24/2019 4:07pm
514,Club French Quarter Baths,,1129 Decatur St.,New Orleans,LA,(*) - Very popular,Baths,,,9/22/2019 8:36pm,11/24/2019 4:08pm
515,Club Midship,('Hustlers'),606 Iberville,New Orleans,LA,(*) - Very popular,Bars/Clubs,,,9/22/2019 8:36pm,11/24/2019 4:08pm
516,Club New Orleans Baths,(Upstairs),515 Toulouse St.,New Orleans,LA,(*) - Very popular,Baths,,,9/22/2019 8:36pm,11/24/2019 4:09pm
517,Corral ,(Above Lafitte's) ,901 Bourbon St.,New Orleans,LA,"(W) - Western or coyboy types,(PT) - Pool Table,(*) - Very popular",Bars/Clubs,,,9/22/2019 8:36pm,11/24/2019 4:12pm
518,Country Club,"(Bar & restaurant) (Game room) (Swim pool, lockers & showers) (Private, out of town visitors show Address Book) (Summer weekends popular)",634 Louisa St.,New Orleans,LA,"""(R) - Restaurant, usually serving dinner. A '*' after this symbol does not necessarily indicate quality of food served, but popularity of the place. "",(D) - Dancing,(P) - Private club - Inquire locally to admission,(WE) = Weekends,(*) - Very popular","Bars/Clubs,Restaurant",,,9/22/2019 8:36pm,11/24/2019 4:10pm
519,Apple Barrel,& 1940 Dauphine,4936 Prytania St.,New Orleans,LA,"(M) - Mixed Crowds - Some Straights,""(R) - Restaurant, usually serving dinner. A '*' after this symbol does not necessarily indicate quality of food served, but popularity of the place. """,Bars/Clubs,,located in two locations. ,9/22/2019 8:36pm,11/24/2019 4:03pm
520,Cuisine Fin Galle,(French) (3 floors) (upstairs bar - banquet rooms),611 Decatur St.,New Orleans,LA,"(*) - Very popular,(M) - Mixed Crowds - Some Straights,""(R) - Restaurant, usually serving dinner. A '*' after this symbol does not necessarily indicate quality of food served, but popularity of the place. """,Restaurant,,,9/22/2019 8:36pm,11/24/2019 4:20pm
521,Decatur House,(Sandwiches) (11am-11pm),1119 Decatur St.,New Orleans,LA,"(M) - Mixed Crowds - Some Straights,""(R) - Restaurant, usually serving dinner. A '*' after this symbol does not necessarily indicate quality of food served, but popularity of the place. """,Restaurant,,,9/22/2019 8:36pm,11/24/2019 4:20pm
522,Decatur News,"(Flicks, books, etc.)",941 Decatur,New Orleans,LA,,Book Store,,,9/22/2019 8:36pm,11/24/2019 4:21pm
523,Dirty Dottie's Cleaners,(Good source for local info.),826 N. Rampart St.,New Orleans,LA,,Business,,,9/22/2019 8:36pm,11/24/2019 4:35pm
524,Dolpen II Book Store,,823 Royal St.,New Orleans,LA,(*) - Very popular,Book Store,,,9/22/2019 8:36pm,11/24/2019 4:36pm
525,Fat Sam's,,940 Conti at Burgundy,New Orleans,LA,(S) - Shows - impersonators or record pantomime acts - often touristy,Bars/Clubs,,,9/22/2019 8:36pm,11/24/2019 4:37pm
526,Fatted Calf,,727 St. Peter St.,New Orleans,LA,"(M) - Mixed Crowds - Some Straights,""(R) - Restaurant, usually serving dinner. A '*' after this symbol does not necessarily indicate quality of food served, but popularity of the place. """,Restaurant,,,9/22/2019 8:36pm,11/24/2019 4:37pm
527,Finale II,('Dull'),642 N. Rampart,New Orleans,LA,,Bars/Clubs,,,9/22/2019 8:36pm,11/24/2019 4:37pm
528,Flamingos Cafe & Bar,,1625 St. Charles Ave.,New Orleans,LA,(*) - Very popular,"Bars/Clubs,Restaurant",,,9/22/2019 8:36pm,11/24/2019 4:37pm
529,Galley House,(Good afternoons),542 Chartres St.,New Orleans,LA,(*) - Very popular,Bars/Clubs,,,9/22/2019 8:36pm,11/24/2019 4:37pm
530,Golden Lantern,"(Some W, SM, something for everyone - open 24 hrs.)",1239 Royal St.,New Orleans,LA,"(*) - Very popular,(W) - Western or coyboy types,""(SM) - Some motorcycle. Don't confuse with 'M-S,' which means mixed crowds - shows. """,Bars/Clubs,,,9/22/2019 8:36pm,11/24/2019 4:38pm
531,Grog Shop,,718 N. Rampart St.,New Orleans,LA,"""(L) - Ladies/Ms, but seldom exclusively unless noted""",Bars/Clubs,,,9/22/2019 8:36pm,11/24/2019 4:38pm
532,Ichabod's ,(Very mixed),701 Bourbon St.,New Orleans,LA,"(M) - Mixed Crowds - Some Straights,""(R) - Restaurant, usually serving dinner. A '*' after this symbol does not necessarily indicate quality of food served, but popularity of the place. """,Restaurant,,,9/22/2019 8:36pm,11/24/2019 4:38pm
533,Janek's,,711 Bourbon St.,New Orleans,LA,"(M) - Mixed Crowds - Some Straights,""(R) - Restaurant, usually serving dinner. A '*' after this symbol does not necessarily indicate quality of food served, but popularity of the place. """,Restaurant,,,9/22/2019 8:36pm,11/24/2019 4:38pm
534,Jeffery Scott Cross Guest House,,717 Ursulines,New Orleans,LA,"""(H) - Hotel, motel, or other overnight accomodations""",Hotels,,,9/22/2019 8:36pm,11/24/2019 4:38pm
535,Jewel's Tavern,(Cruisy) ('Humpy' bartenders) (Active 'john' & back game room),1207 Decatur St.,New Orleans,LA,(*) - Very popular,"Cruising Areas,Bars/Clubs",,,9/22/2019 8:36pm,11/24/2019 4:39pm
536,Jonathan's,(Closed Sunday),714 N. Rampart,New Orleans,LA,"(M) - Mixed Crowds - Some Straights,(PE) - Pretty elegant - jacket & tie may be required,""(R) - Restaurant, usually serving dinner. A '*' after this symbol does not necessarily indicate quality of food served, but popularity of the place. ""","Restaurant,Bars/Clubs",,,9/22/2019 8:36pm,11/24/2019 4:39pm
537,Kajun Kraftsman,(Leather shop at T.T.'s),820 N. Rampart,New Orleans,LA,,Business,,,9/22/2019 8:36pm,11/24/2019 4:39pm
538,Lafitte Guest House,,1003 Bourbon St.,New Orleans,LA,"""(H) - Hotel, motel, or other overnight accomodations"",(*) - Very popular",Hotels,,,9/22/2019 8:36pm,11/24/2019 4:39pm
539,Lafitte's In Exile,(Cruisy),901 Bourbon St.,New Orleans,LA,"(*) - Very popular,(YC) - Young and/or collegiate types","Cruising Areas,Bars/Clubs",,,9/22/2019 8:36pm,11/24/2019 4:39pm
540,Lapin Blanc,(Breakfast served after 1am) (White Rabbit Disco - dancing - upstairs),701 Bourbon ,New Orleans,LA,"""(R) - Restaurant, usually serving dinner. A '*' after this symbol does not necessarily indicate quality of food served, but popularity of the place. "",(D) - Dancing","Restaurant,Bars/Clubs",,,9/22/2019 8:36pm,11/24/2019 4:40pm
541,Le Bistro,"(Disco) (Hustlers')
",800 Bourbon St.,New Orleans,LA,"(D) - Dancing,(S) - Shows - impersonators or record pantomime acts - often touristy,(B) - Blacks frequent,(RT) - 'Raunchy types' - downtown type places - often hustlers,""(L) - Ladies/Ms, but seldom exclusively unless noted""",Bars/Clubs,,,9/22/2019 8:36pm,11/24/2019 4:40pm
542,Louisiana Purchase,(Game room - Fun bar - looks promising) ,740 Dauphine,New Orleans,LA,(PT) - Pool Table,Bars/Clubs,,,9/22/2019 8:36pm,11/24/2019 4:40pm
543,Maxey's Coffee Pot,,714 St. Peter St.,New Orleans,LA,"(M) - Mixed Crowds - Some Straights,""(R) - Restaurant, usually serving dinner. A '*' after this symbol does not necessarily indicate quality of food served, but popularity of the place. """,Restaurant,,,9/22/2019 8:36pm,11/24/2019 4:40pm
544,M.C.C. ,,1744 N. Rampart St,New Orleans,LA,,Church,,,9/22/2019 8:36pm,11/24/2019 4:41pm
545,Noble Arms Guest House,,1006 Royal St.,New Orleans,LA,"""(H) - Hotel, motel, or other overnight accomodations""",Hotels,,,9/22/2019 8:36pm,11/24/2019 4:41pm
546,Off the Wall,,903 St. Peter St.,New Orleans,LA,"(M) - Mixed Crowds - Some Straights,""(R) - Restaurant, usually serving dinner. A '*' after this symbol does not necessarily indicate quality of food served, but popularity of the place. """,Restaurant,,,9/22/2019 8:36pm,11/24/2019 4:41pm
547,Patsy's,,54 Burgundy St.,New Orleans,LA,"(M) - Mixed Crowds - Some Straights,(S) - Shows - impersonators or record pantomime acts - often touristy",Bars/Clubs,,,9/22/2019 8:36pm,11/24/2019 4:41pm
548,Phil's,(Breakfast),616 N. Rampart,New Orleans,LA,"(M) - Mixed Crowds - Some Straights,""(R) - Restaurant, usually serving dinner. A '*' after this symbol does not necessarily indicate quality of food served, but popularity of the place. """,Restaurant,,,9/22/2019 8:36pm,11/24/2019 4:43pm
549,Remember When,,916 Royal St.,New Orleans,LA,"""(R) - Restaurant, usually serving dinner. A '*' after this symbol does not necessarily indicate quality of food served, but popularity of the place. """,Restaurant,,,9/22/2019 8:36pm,11/24/2019 4:44pm
550,Round Up,(Sterilized Society Page),819 St. Louis St.,New Orleans,LA,,Bars/Clubs,,,9/22/2019 8:36pm,11/24/2019 4:44pm
551,Sbisa's Cafe,,1011 Decatur St.,New Orleans,LA,"""(R) - Restaurant, usually serving dinner. A '*' after this symbol does not necessarily indicate quality of food served, but popularity of the place. """,Restaurant,,,9/22/2019 8:36pm,11/24/2019 4:44pm
552,Sidney's News Stand,,917 Decatur St.,New Orleans,LA,,Book Store,,,9/22/2019 8:36pm,11/24/2019 4:44pm
553,Tigers,"(Some SM, W) (Every Sunday ""Midnight Madness)",740 Burgundy,New Orleans,LA,"(PT) - Pool Table,""(SM) - Some motorcycle. Don't confuse with 'M-S,' which means mixed crowds - shows. "",(W) - Western or coyboy types,(*) - Very popular",Bars/Clubs,,,9/22/2019 8:36pm,11/24/2019 4:44pm
554,Tortilla Flats,(Mexican restaurant),95 French Market Pl.,New Orleans,LA,"""(R) - Restaurant, usually serving dinner. A '*' after this symbol does not necessarily indicate quality of food served, but popularity of the place. "",(*) - Very popular",Restaurant,,,9/22/2019 8:36pm,11/24/2019 4:45pm
556,Travis's,(Good Days) (Shows on weekends),834 N. Rampart,New Orleans,LA,"(D) - Dancing,(S) - Shows - impersonators or record pantomime acts - often touristy,(WE) = Weekends",Bars/Clubs,,,9/22/2019 8:36pm,11/24/2019 4:46pm
557,T.T.'s West,('Wild back room'),820 N. Rampart,New Orleans,LA,"""(SM) - Some motorcycle. Don't confuse with 'M-S,' which means mixed crowds - shows. "",(W) - Western or coyboy types,(PT) - Pool Table,(*) - Very popular",Bars/Clubs,,,9/22/2019 8:36pm,11/24/2019 4:46pm
558,Trocadero,(Cruisy) (Disco with some dancing) (Leather - levi) (Looks promising),704 Burgundy,New Orleans,LA,(D) - Dancing,"Cruising Areas,Bars/Clubs",,,9/22/2019 8:36pm,11/24/2019 4:47pm
559,Ursuline Guest House,(Friendly Hotel),708 Ursulines,New Orleans,LA,"""(H) - Hotel, motel, or other overnight accomodations"",(*) - Very popular",Hotels,,,9/22/2019 8:36pm,11/24/2019 4:47pm
560,Verte Marte,"(Sandwiches, etc.)",1201 Royal St.,New Orleans,LA,"(M) - Mixed Crowds - Some Straights,""(R) - Restaurant, usually serving dinner. A '*' after this symbol does not necessarily indicate quality of food served, but popularity of the place. """,Restaurant,,,9/22/2019 8:36pm,11/24/2019 4:47pm
561,Vieux Carre Motor Lodge,,920 N. Rampart St.,New Orleans,LA,"(M) - Mixed Crowds - Some Straights,""(H) - Hotel, motel, or other overnight accomodations""",Hotels,,,9/22/2019 8:36pm,11/24/2019 4:47pm
562,Wanda's,('Hustlers'),704 Iberville,New Orleans,LA,(RT) - 'Raunchy types' - downtown type places - often hustlers,Bars/Clubs,,,9/22/2019 8:36pm,11/24/2019 4:48pm
570,Rosy's,,4601 Tchoupitoulis,New Orleans,LA,"Cruisy Area,(M) - Mixed Crowds - Some Straights,(AYOR) -  At Your Own Risk - Dangerous - Usually Fuzz,(YC) - Young and/or collegiate types",Cruising Areas,,,9/22/2019 8:36pm,11/24/2019 4:32pm
576,Florentine,(Wed. - Sat. only),728 Austin Pl.,Shreveport,LA,"(M) - Mixed Crowds - Some Straights,""(L) - Ladies/Ms, but seldom exclusively unless noted"",(B) - Blacks frequent",Bars/Clubs,,,9/22/2019 8:36pm,11/24/2019 4:57pm
577,Fun Shop,"(Books, etc.)",103 Texas Dr.,Shreveport,LA,,Book Store,,,9/22/2019 8:36pm,11/24/2019 4:57pm
578,Korner,(Bobby's) (Something for everyone),,Shreveport,LA,(*) - Very popular,Bars/Clubs,,,9/22/2019 8:36pm,11/24/2019 4:58pm
579,Other Side,(Disco) ,1605 Marhsall St.,Shreveport,LA,"(YC) - Young and/or collegiate types,(D) - Dancing,(S) - Shows - impersonators or record pantomime acts - often touristy,(PT) - Pool Table",Bars/Clubs,,,9/22/2019 8:36pm,11/24/2019 4:58pm
582,Casa Blanca,(Some ladies) (Disco) (Cruise bar),220 Pat Harrison Ave.,Biloxi,MS,"(YC) - Young and/or collegiate types,""(L) - Ladies/Ms, but seldom exclusively unless noted"",(D) - Dancing,(*) - Very popular","Bars/Clubs,Cruising Areas",,,11/24/2019 4:48pm,11/24/2019 7:05pm
591,Mae's Cabaret,"(Some ladies) (Sun. - Thur. 8-12pm, Fri. & Sat. 8pm-3am) (Disco on weekends) (Occasional shows)
",207 W. Amite,Jackson,MS,"(P) - Private club - Inquire locally to admission,(D) - Dancing,""(L) - Ladies/Ms, but seldom exclusively unless noted"",(PT) - Pool Table,(BYOB) - Bring your own bottle,(WE) = Weekends,(*) - Very popular,(S) - Shows - impersonators or record pantomime acts - often touristy",Bars/Clubs,,,11/24/2019 4:48pm,11/24/2019 7:08pm
598,Holiday Inn Bar,,400 N. Lamar,Oxford,MS,(M) - Mixed Crowds - Some Straights,"Hotels,Bars/Clubs",,,11/24/2019 4:48pm,11/24/2019 7:11pm
599,Castaways,,310 Ingalles,Pascagoula,MS,(M) - Mixed Crowds - Some Straights,Bars/Clubs,,,11/24/2019 4:48pm,11/24/2019 7:11pm
602,Downtowner Motel Bar,,1313 Walnut,Vicksburg,MS,"(M) - Mixed Crowds - Some Straights,(*) - Very popular","Hotels,Bars/Clubs",,,11/24/2019 4:48pm,11/24/2019 7:13pm
604,After Dark Lounge,(Disco) (Cruise Bar upstairs - weekends),80 Asheland Ave.,Asheville,NC,"(P) - Private club - Inquire locally to admission,(YC) - Young and/or collegiate types,(*) - Very popular,(D) - Dancing","Bars/Clubs,Cruising Areas",,,11/24/2019 4:48pm,11/24/2019 7:16pm
605,Howard Johnson's,,190 Hendricksville Rd.,Asheville,NC,"(M) - Mixed Crowds - Some Straights,""(R) - Restaurant, usually serving dinner. A '*' after this symbol does not necessarily indicate quality of food served, but popularity of the place. "",""(C) - Coffee, soft drinks and sometimes snacks"",(AH) - After Hours",Restaurant,,,11/24/2019 4:48pm,11/24/2019 7:16pm
606,Tree Tops,,85 Patton Ave.,Asheville,NC,,Bars/Clubs,,,11/24/2019 4:48pm,11/24/2019 7:16pm
610,Christopher's,(Disco),1809 Chapel Hill Blvd.,Chapel Hill,NC,"(*) - Very popular,(P) - Private club - Inquire locally to admission,(YC) - Young and/or collegiate types,(D) - Dancing,""(C) - Coffee, soft drinks and sometimes snacks"",(AH) - After Hours",Bars/Clubs,,,11/24/2019 4:48pm,11/24/2019 7:18pm
611,Club South Baths of Charlotte,,1708 South Blvd. ,Charlotte,NC,(*) - Very popular,Baths,,,11/24/2019 4:48pm,11/24/2019 7:28pm
613,French Art Cinema,"(Books, 'flicks', etc.)",3511 Wilkinson Blvd.,Charlotte,NC,(*) - Very popular,Theatre,,,11/24/2019 4:48pm,11/24/2019 7:29pm
614,Hart's Adult Books,(Cruisy),2137 South Blvd. ,Charlotte,NC,(*) - Very popular,"Cruising Areas,Book Store",,,11/24/2019 4:48pm,11/24/2019 7:29pm
615,Josh's,,224 East Blvd.,Charlotte,NC,"(M) - Mixed Crowds - Some Straights,""(R) - Restaurant, usually serving dinner. A '*' after this symbol does not necessarily indicate quality of food served, but popularity of the place. """,Restaurant,,,11/24/2019 4:48pm,11/24/2019 7:31pm
616,New Brass Rail,(Some western) ,3513 Wilkinson Blvd.,Charlotte,NC,"(P) - Private club - Inquire locally to admission,(W) - Western or coyboy types,(PT) - Pool Table",Bars/Clubs,,,11/24/2019 4:48pm,11/24/2019 7:33pm
617,New Freedom Adult Books,(Cruisy),6701 South Blvd.,Charlotte,NC,,"Cruising Areas,Book Store",,,11/24/2019 4:48pm,11/24/2019 7:33pm
618,Odyssey I,(Disco) (Above Original Brass Rail),105 W. Morehead,Charlotte,NC,"(YC) - Young and/or collegiate types,(D) - Dancing,(*) - Very popular",Bars/Clubs,,,11/24/2019 4:48pm,11/24/2019 7:34pm
619,Oleen's Lounge,"(Some YC, L, 'Drags') (Disco)",1831 South Blvd.,Charlotte,NC,"(S) - Shows - impersonators or record pantomime acts - often touristy,(YC) - Young and/or collegiate types,""(L) - Ladies/Ms, but seldom exclusively unless noted"",(D) - Dancing,(PT) - Pool Table",Bars/Clubs,,,11/24/2019 4:48pm,11/24/2019 7:34pm
620,Original Brass Rail,"(Cruisy) (Best early evenings, popular)",105 W. Morehead,Charlotte,NC,(*) - Very popular,"Cruising Areas,Bars/Clubs",,,11/24/2019 4:48pm,11/24/2019 7:35pm
621,Scorpio's Disco,(Semi private) (Disco) (Closed Tuesdays) (Some Ladies),2301 Freedom Dr.,Charlotte,NC,"(*) - Very popular,(P) - Private club - Inquire locally to admission,(YC) - Young and/or collegiate types,(D) - Dancing,""(L) - Ladies/Ms, but seldom exclusively unless noted"",(PT) - Pool Table,(S) - Shows - impersonators or record pantomime acts - often touristy,(AH) - After Hours,(WE) = Weekends",Bars/Clubs,,,11/24/2019 4:48pm,11/24/2019 7:35pm
622,Showplace,(movie arcade & erotica),2209 South Blvd.,Charlotte,NC,,"Book Store,Theatre",,,11/24/2019 4:48pm,11/24/2019 7:36pm
623,Stutz Bookstore,,6101 Wilkinson Bvld.,Charlotte,NC,(*) - Very popular,Book Store,,,11/24/2019 4:48pm,11/24/2019 7:36pm
624,Van's Love Boutique,,4409-A N. Tyron,Charlotte,NC,,Business,,,11/24/2019 4:48pm,11/24/2019 7:36pm
625,White Tower,,1801 Scott,Charlotte,NC,"(M) - Mixed Crowds - Some Straights,""(R) - Restaurant, usually serving dinner. A '*' after this symbol does not necessarily indicate quality of food served, but popularity of the place. "",""(C) - Coffee, soft drinks and sometimes snacks"",(AH) - After Hours",Restaurant,,,11/24/2019 4:48pm,11/24/2019 7:36pm
626,Y.M.C.A.,,400 E. Morehead,Charlotte,NC,"(M) - Mixed Crowds - Some Straights,""(H) - Hotel, motel, or other overnight accomodations""",Hotels,,,11/24/2019 4:48pm,11/24/2019 7:37pm
632,Camera's Eye,(Books),810 W. Main,Durham,NC,,Book Store,,,11/24/2019 4:48pm,11/24/2019 7:40pm
633,Clowns Inn,(Some Ladies) (Disco),2526 Erwin Road,Durham,NC,"(*) - Very popular,(YC) - Young and/or collegiate types,""(L) - Ladies/Ms, but seldom exclusively unless noted"",(D) - Dancing,(PT) - Pool Table",Bars/Clubs,,,11/24/2019 4:48pm,11/24/2019 7:41pm
634,Players Books,,2208 Avondale,Durham,NC,,Book Store,,,11/24/2019 4:48pm,11/24/2019 7:42pm
635,Top Hat,,1113 Broad,Durham,NC,"(M) - Mixed Crowds - Some Straights,""(R) - Restaurant, usually serving dinner. A '*' after this symbol does not necessarily indicate quality of food served, but popularity of the place. "",(RT) - 'Raunchy types' - downtown type places - often hustlers",Restaurant,,,11/24/2019 4:48pm,11/24/2019 7:42pm
636,Tri-State News,(Books),215 Chapel Hill St. ,Durham,NC,(M) - Mixed Crowds - Some Straights,Book Store,,,11/24/2019 4:48pm,11/24/2019 7:42pm
639,Brass Rail,,753 Montclair Rd.,Fayetteville,NC,,Bars/Clubs,,,11/24/2019 4:48pm,11/24/2019 7:44pm
640,Holiday Inn Bar,,442 Eastern Blvd.,Fayetteville,NC,"(M) - Mixed Crowds - Some Straights,(OC) - Older/More Mature Crowd","Hotels,Bars/Clubs",,,11/24/2019 4:48pm,11/24/2019 7:44pm
641,Other Side,(Some Ladies) (Cruisy) ,457 W. Russell,Fayetteville,NC,"(P) - Private club - Inquire locally to admission,(*) - Very popular,(YC) - Young and/or collegiate types,""(L) - Ladies/Ms, but seldom exclusively unless noted"",(D) - Dancing,(PT) - Pool Table","Bars/Clubs,Cruising Areas",,,11/24/2019 4:48pm,11/24/2019 7:44pm
645,West Main Adult Books ,(Peep shows etc.),414 W. Main,Gastonia,NC,,Book Store,,,11/24/2019 4:49pm,11/24/2019 7:45pm
646,Hart XXX Book Store,,110 S. Berkeley Blvd.,Goldsboro,NC,,Book Store,,,11/24/2019 4:49pm,11/24/2019 7:45pm
647,Book World,,3808-A Old High Point Road,Greensboro,NC,,Book Store,,,11/24/2019 4:49pm,11/24/2019 7:51pm
648,Davey's & Co.,"at Spring Garden
",723 Kenilworth,Greensboro,NC,"(P) - Private club - Inquire locally to admission,(YC) - Young and/or collegiate types,(D) - Dancing,(*) - Very popular",Bars/Clubs,,,11/24/2019 4:49pm,11/24/2019 7:54pm
649,Greenboro Book Mart,,117 W. Washington,Greensboro,NC,,Book Store,,,11/24/2019 4:49pm,11/24/2019 7:54pm
650,Monroe's GGG Lounge,,253 N. Green St.,Greensboro,NC,(M) - Mixed Crowds - Some Straights,Bars/Clubs,,,11/24/2019 4:49pm,11/24/2019 7:54pm
651,The Palms,,209 W. Bellemeade,Greensboro,NC,"(P) - Private club - Inquire locally to admission,(E) - Entertainment",Bars/Clubs,,,11/24/2019 4:49pm,11/24/2019 7:54pm
652,Wham,(Disco),1011 Arnold St.,Greensboro,NC,"(YC) - Young and/or collegiate types,(D) - Dancing,(*) - Very popular",Bars/Clubs,,,11/24/2019 4:49pm,11/24/2019 7:54pm
655,Paddock Club,(Disco) (Opens 8pm - Closed Mondays) (2-28-79; Biz must be off as they haven't paid for last years books),1008 Dickinson Ave.,Greenville,NC,"(P) - Private club - Inquire locally to admission,(D) - Dancing",Bars/Clubs,,,11/24/2019 4:49pm,11/30/2019 2:24pm
657,Hart's News ,"(Books, movies, etc.) (Cruisy)",105 Kivett Dr.,High Point,NC,,"Cruising Areas,Book Store",,,11/24/2019 4:49pm,11/30/2019 2:25pm
659,Bachelor's Library,"(Books)
",3411 S. Wilmington,Raleigh,NC,,Book Store,,,11/24/2019 4:49pm,11/30/2019 2:30pm
660,Camera's Eye,"(Erotica)
",1433 S. Wilmington,Raleigh,NC,,Book Store,,,11/24/2019 4:49pm,11/30/2019 2:30pm
661,Capital Corral,(Cruisy) (Game Room in front - 'Glitter Gulch') (Disco) (Dancing in rear) (See ad previous page),313 W. Hargett ,Raleigh,NC,"(*) - Very popular,(W) - Western or coyboy types,(PT) - Pool Table,(YC) - Young and/or collegiate types,(D) - Dancing",Bars/Clubs,,,11/24/2019 4:49pm,11/30/2019 2:34pm
662,Hart's Book Store,,124 W. Martin St.,Raleigh,NC,,Book Store,,,11/24/2019 4:49pm,11/30/2019 2:34pm
663,Mouse Trap,(Cruisy - Tues. nights),1622 Glenwood Ave.,Raleigh,NC,"(P) - Private club - Inquire locally to admission,(YC) - Young and/or collegiate types,(D) - Dancing,(*) - Very popular","Cruising Areas,Bars/Clubs",,,11/24/2019 4:49pm,11/30/2019 2:35pm
664,Raleigh Books,,111 Fayettesville St.,Raleigh,NC,,Book Store,,,11/24/2019 4:49pm,11/30/2019 2:35pm
665,St. John's M.C.C.,,814 Dixie Trail,Raleigh,NC,,Church,,,11/24/2019 4:49pm,11/30/2019 2:35pm
666,Swinger's Bookstore,,124 W. Martin St.,Raleigh,NC,(M) - Mixed Crowds - Some Straights,Book Store,,,11/24/2019 4:49pm,11/30/2019 2:35pm
670,David's Lounge,(Some Ladies) (Disco),114 Market St.,Wilmington,NC,"(*) - Very popular,""(L) - Ladies/Ms, but seldom exclusively unless noted"",(YC) - Young and/or collegiate types,(D) - Dancing",Bars/Clubs,,,11/24/2019 4:49pm,11/30/2019 2:40pm
675,Fantastia Bookstore,,411 N. Liberty St.,Winston-Salem,NC,,Book Store,,,11/24/2019 4:49pm,11/30/2019 2:42pm
676,Hart's Adult Books,,537 N. Liberty St.,Winston-Salem,NC,,Book Store,,,11/24/2019 4:49pm,11/30/2019 2:42pm
678,N. Liberty Books,,42 N. Liberty St.,Winston-Salem,NC,,Book Store,,,11/24/2019 4:49pm,11/30/2019 2:42pm
679,Power Company,(Disco) (Clubhaven Shopping Center),5045 Country Club Rd.,Winston-Salem,NC,"(YC) - Young and/or collegiate types,(D) - Dancing",Bars/Clubs,,,11/24/2019 4:49pm,11/30/2019 2:42pm
680,Hanes Mall,,,Winston-Salem,NC,Cruisy Area,Cruising Areas,,,11/24/2019 4:49pm,11/30/2019 2:42pm
682,King St. Garden & Gun Club,(Disco),240 King St.,Charleston,SC,"(*) - Very popular,(P) - Private club - Inquire locally to admission,(D) - Dancing",Bars/Clubs,,,11/24/2019 4:49pm,12/2/2019 7:41am
683,Love Inn,,1668 Hwy. 171,Charleston,SC,"(M) - Mixed Crowds - Some Straights,""(R) - Restaurant, usually serving dinner. A '*' after this symbol does not necessarily indicate quality of food served, but popularity of the place. "",""(C) - Coffee, soft drinks and sometimes snacks"",(AH) - After Hours",Restaurant,,,11/24/2019 4:49pm,12/2/2019 7:42am
684,Tucker's Tavern,(Cruisy),336 King St.,Charleston,SC,"(*) - Very popular,(YC) - Young and/or collegiate types","Bars/Clubs,Cruising Areas",,,11/24/2019 4:49pm,12/2/2019 7:42am
685,Folly Beach,,,Charleston,SC,Cruisy Area,Cruising Areas,,,11/24/2019 4:49pm,12/2/2019 7:40am
686,Reynolds Ave. ,Nr. Naval Yard,,Charleston,SC,Cruisy Area,Cruising Areas,,,11/24/2019 4:49pm,12/2/2019 7:40am
687,The Battery- Whitepoint Gardens,,,Charleston,SC,Cruisy Area,Cruising Areas,,,11/24/2019 4:49pm,12/2/2019 7:40am
688,Fortress,(Shows on weekend) (Some ladies),3134 Two Notch Rd.,Columbia,SC,"(D) - Dancing,(PT) - Pool Table,(S) - Shows - impersonators or record pantomime acts - often touristy,(WE) = Weekends,""(L) - Ladies/Ms, but seldom exclusively unless noted""",Bars/Clubs,,,11/24/2019 4:49pm,12/2/2019 7:45am
689,Our Place,('Hustlers'),1232 Assembly St.,Columbia,SC,"(RT) - 'Raunchy types' - downtown type places - often hustlers,(*) - Very popular",Bars/Clubs,,,11/24/2019 4:49pm,12/2/2019 7:46am
690,Paul's End Zone,"(Some YC, L) (Disco)",2706 N. Main,Columbia,SC,"(*) - Very popular,(YC) - Young and/or collegiate types,""(L) - Ladies/Ms, but seldom exclusively unless noted"",(D) - Dancing",Bars/Clubs,,,11/24/2019 4:49pm,12/2/2019 7:46am
691,Sundown Adult Books & Mini Theatre,,3311 Two Notch Rd.,Columbia,SC,(*) - Very popular,"Book Store,Theatre",,,11/24/2019 4:49pm,12/2/2019 7:46am
692,'Primrose Path' ,Senate St & grounds adj. to the Capitol,,Columbia,SC,"Cruisy Area,(AYOR) -  At Your Own Risk - Dangerous - Usually Fuzz",Cruising Areas,,,11/24/2019 4:49pm,12/2/2019 7:44am
696,Long Branch Cafe,,124 E. Market,Johnson City,TN,"""(R) - Restaurant, usually serving dinner. A '*' after this symbol does not necessarily indicate quality of food served, but popularity of the place. "",(RT) - 'Raunchy types' - downtown type places - often hustlers,(WE) = Weekends",Restaurant,,,11/24/2019 4:49pm,12/2/2019 7:58am
700,Carousel,(Disco) (2 floors),1501 White Ave. S.,Knoxville,TN,"(*) - Very popular,(YC) - Young and/or collegiate types,(D) - Dancing,""(R) - Restaurant, usually serving dinner. A '*' after this symbol does not necessarily indicate quality of food served, but popularity of the place. "",(E) - Entertainment,(S) - Shows - impersonators or record pantomime acts - often touristy","Bars/Clubs,Restaurant",,,11/24/2019 4:49pm,12/2/2019 8:01am
701,Europa Club,('Mixed bag'),216 W. Main,Knoxville,TN,,Bars/Clubs,,,11/24/2019 4:49pm,12/2/2019 8:01am
702,Huddle Tavern,(Some L) ,219 W. Cumberland,Knoxville,TN,"""(L) - Ladies/Ms, but seldom exclusively unless noted""",Bars/Clubs,,,11/24/2019 4:49pm,12/2/2019 8:01am
703,Kingston Pike News,,5005 Kingston Pike,Knoxville,TN,,Book Store,,,11/24/2019 4:49pm,12/2/2019 8:02am
704,Knoxville Book Mart & Art Cinema,,145 Gay St. S.W.,Knoxville,TN,,"Book Store,Theatre",,,11/24/2019 4:49pm,12/2/2019 8:02am
708,Club Memphis Baths,(looks promising),561 Madison,Memphis,TN,,Baths,,,11/24/2019 4:49pm,12/2/2019 8:04am
709,Front Page,"(Cruisy late popular) (Some W, YC) (Disco)",267 S. Cleveland,Memphis,TN,"(*) - Very popular,(W) - Western or coyboy types,(YC) - Young and/or collegiate types,(D) - Dancing,(WE) = Weekends","Bars/Clubs,Cruising Areas",,,11/24/2019 4:49pm,12/2/2019 8:04am
710,George's Krisco Disco,"(Disco) (Toy shop) (adding liquor) (Upstairs) (Some W, -Downstairs) (Rear ent. on Madison)",600 Marshall ,Memphis,TN,"(*) - Very popular,(YC) - Young and/or collegiate types,(D) - Dancing,(S) - Shows - impersonators or record pantomime acts - often touristy,(W) - Western or coyboy types",Bars/Clubs,,,11/24/2019 4:49pm,12/2/2019 8:05am
711,Lonnie's,After hours on weekends,598 Marshall,Memphis,TN,"""(R) - Restaurant, usually serving dinner. A '*' after this symbol does not necessarily indicate quality of food served, but popularity of the place. "",(AH) - After Hours,(WE) = Weekends",Restaurant,,,11/24/2019 4:49pm,12/2/2019 8:06am
713,Psyche Out,(Many ladies),76 N. Cleveland,Memphis,TN,"""(L) - Ladies/Ms, but seldom exclusively unless noted"",(D) - Dancing,(*) - Very popular",Bars/Clubs,,,11/24/2019 4:49pm,12/2/2019 8:07am
714,Sam's,(After hours til 6am),672 Marshall,Memphis,TN,"(YC) - Young and/or collegiate types,(D) - Dancing,(AH) - After Hours,(*) - Very popular",Bars/Clubs,,,11/24/2019 4:49pm,12/2/2019 8:07am
717,Broadway Book Mart,,109 5th Ave.,Nashville,TN,,Book Store,,,11/24/2019 4:49pm,12/2/2019 8:09am
718,Broadway Books,,211 Broadway,Nashville,TN,,Book Store,,,11/24/2019 4:50pm,12/2/2019 8:09am
719,Cabaret,(Disco),1711 Hayes St.,Nashville,TN,"(D) - Dancing,(S) - Shows - impersonators or record pantomime acts - often touristy,(*) - Very popular",Bars/Clubs,,,11/24/2019 4:50pm,12/2/2019 8:09am
720,Carousel Book Store,,5606 Charlotte,Nashville,TN,,Book Store,,,11/24/2019 4:50pm,12/2/2019 8:08am
721,Classic Art ,"(Books)
",2702 Deckerson Rd.,Nashville,TN,,Book Store,,,11/24/2019 4:50pm,12/2/2019 8:08am
722,Connection,(Many L) ,2025 8th Ave. S.,Nashville,TN,"""(L) - Ladies/Ms, but seldom exclusively unless noted"",(PT) - Pool Table",Bars/Clubs,,,11/24/2019 4:50pm,12/2/2019 8:08am
723,Juanita's,(Some OC) (may be closing),713 Commerce St.,Nashville,TN,(OC) - Older/More Mature Crowd,Bars/Clubs,,,11/24/2019 4:50pm,12/2/2019 11:19am
724,Jungle Lounge,(Tired) (Lost liquor license),715 Commerce St.,Nashville,TN,,Bars/Clubs,,,11/24/2019 4:50pm,12/2/2019 11:19am
725,Malone's,,407 1st Ave. S.,Nashville,TN,"(M) - Mixed Crowds - Some Straights,""(R) - Restaurant, usually serving dinner. A '*' after this symbol does not necessarily indicate quality of food served, but popularity of the place. "",""(C) - Coffee, soft drinks and sometimes snacks"",(AH) - After Hours",Restaurant,,,11/24/2019 4:50pm,12/2/2019 11:20am
726,M.C.C.,,1502 Edgehill Ave.,Nashville,TN,,Church,,,11/24/2019 4:50pm,12/2/2019 11:20am
728,Swingers World Books,,400 Broadway,Nashville,TN,,Book Store,,,11/24/2019 4:50pm,12/2/2019 11:20am
729,Warehouse 28,(Disco) ,2529 Franklin Rd.,Nashville,TN,"(YC) - Young and/or collegiate types,(*) - Very popular,(D) - Dancing,""(R) - Restaurant, usually serving dinner. A '*' after this symbol does not necessarily indicate quality of food served, but popularity of the place. ""","Restaurant,Bars/Clubs",,,11/24/2019 4:50pm,12/2/2019 11:21am
732,Wagon Wheel Books,,423 Broadway,Nashville,TN,(AYOR) -  At Your Own Risk - Dangerous - Usually Fuzz,"Book Store,Cruising Areas",,,11/24/2019 4:50pm,12/2/2019 11:22am
733,Our Way,(Some ladies) (Disco) (Show address book for admission) (Closed Mon. & Tues.),541 China,Abilene,TX,"(*) - Very popular,(P) - Private club - Inquire locally to admission,(YC) - Young and/or collegiate types,""(L) - Ladies/Ms, but seldom exclusively unless noted"",(D) - Dancing",Bars/Clubs,,,11/24/2019 4:50pm,12/2/2019 11:23am
737,Old Plantation,(Some Ladies) (Disco) (Liquor) (Occasional shows),1005 N. Filmore,Amarillo,TX,"(*) - Very popular,""(L) - Ladies/Ms, but seldom exclusively unless noted"",(D) - Dancing,(WE) = Weekends,(PT) - Pool Table,(S) - Shows - impersonators or record pantomime acts - often touristy",Bars/Clubs,,,11/24/2019 4:50pm,12/2/2019 11:27am
740,Mad Hatter,(Disco),735 N. Collins,Arlington,TX,"""(R) - Restaurant, usually serving dinner. A '*' after this symbol does not necessarily indicate quality of food served, but popularity of the place. "",(PT) - Pool Table,(D) - Dancing,(*) - Very popular","Bars/Clubs,Restaurant",,,11/24/2019 4:50pm,12/2/2019 11:27am
744,All American News,(Books),2532 Guadalupe,Austin,TX,(*) - Very popular,Book Store,,,11/24/2019 4:50pm,12/6/2019 11:20am
746,Cinema Follies,(Nude flicks & back room) (Snacks) (no booze),322 E. 6th,Austin,TX,"(*) - Very popular,(P) - Private club - Inquire locally to admission,(PT) - Pool Table",Theatre,,,11/24/2019 4:50pm,12/6/2019 11:21am
747,Club Austin Baths,,308 W. 16th St.,Austin,TX,(*) - Very popular,Baths,,,11/24/2019 4:50pm,12/6/2019 11:21am
748,Executive Health Club - Austin,"(Sauna, etc.) (Should be a winner) Stephan Austin Hotel. (512) 748-7220 ",7th & Congress,Austin,TX,"""(H) - Hotel, motel, or other overnight accomodations""","Hotels,Baths",,,11/24/2019 4:50pm,12/6/2019 11:22am
749,Hollywood Club,,304 W. 4th,Austin,TX,"""(L) - Ladies/Ms, but seldom exclusively unless noted""",Bars/Clubs,,,11/24/2019 4:50pm,12/6/2019 11:23am
750,JoJo's,La Quinta Motor Inn,1605 E. Oltorf at I-35,Austin,TX,"(M) - Mixed Crowds - Some Straights,""(R) - Restaurant, usually serving dinner. A '*' after this symbol does not necessarily indicate quality of food served, but popularity of the place. "",""(C) - Coffee, soft drinks and sometimes snacks"",(AH) - After Hours","Restaurant,Hotels",,,11/24/2019 4:50pm,12/6/2019 11:23am
751,M.C.C.,,408 W 23rd,Austin,TX,,Church,,,11/24/2019 4:50pm,12/6/2019 11:23am
752,Mr. Peepers,(Books) (Cruisy),213 E. 16th St.,Austin,TX,(*) - Very popular,"Book Store,Cruising Areas",,,11/24/2019 4:50pm,12/6/2019 11:26am
753,New Apartment,"(Some W, OC) (Cruisy) (No neon- looks like a private hosue - use rear door) nr. Guadalupe & 29th",2828 Rio Grande,Austin,TX,"(*) - Very popular,(W) - Western or coyboy types,(OC) - Older/More Mature Crowd,(PT) - Pool Table,(YC) - Young and/or collegiate types","Bars/Clubs,Cruising Areas",,,11/24/2019 4:50pm,12/6/2019 11:26am
754,Private Cellar,"(Some W, SM, YC) (open days) (Cruisy)",709 E. 6th,Austin,TX,"(*) - Very popular,(W) - Western or coyboy types,""(SM) - Some motorcycle. Don't confuse with 'M-S,' which means mixed crowds - shows. "",(YC) - Young and/or collegiate types,(PT) - Pool Table,(D) - Dancing",Bars/Clubs,,,11/24/2019 4:50pm,12/6/2019 11:25am
755,Stallion Bookstore,(Cruisy) (Best late popular),706 E. 6th,Austin,TX,(*) - Very popular,"Book Store,Cruising Areas",,,11/24/2019 4:50pm,12/6/2019 11:26am
756,The Tap,(Looks promising),606 Maiden Lane,Austin,TX,(YC) - Young and/or collegiate types,Bars/Clubs,,,11/24/2019 4:50pm,12/6/2019 11:27am
757,Wild Bill's Book Store,,138 Research at I-35 N,Austin,TX,,Book Store,,,11/24/2019 4:50pm,12/6/2019 11:27am
758,Winter Garden,(Disco) (Weekends only) (Above Private Cellar),709 E. 6th,Austin,TX,"(D) - Dancing,(WE) = Weekends",Bars/Clubs,,,11/24/2019 4:50pm,12/6/2019 11:27am
763,Farmhouse,(Disco) (Some ladies),304 Orleans,Beaumont,TX,"(*) - Very popular,(YC) - Young and/or collegiate types,(D) - Dancing,(S) - Shows - impersonators or record pantomime acts - often touristy,""(L) - Ladies/Ms, but seldom exclusively unless noted""",Bars/Clubs,,,11/24/2019 4:50pm,12/6/2019 11:30am
769,Adult Book Store,,413 Peoples,Corpus Christi,TX,,Book Store,,,11/24/2019 4:50pm,12/6/2019 11:33am
770,Corpus Christi Country,(Some ladies) ,4604 Ayres,Corpus Christi,TX,"(S) - Shows - impersonators or record pantomime acts - often touristy,""(L) - Ladies/Ms, but seldom exclusively unless noted"",(D) - Dancing,(PT) - Pool Table",Bars/Clubs,,,11/24/2019 4:50pm,12/6/2019 11:33am
771,Jolly Jack,(Cruisy) ,411 Peoples,Corpus Christi,TX,"(*) - Very popular,(PT) - Pool Table,(D) - Dancing,(W) - Western or coyboy types,(YC) - Young and/or collegiate types","Bars/Clubs,Cruising Areas",,,11/24/2019 4:50pm,12/6/2019 3:38pm
772,Penny's El Jardin,(Latins),406 Taylor St.,Corpus Christi,TX,"(M) - Mixed Crowds - Some Straights,(RT) - 'Raunchy types' - downtown type places - often hustlers,(AYOR) -  At Your Own Risk - Dangerous - Usually Fuzz",Bars/Clubs,,,11/24/2019 4:50pm,12/6/2019 3:38pm
773,Spanish Galleon,(Some western) (Cruisy) ,509 Chapparel,Corpus Christi,TX,"(YC) - Young and/or collegiate types,(W) - Western or coyboy types,(*) - Very popular","Bars/Clubs,Cruising Areas",,,11/24/2019 4:50pm,12/6/2019 3:38pm
776,Bell Pepper,(Open 24 hours) (looking for larger location to move to) ,3411 McKinney,Dallas,TX,"(*) - Very popular,""(R) - Restaurant, usually serving dinner. A '*' after this symbol does not necessarily indicate quality of food served, but popularity of the place. """,Restaurant,,,11/24/2019 4:50pm,12/6/2019 3:42pm
777,Boot Camp,"(Ladies on left, guys on right)",2508 N. Fitzhugh,Dallas,TX,(PT) - Pool Table,Bars/Clubs,,interesting gender segregation,11/24/2019 4:50pm,12/6/2019 3:46pm
778,Club Dallas Baths,(One of the 'tops' in CBC chain - also leather shop),2616 Swiss Ave.,Dallas,TX,(*) - Very popular,Baths,,,11/24/2019 4:50pm,12/6/2019 3:47pm
779,Commerce St. News,,1513 Commerce st.,Dallas,TX,(M) - Mixed Crowds - Some Straights,Book Store,,,11/24/2019 4:50pm,12/6/2019 3:47pm
780,Crews Inn,(Cruisy),3220 N. Fitzhugh,Dallas,TX,"(*) - Very popular,(D) - Dancing",Bars/Clubs,,,11/24/2019 4:50pm,12/6/2019 3:47pm
781,Dimensions III,(Disco) (Boutique),2617 N. Pearl St.,Dallas,TX,"(YC) - Young and/or collegiate types,(*) - Very popular,(D) - Dancing,(S) - Shows - impersonators or record pantomime acts - often touristy",Bars/Clubs,,,11/24/2019 4:50pm,12/6/2019 3:48pm
782,Eagle Leather/Maple Ranch Wear,"(Leather, clothing, jewelry & erotica boutiques) Located at Club Dallas, Sun Dance Kids & Tex's Ranch)",2616 Swiss Ave.,Dallas,TX,,Business,,,11/24/2019 4:50pm,12/6/2019 3:53pm
783,Eighth Day,(go-go boys),2509 N. Fitzhugh,Dallas,TX,(*) - Very popular,Bars/Clubs,,,11/24/2019 4:50pm,12/6/2019 3:54pm
784,"Emporium, Ltd.",(clothes),3921 Cedar Springs,Dallas,TX,,Business,,,11/24/2019 4:50pm,12/6/2019 3:54pm
785,Encore II,,4516 McKinney,Dallas,TX,"(YC) - Young and/or collegiate types,""(L) - Ladies/Ms, but seldom exclusively unless noted"",(D) - Dancing",Bars/Clubs,,,11/24/2019 4:50pm,12/6/2019 3:54pm
786,Fraternity House,(Disco),3215 N. Fitzhugh,Dallas,TX,"(W) - Western or coyboy types,(YC) - Young and/or collegiate types,(D) - Dancing",Bars/Clubs,,,11/24/2019 4:50pm,12/6/2019 3:55pm
787,Gaspipe,(head shop),4435 Maple,Dallas,TX,,Business,,,11/24/2019 4:50pm,12/6/2019 3:55pm
788,Highland ,('truck driver' ladies),3018 Monticello,Dallas,TX,"""(L) - Ladies/Ms, but seldom exclusively unless noted""",Bars/Clubs,,,11/24/2019 4:50pm,12/6/2019 3:55pm
789,Jug's ,(popular weekends),4527 Cole,Dallas,TX,"(OC) - Older/More Mature Crowd,""(L) - Ladies/Ms, but seldom exclusively unless noted"",(D) - Dancing,(WE) = Weekends,(*) - Very popular",Bars/Clubs,,,11/24/2019 4:50pm,12/6/2019 3:56pm
790,Lasso Bar,"(Some raunchy, blacks frequent) ",215 Akard,Dallas,TX,"(RT) - 'Raunchy types' - downtown type places - often hustlers,(B) - Blacks frequent,(AYOR) -  At Your Own Risk - Dangerous - Usually Fuzz",Bars/Clubs,,,11/24/2019 4:50pm,12/6/2019 3:56pm
791,Lobo Book Store,,3917 Cedar Springs,Dallas,TX,(*) - Very popular,Book Store,,,11/24/2019 4:50pm,12/6/2019 3:57pm
792,Lucas B&B,(Late),2520 Oak Lawn,Dallas,TX,"(M) - Mixed Crowds - Some Straights,""(R) - Restaurant, usually serving dinner. A '*' after this symbol does not necessarily indicate quality of food served, but popularity of the place. "",""(C) - Coffee, soft drinks and sometimes snacks"",(AH) - After Hours",Restaurant,,,11/24/2019 4:51pm,12/6/2019 3:57pm
793,Magnolia's,(Disco) (Cruisy),3914 Cedar Springs,Dallas,TX,"(YC) - Young and/or collegiate types,(D) - Dancing,(*) - Very popular","Bars/Clubs,Cruising Areas",,,11/24/2019 4:51pm,12/6/2019 3:57pm
794,Metro Baths,,3116 Live Oak,Dallas,TX,(*) - Very popular,Baths,,,11/24/2019 4:51pm,12/6/2019 3:57pm
795,M.C.C.,,2701 Reagan,Dallas,TX,,Church,,,11/24/2019 4:51pm,12/6/2019 3:58pm
796,No Name Bar,(Some older) (Cruisy),2513 N. Fitzhugh,Dallas,TX,"(W) - Western or coyboy types,(OC) - Older/More Mature Crowd,(*) - Very popular","Bars/Clubs,Cruising Areas",,,11/24/2019 4:51pm,12/6/2019 3:59pm
797,Old Planation,('Super complex' - several bars) (Disco) (game room) ,1807 N. Harwood,Dallas,TX,"(YC) - Young and/or collegiate types,(D) - Dancing,(PT) - Pool Table,(S) - Shows - impersonators or record pantomime acts - often touristy",Bars/Clubs,,,11/24/2019 4:51pm,12/6/2019 3:59pm
798,Patio Eatery,(Sidewalk Cafe) (Looks promising) ,3333 N. Fitzhugh,Dallas,TX,"""(R) - Restaurant, usually serving dinner. A '*' after this symbol does not necessarily indicate quality of food served, but popularity of the place. """,Restaurant,,,11/24/2019 4:51pm,12/6/2019 3:59pm
799,Ramrod ,"(Was closed, may be re-opening)",3224 N. Fitzhugh,Dallas,TX,,Bars/Clubs,,,11/24/2019 4:51pm,12/6/2019 4:00pm
800,Steak 'n' Eggs,"(Some black frequent, RT)",3849 Cedar Springs,Dallas,TX,"(M) - Mixed Crowds - Some Straights,""(R) - Restaurant, usually serving dinner. A '*' after this symbol does not necessarily indicate quality of food served, but popularity of the place. "",""(C) - Coffee, soft drinks and sometimes snacks"",(B) - Blacks frequent,(RT) - 'Raunchy types' - downtown type places - often hustlers",Restaurant,,,11/24/2019 4:51pm,12/6/2019 4:00pm
801,Stopover,,5632 E. Mockingbird,Dallas,TX,,Bars/Clubs,,,11/24/2019 4:51pm,12/6/2019 4:05pm
802,Sundance Kid's,(Cruisy) (Eagle Leathers),4025 Maple,Dallas,TX,"""(C) - Coffee, soft drinks and sometimes snacks"",(AH) - After Hours,(WE) = Weekends,(W) - Western or coyboy types,""(SM) - Some motorcycle. Don't confuse with 'M-S,' which means mixed crowds - shows. "",(*) - Very popular","Bars/Clubs,Cruising Areas",,,11/24/2019 4:51pm,12/6/2019 4:05pm
803,Tex's Ranch,(Maple Ranch Wears Boutique) (Cruisy),4117 Maple,Dallas,TX,"(*) - Very popular,(W) - Western or coyboy types,""(SM) - Some motorcycle. Don't confuse with 'M-S,' which means mixed crowds - shows. "",(D) - Dancing,""(C) - Coffee, soft drinks and sometimes snacks"",(AH) - After Hours",Bars/Clubs,,,11/24/2019 4:51pm,12/6/2019 4:06pm
804,Throckmorton Mining Co.,(Cruisy),3014 Throckmorton,Dallas,TX,"(*) - Very popular,(PT) - Pool Table","Bars/Clubs,Cruising Areas",,,11/24/2019 4:51pm,12/6/2019 4:06pm
805,T.J.'s With Love,(Some ladies),2010 H. Haskell,Dallas,TX,"""(L) - Ladies/Ms, but seldom exclusively unless noted""",Bars/Clubs,,,11/24/2019 4:51pm,12/6/2019 4:07pm
806,Union Jack,(Clothing store),3918 Cedar Springs,Dallas,TX,,Business,,,11/24/2019 4:51pm,12/6/2019 4:07pm
807,Villa Fontana,,1315 Skiles,Dallas,TX,(OC) - Older/More Mature Crowd,Bars/Clubs,,,11/24/2019 4:51pm,12/6/2019 4:07pm
808,Wild Crowd Inn,(Small disco),2515 N. Fitzhugh,Dallas,TX,(D) - Dancing,Bars/Clubs,,,11/24/2019 4:51pm,12/6/2019 4:07pm
822,Apartment,,815 Myrtle,El Paso,TX,,Bars/Clubs,,,12/6/2019 4:02pm,12/6/2019 4:14pm
824,D & M,(Latins) (Back room),501 S. Mesa St.,El Paso,TX,(M) - Mixed Crowds - Some Straights,Bars/Clubs,,,12/6/2019 4:02pm,12/6/2019 4:13pm
825,Diamond Lil's,"(Some Latins, Ladies) ",308 S. Florence,El Paso,TX,"(*) - Very popular,""(L) - Ladies/Ms, but seldom exclusively unless noted"",(PT) - Pool Table",Bars/Clubs,,,12/6/2019 4:02pm,12/6/2019 4:12pm
826,Le Milord,(Latin),606 Magoffin,El Paso,TX,,Bars/Clubs,,,12/6/2019 4:02pm,12/6/2019 4:12pm
827,Old Plantation,(Disco),219 S. Ochoa,El Paso,TX,"(*) - Very popular,(YC) - Young and/or collegiate types,(D) - Dancing",Bars/Clubs,,,12/6/2019 4:02pm,12/6/2019 4:12pm
828,Pigalle Club,(Latins),441 E. Franklin,El Paso,TX,"(OC) - Older/More Mature Crowd,(PT) - Pool Table",Bars/Clubs,,,12/6/2019 4:02pm,12/6/2019 4:12pm
834,Club Olympic,,210 Ave. Lerdo ,Ciudad Juarez,Mexico,(AYOR) -  At Your Own Risk - Dangerous - Usually Fuzz,Bars/Clubs,,,12/6/2019 4:02pm,12/6/2019 4:16pm
836,The Joradan,,557 Delgallado,Ciudad Juarez,Mexico,(AYOR) -  At Your Own Risk - Dangerous - Usually Fuzz,Bars/Clubs,,,12/6/2019 4:02pm,12/6/2019 4:16pm
837,The Lourdes,,581 Ave. 16 de Septiembre,Ciudad Juarez,Mexico,(AYOR) -  At Your Own Risk - Dangerous - Usually Fuzz,Bars/Clubs,,,12/6/2019 4:02pm,12/6/2019 4:16pm
839,Aub's,(shows on weekends),1308 St. Louis. St. ,Ft. Worth,TX,"""(R) - Restaurant, usually serving dinner. A '*' after this symbol does not necessarily indicate quality of food served, but popularity of the place. "",(S) - Shows - impersonators or record pantomime acts - often touristy,(WE) = Weekends","Restaurant,Bars/Clubs",,,12/6/2019 4:02pm,12/6/2019 5:13pm
840,Corral ,(Cruisy) (Looksing promising),621 Hemphil,Ft. Worth,TX,(W) - Western or coyboy types,"Bars/Clubs,Cruising Areas",,,12/6/2019 4:02pm,12/6/2019 5:14pm
842,M.C.C.,,3024 Forest Ave.,Ft. Worth,TX,,Church,,,12/6/2019 4:02pm,12/6/2019 5:14pm
843,Other Place,(Some ladies) (2 bars) ,1036 N. Henderson,Ft. Worth,TX,"(*) - Very popular,(YC) - Young and/or collegiate types,(D) - Dancing,""(L) - Ladies/Ms, but seldom exclusively unless noted""",Bars/Clubs,,,12/6/2019 4:02pm,12/6/2019 5:15pm
844,Patches,,716 S. Jennings,Ft. Worth,TX,"""(R) - Restaurant, usually serving dinner. A '*' after this symbol does not necessarily indicate quality of food served, but popularity of the place. """,Restaurant,,,12/6/2019 4:02pm,12/6/2019 5:15pm
845,Six-Fifty-One Club,,651 S. Jennings,Ft. Worth,TX,"(*) - Very popular,(PT) - Pool Table,(W) - Western or coyboy types",Bars/Clubs,,,12/6/2019 4:02pm,12/6/2019 5:15pm
846,Split Image,('Drags') ('Hustlers'),1101 Semianry Dr.,Ft. Worth,TX,(S) - Shows - impersonators or record pantomime acts - often touristy,Bars/Clubs,,,12/6/2019 4:02pm,12/6/2019 5:16pm
847,Tender Trap,(Some ladies),1815 E. Lancaster,Ft. Worth,TX,"(D) - Dancing,(PT) - Pool Table,""(L) - Ladies/Ms, but seldom exclusively unless noted""",Bars/Clubs,,,12/6/2019 4:02pm,12/6/2019 5:16pm
854,Fruit Jar,,2214 Mechanic,Galveston,TX,(D) - Dancing,Bars/Clubs,,,12/6/2019 4:02pm,12/6/2019 5:17pm
856,Islandia Motel-Apts,(Looks promising),2027 Rosenberg Ave.,Galveston,TX,"(M) - Mixed Crowds - Some Straights,""(H) - Hotel, motel, or other overnight accomodations""",Hotels,,,12/6/2019 4:02pm,12/6/2019 5:18pm
857,Kon Tiki,(Occasional shows),214 23rd St.,Galveston,TX,"(S) - Shows - impersonators or record pantomime acts - often touristy,(*) - Very popular,(D) - Dancing,(YC) - Young and/or collegiate types",Bars/Clubs,,,12/6/2019 4:02pm,12/6/2019 5:18pm
858,Kon Tiki Baths,,220 23rd St.,Galveston,TX,(*) - Very popular,Baths,,,12/6/2019 4:02pm,12/6/2019 5:19pm
860,Robert Lafitte,,213 Kempner,Galveston,TX,"(S) - Shows - impersonators or record pantomime acts - often touristy,(D) - Dancing",Bars/Clubs,,,12/6/2019 4:02pm,12/6/2019 5:19pm
861,Seagull,,2227 Seawall Blvd.,Galveston,TX,"(M) - Mixed Crowds - Some Straights,(PT) - Pool Table",Bars/Clubs,,,12/6/2019 4:02pm,12/6/2019 5:28pm
862,Silver Palace,"(Hotel, restaurant, & bar) 763-9334",2404 Post Office,Galveston,TX,"""(H) - Hotel, motel, or other overnight accomodations"",""(R) - Restaurant, usually serving dinner. A '*' after this symbol does not necessarily indicate quality of food served, but popularity of the place. ""","Hotels,Bars/Clubs,Restaurant",,,12/6/2019 4:02pm,12/6/2019 5:28pm
864,Adonis News,(Open 24 hours),1407 Richmond ,Houston,TX,,Book Store,,,12/6/2019 4:02pm,12/6/2019 5:33pm
865,Adultz News,"(Books, 'flicks', peep shows & cruisy arcades) (Open 24 hours)",714 W. Alabama,Houston,TX,(*) - Very popular,"Book Store,Cruising Areas",,,12/6/2019 4:02pm,12/6/2019 5:33pm
866,After Dark,(Disco) (Looks promising),6250 Westpark,Houston,TX,"(YC) - Young and/or collegiate types,(D) - Dancing",Bars/Clubs,,,12/6/2019 4:02pm,12/6/2019 5:35pm
867,Assylum ,(Books & arcade) (looks promising),1201 Richmond,Houston,TX,,Book Store,,,12/6/2019 4:02pm,12/6/2019 5:35pm
868,Auntie Mame's,(Deli) (24 hrs.) ,2278 W. Holcomb,Houston,TX,"""(R) - Restaurant, usually serving dinner. A '*' after this symbol does not necessarily indicate quality of food served, but popularity of the place. """,Restaurant,,,12/6/2019 4:02pm,12/6/2019 5:35pm
869,BP's,(Open 24 hours),1322 Westheimer,Houston,TX,"""(R) - Restaurant, usually serving dinner. A '*' after this symbol does not necessarily indicate quality of food served, but popularity of the place. """,Restaurant,,,12/6/2019 4:02pm,12/6/2019 5:36pm
870,Baja Sams,,402 Lovett,Houston,TX,"""(R) - Restaurant, usually serving dinner. A '*' after this symbol does not necessarily indicate quality of food served, but popularity of the place. "",(E) - Entertainment",Restaurant,,,12/6/2019 4:02pm,12/6/2019 5:36pm
871,Barn,"(Some W, OC) (popular weekends)",710 Pacific St.,Houston,TX,"(W) - Western or coyboy types,(OC) - Older/More Mature Crowd,(*) - Very popular,(WE) = Weekends",Bars/Clubs,,,12/6/2019 4:02pm,12/6/2019 5:36pm
872,Bellaire News,(Books),5807 Ballaire,Houston,TX,,Book Store,,,12/6/2019 4:02pm,12/6/2019 5:37pm
873,Brasserie,(Popular after hours),515 Alabama,Houston,TX,"""(R) - Restaurant, usually serving dinner. A '*' after this symbol does not necessarily indicate quality of food served, but popularity of the place. "",""(C) - Coffee, soft drinks and sometimes snacks"",(AH) - After Hours,(*) - Very popular",Restaurant,,,12/6/2019 4:02pm,12/6/2019 5:37pm
874,Brazos River Bottom,(W & levis) (Cruisy),2400 Brazos,Houston,TX,"(W) - Western or coyboy types,(D) - Dancing,(*) - Very popular","Cruising Areas,Bars/Clubs",,,12/6/2019 4:02pm,12/6/2019 5:38pm
875,Adonis News,(Open 24 hours),4009 Hollister,Houston,TX,,Book Store,,,12/6/2019 4:02pm,12/6/2019 5:33pm
876,Briar Patch,(Some older crowd),2294 Holcombe,Houston,TX,(OC) - Older/More Mature Crowd,Bars/Clubs,,,12/6/2019 4:02pm,12/6/2019 5:48pm
877,Buns,,1504 Westheimer,Houston,TX,,Bars/Clubs,,,12/6/2019 4:02pm,12/6/2019 5:48pm
878,Club Houston Baths,(Pool),2205 Fannin,Houston,TX,"(*) - Very popular,(P) - Private club - Inquire locally to admission,(YC) - Young and/or collegiate types",Baths,,,12/6/2019 4:02pm,12/6/2019 5:48pm
879,Club L'Amour,(Popular on weekends) (Disco),227 Westheimer,Houston,TX,"""(L) - Ladies/Ms, but seldom exclusively unless noted"",(WE) = Weekends,(*) - Very popular,(D) - Dancing,(S) - Shows - impersonators or record pantomime acts - often touristy",Bars/Clubs,,,12/6/2019 4:02pm,12/6/2019 5:49pm
881,Cove,(Disco),2912 S. Shepherd,Houston,TX,"(B) - Blacks frequent,""(L) - Ladies/Ms, but seldom exclusively unless noted"",(D) - Dancing",Bars/Clubs,,,12/6/2019 4:02pm,12/6/2019 5:50pm
882,Diners News,(Books),204 Westheimer,Houston,TX,,Book Store,,,12/6/2019 4:02pm,12/6/2019 5:50pm
883,Dirty Sally's,(Patio) (Good days & early evenings popular),220 Avondale,Houston,TX,(*) - Very popular,Bars/Clubs,,,12/6/2019 4:02pm,12/6/2019 5:50pm
884,Don's Le Patois,French restaurant,428 Westheimer,Houston,TX,"(M) - Mixed Crowds - Some Straights,""(R) - Restaurant, usually serving dinner. A '*' after this symbol does not necessarily indicate quality of food served, but popularity of the place. """,Restaurant,,,12/6/2019 4:02pm,12/6/2019 5:50pm
885,Exile,"(Some W, OC, RT) (open days) ",1011 Bell,Houston,TX,"(W) - Western or coyboy types,(OC) - Older/More Mature Crowd,(RT) - 'Raunchy types' - downtown type places - often hustlers,(PT) - Pool Table",Bars/Clubs,,,12/6/2019 4:02pm,12/6/2019 5:51pm
886,Facets,(Speciality shop),1412 Westheimer,Houston,TX,,Business,,,12/6/2019 4:02pm,12/6/2019 5:51pm
887,French Quarter All Male Theatre,('Wild back room'),3201 Louisiana,Houston,TX,(*) - Very popular,"Theatre,Cruising Areas",,,12/6/2019 4:02pm,12/6/2019 5:52pm
888,Front Runner,(open 24 hours),1525 Westheimer,Houston,TX,"""(R) - Restaurant, usually serving dinner. A '*' after this symbol does not necessarily indicate quality of food served, but popularity of the place. """,Restaurant,,,12/6/2019 4:02pm,12/6/2019 5:55pm
889,Galleon,,2303 Richmond,Houston,TX,,Bars/Clubs,,,12/6/2019 4:02pm,12/6/2019 5:55pm
890,Gas Light Book Store,,3519 Bellaire,Houston,TX,,Book Store,,,12/6/2019 4:02pm,12/6/2019 5:55pm
891,House of Pie's,(Cruisy after hours),3112 Kirby,Houston,TX,"""(R) - Restaurant, usually serving dinner. A '*' after this symbol does not necessarily indicate quality of food served, but popularity of the place. "",""(C) - Coffee, soft drinks and sometimes snacks"",(AH) - After Hours,(*) - Very popular","Restaurant,Cruising Areas",,,12/6/2019 4:02pm,12/6/2019 5:56pm
892,Inside Outside,"(3 bars) (YC) (D) downstairs - (E) upstairs & (Some W, SM) - at Countryside - supposedly opening adj. restaurant soon - could be a winner)",1318 Westheimer,Houston,TX,"""(R) - Restaurant, usually serving dinner. A '*' after this symbol does not necessarily indicate quality of food served, but popularity of the place. "",""(SM) - Some motorcycle. Don't confuse with 'M-S,' which means mixed crowds - shows. "",(W) - Western or coyboy types,(YC) - Young and/or collegiate types,(D) - Dancing,(E) - Entertainment",Bars/Clubs,,,12/6/2019 4:02pm,12/6/2019 5:57pm
893,Just Marion & Lynn's,,817 Fairview,Houston,TX,"""(L) - Ladies/Ms, but seldom exclusively unless noted"",(PT) - Pool Table,(*) - Very popular",Bars/Clubs,,,12/6/2019 4:02pm,12/6/2019 5:58pm
894,Lamp Post,,2417 Times,Houston,TX,"""(L) - Ladies/Ms, but seldom exclusively unless noted""",Bars/Clubs,,,12/6/2019 4:02pm,12/6/2019 5:58pm
895,Lazy J,(Best late),302 Tuam,Houston,TX,"(W) - Western or coyboy types,(RT) - 'Raunchy types' - downtown type places - often hustlers",Bars/Clubs,,,12/6/2019 4:02pm,12/6/2019 5:58pm
896,Locker ,"(Cruisy) (Leather & toy shop) (Summer - weekends, patio popular) (use side entrance)",1732 Westheimer,Houston,TX,"""(SM) - Some motorcycle. Don't confuse with 'M-S,' which means mixed crowds - shows. "",(W) - Western or coyboy types,(PT) - Pool Table,(WE) = Weekends,(*) - Very popular","Bars/Clubs,Cruising Areas",,,12/6/2019 4:02pm,12/6/2019 5:59pm
897,Manhole,(Clothing store),1983 W. Gray,Houston,TX,,Business,,,12/6/2019 4:02pm,12/6/2019 5:59pm
898,Marion & Lynn's,(looks promising),106 Tuam,Houston,TX,"""(L) - Ladies/Ms, but seldom exclusively unless noted""",Bars/Clubs,,,12/6/2019 4:02pm,12/6/2019 6:00pm
899,Mary's,"(Some W, SM,) (Good days) (Cruisy) ",1022 Westheimer,Houston,TX,"(W) - Western or coyboy types,""(SM) - Some motorcycle. Don't confuse with 'M-S,' which means mixed crowds - shows. "",(PT) - Pool Table,(*) - Very popular","Cruising Areas,Bars/Clubs",,,12/6/2019 4:02pm,12/6/2019 6:00pm
900,M.C.C.,,1214 Joe Annie,Houston,TX,,Church,,,12/6/2019 4:02pm,12/6/2019 6:01pm
901,Midnite Sun,(Hip) (Open 7am),534 Westheimer,Houston,TX,"(YC) - Young and/or collegiate types,(*) - Very popular,(D) - Dancing",Bars/Clubs,,,12/6/2019 4:02pm,12/6/2019 6:01pm
902,Midtowne Spa (Baths),at Elgin,3100 Fannin,Houston,TX,(*) - Very popular,Baths,,,12/6/2019 4:02pm,12/6/2019 6:01pm
903,Montrose Mining Co.,(Cruisy) ,805 Pacific St.,Houston,TX,"(*) - Very popular,(PT) - Pool Table","Bars/Clubs,Cruising Areas",,,12/6/2019 4:02pm,12/6/2019 6:02pm
904,Ms. Take II,(Some ladies),2047 Marshall,Houston,TX,"""(L) - Ladies/Ms, but seldom exclusively unless noted""",Bars/Clubs,,,12/6/2019 4:02pm,12/6/2019 6:04pm
905,N. Houston Adult Books,,5102 Airline,Houston,TX,,Book Store,,,12/6/2019 4:02pm,12/6/2019 6:04pm
906,Numbers,"(Some YC, L, B) ('Hot' now if straight owners don't blow it) (Disco) (3 Bars)",300 Westheimer,Houston,TX,"(*) - Very popular,(YC) - Young and/or collegiate types,""(L) - Ladies/Ms, but seldom exclusively unless noted"",(B) - Blacks frequent,(D) - Dancing",Bars/Clubs,,,12/6/2019 4:02pm,12/6/2019 6:05pm
907,Old Plantation,(Top 'Super bar') (Disco) (Coffee after hours),2020 Kipling,Houston,TX,"(YC) - Young and/or collegiate types,(D) - Dancing,(PT) - Pool Table,(S) - Shows - impersonators or record pantomime acts - often touristy,""(C) - Coffee, soft drinks and sometimes snacks"",(AH) - After Hours,(*) - Very popular",Bars/Clubs,,,12/6/2019 4:02pm,12/6/2019 6:06pm
908,Oscar Wilde Book Store,('Flicks' and wild back room),3400 Travis,Houston,TX,(*) - Very popular,"Book Store,Cruising Areas",,,12/6/2019 4:02pm,12/6/2019 6:06pm
909,Our Place,('Mixed bag'),1419 Richmond,Houston,TX,(*) - Very popular,Bars/Clubs,,,12/6/2019 4:02pm,12/6/2019 6:07pm
910,Pegasus,(Disco),6015 Westheimer,Houston,TX,"""(R) - Restaurant, usually serving dinner. A '*' after this symbol does not necessarily indicate quality of food served, but popularity of the place. ""","Bars/Clubs,Restaurant",,,12/6/2019 4:02pm,12/6/2019 6:07pm
911,Pink Elephant,,1218 Leland,Houston,TX,(OC) - Older/More Mature Crowd,Bars/Clubs,,,12/6/2019 4:02pm,12/6/2019 6:07pm
912,Q.- 1 Leather,,2608 Dunlavy,Houston,TX,,Bars/Clubs,,,12/6/2019 4:02pm,12/6/2019 6:07pm
913,Ram Rod Tavern,,5110 Airline Dr.,Houston,TX,"(W) - Western or coyboy types,(S) - Shows - impersonators or record pantomime acts - often touristy",Bars/Clubs,,,12/6/2019 4:02pm,12/6/2019 6:36pm
914,Ranch Hi Lite,(Sun. buffet popular),6800 S. Main,Houston,TX,"(D) - Dancing,(*) - Very popular",Bars/Clubs,,,12/6/2019 4:02pm,12/6/2019 6:37pm
915,Silver Bullet Saloon,"(Some W, SM) (Was clsoed, but may be re-opening patio in summer of '79)",1005 California,Houston,TX,"(W) - Western or coyboy types,""(SM) - Some motorcycle. Don't confuse with 'M-S,' which means mixed crowds - shows. """,Bars/Clubs,,,12/6/2019 4:02pm,12/6/2019 6:37pm
916,Spirit Cafe,(open 24 hours) (Cruisy),243 Westheimer,Houston,TX,"""(R) - Restaurant, usually serving dinner. A '*' after this symbol does not necessarily indicate quality of food served, but popularity of the place. "",(*) - Very popular",Restaurant,,,12/6/2019 4:02pm,12/6/2019 6:38pm
918,Studz News,('Flicks' & cruisy arcade),1132 Alabama,Houston,TX,(*) - Very popular,Book Store,,,12/6/2019 4:02pm,12/6/2019 6:38pm
919,Super Nautilus,(Gym),604 Polk,Houston,TX,,Business,,,12/6/2019 4:02pm,12/6/2019 6:39pm
920,The Bookstore,,1728 Bissonnet,Houston,TX,,Book Store,,,12/6/2019 4:02pm,12/6/2019 6:39pm
921,2306 Club,"(Hotel- like baths) (Some SM, FFA, Kinky)",2306 Genessee,Houston,TX,"(*) - Very popular,(P) - Private club - Inquire locally to admission,""(SM) - Some motorcycle. Don't confuse with 'M-S,' which means mixed crowds - shows. "",""(FFA) - Final Faith of America, or ask your friendly SM Serviceman""","Hotels,Baths",,,12/6/2019 4:02pm,12/6/2019 7:15pm
922,Union Jack,(Clothing),4025 Westheimer,Houston,TX,,Business,,,12/6/2019 4:02pm,12/6/2019 7:16pm
923,Venture-N,,2923 S. Main,Houston,TX,,Bars/Clubs,,,12/6/2019 4:02pm,12/6/2019 7:17pm
924,Wilde 'n' Stein,(Book store),819 Richmond,Houston,TX,,Book Store,,,12/6/2019 4:02pm,12/6/2019 7:17pm
934,Pinocchio's,"(Disco) (popular on weekends) (Some W, YC, L) (Occasional shows) ",510 N. University ,Lubbock,TX,"(WE) = Weekends,(*) - Very popular,(W) - Western or coyboy types,(YC) - Young and/or collegiate types,""(L) - Ladies/Ms, but seldom exclusively unless noted"",(D) - Dancing,(S) - Shows - impersonators or record pantomime acts - often touristy",Bars/Clubs,,,12/6/2019 6:15pm,12/6/2019 7:24pm
937,Valentino's,(Very mixed) (Disco) (Cruisy cocktail hour),3002 Slide Rd.,Lubbock,TX,"(PE) - Pretty elegant - jacket & tie may be required,(M) - Mixed Crowds - Some Straights,(D) - Dancing","Bars/Clubs,Cruising Areas",,,12/6/2019 6:15pm,12/6/2019 7:30pm
938,Warehouse Lounge,"(Some ladies, blacks, older crowd)  (rear door)",2402 Marshall,Lubbock,TX,"""(L) - Ladies/Ms, but seldom exclusively unless noted"",(B) - Blacks frequent,(OC) - Older/More Mature Crowd,(D) - Dancing,(S) - Shows - impersonators or record pantomime acts - often touristy,(PT) - Pool Table",Bars/Clubs,,,12/6/2019 6:15pm,12/6/2019 7:30pm
942,Duffy's Tavern,(Some ladies),5 S. 16th St.,McAllen,TX,"""(L) - Ladies/Ms, but seldom exclusively unless noted"",(D) - Dancing,(PT) - Pool Table",Bars/Clubs,,,12/6/2019 6:15pm,12/6/2019 7:21pm
949,Capri,"(Disco) (Sunday shows) (Liquor)
",8401 Andrews Hwy.,Odessa,TX,"(YC) - Young and/or collegiate types,(D) - Dancing,(*) - Very popular,(S) - Shows - impersonators or record pantomime acts - often touristy",Bars/Clubs,,,12/6/2019 6:15pm,12/6/2019 8:08pm
950,Inn of the Golden West,,4th & Lincoln,Odessa,TX,"(M) - Mixed Crowds - Some Straights,""(R) - Restaurant, usually serving dinner. A '*' after this symbol does not necessarily indicate quality of food served, but popularity of the place. "",""(C) - Coffee, soft drinks and sometimes snacks"",(AH) - After Hours",Restaurant,,,12/6/2019 6:15pm,12/6/2019 8:08pm
951,2nd St. Book Store,(May be moving),214 W. 2nd St.,Odessa,TX,(M) - Mixed Crowds - Some Straights,Bars/Clubs,,,12/6/2019 6:15pm,12/6/2019 8:08pm
952,Birthplace of Fairy Saffell,,,Odessa,TX,Cruisy Area,Cruising Areas,,,12/6/2019 6:15pm,12/6/2019 8:09pm
953,Greyhound Bus Depot,,,Odessa,TX,Cruisy Area,Cruising Areas,,,12/6/2019 6:15pm,12/6/2019 8:09pm
954,Adultz News,(Books),515 E. Houston,San Antonio,TX,,Book Store,,,12/6/2019 6:15pm,12/6/2019 8:12pm
955,Army-Navy News,(Books) (Military),4958 S.W. Military Dr.,San Antonio,TX,,Book Store,,,12/6/2019 6:15pm,12/6/2019 8:13pm
956,Atlantis,(Many Latins),321 Navarro,San Antonio,TX,(S) - Shows - impersonators or record pantomime acts - often touristy,Bars/Clubs,,,12/6/2019 6:15pm,12/6/2019 8:13pm
957,Crew,"(Some W, SM) (Cruisy)",309 W. Market,San Antonio,TX,"(W) - Western or coyboy types,""(SM) - Some motorcycle. Don't confuse with 'M-S,' which means mixed crowds - shows. "",(*) - Very popular","Bars/Clubs,Cruising Areas",,,12/6/2019 6:15pm,12/6/2019 8:14pm
958,Earl Abel's,,4200 Broadway,San Antonio,TX,"(M) - Mixed Crowds - Some Straights,""(R) - Restaurant, usually serving dinner. A '*' after this symbol does not necessarily indicate quality of food served, but popularity of the place. "",""(C) - Coffee, soft drinks and sometimes snacks"",(AH) - After Hours,(AYOR) -  At Your Own Risk - Dangerous - Usually Fuzz","Restaurant,Bars/Clubs",,,12/6/2019 6:15pm,12/6/2019 8:15pm
959,El Jardin,(Cruisy) (Patio - good Sunday afternoons) ,106 Navarro,San Antonio,TX,"(OC) - Older/More Mature Crowd,(*) - Very popular","Bars/Clubs,Cruising Areas",,,12/6/2019 6:15pm,12/6/2019 8:15pm
960,Executive Hair Syling Studio,(Gunter Hotel),Houston & St. Mary's,San Antonio,TX,,"Hotels,Business",,,12/6/2019 6:15pm,12/6/2019 8:16pm
961,Exectuve Health Club,"(Sauna, etc.) (Some older crowd) (Basement - Gunter Hotel)",Houston & St. Mary's,San Antonio,TX,"(*) - Very popular,""(H) - Hotel, motel, or other overnight accomodations"",(OC) - Older/More Mature Crowd","Hotels,Baths",,,12/6/2019 6:15pm,12/6/2019 8:16pm
962,Friendly ,"(Some W, SM) (Closes 1am)",622 Roosevelt,San Antonio,TX,"(*) - Very popular,(W) - Western or coyboy types,""(SM) - Some motorcycle. Don't confuse with 'M-S,' which means mixed crowds - shows. """,Bars/Clubs,,,12/6/2019 6:15pm,12/6/2019 8:17pm
963,Galleria News,(Books n things) ,6724 San Pedro,San Antonio,TX,(*) - Very popular,Book Store,,,12/6/2019 6:15pm,12/6/2019 8:17pm
964,High Times,(Hip) (Head shop),6726 San Pedro,San Antonio,TX,,Bars/Clubs,,,12/6/2019 6:15pm,12/6/2019 8:18pm
965,Impala ,,900 S. St. Mary's,San Antonio,TX,,Bars/Clubs,,,12/6/2019 6:15pm,12/6/2019 8:18pm
966,International News,(Only hard core in S.A.),I-35 S. ,San Antonio,TX,,Book Store,,Porn tied to bookstore,12/6/2019 6:15pm,12/6/2019 8:18pm
967,Lollie's Variety Store,,134 W. Turbo,San Antonio,TX,"""(L) - Ladies/Ms, but seldom exclusively unless noted"",(D) - Dancing,(*) - Very popular",Bars/Clubs,,,12/6/2019 6:15pm,12/6/2019 8:19pm
968,Mary Ellen's,(Cruisy neighborhood bar),815 Fredericksburg Rd.,San Antonio,TX,(PT) - Pool Table,"Cruising Areas,Bars/Clubs",,,12/6/2019 6:15pm,12/6/2019 8:19pm
970,New River City Motel,,1100 N. St. Mary's,San Antonio,TX,,Hotels,,,12/6/2019 6:15pm,12/6/2019 8:20pm
971,Paris News,,1929 N. New Braunfels,San Antonio,TX,(*) - Very popular,Book Store,,,12/6/2019 6:15pm,12/6/2019 8:20pm
972,Precious Lounge,(Beer & wine) (Latins) ,1107 Nogalitos,San Antonio,TX,"(PT) - Pool Table,(D) - Dancing,(RT) - 'Raunchy types' - downtown type places - often hustlers",Bars/Clubs,,,12/6/2019 6:15pm,12/7/2019 11:26am
973,San Antonio Book Mart,,2018 Broadway,San Antonio,TX,,Book Store,,,12/6/2019 6:15pm,12/7/2019 11:26am
974,San Antonio Country,"('Super complex' - 7 rooms, 2 discos, patio, pool table, some hip, W, YC) (After hours coffee til 4am) (Cruisy) (Patio)",1122 N. St. Mary's,San Antonio,TX,"(*) - Very popular,(PT) - Pool Table,(W) - Western or coyboy types,(YC) - Young and/or collegiate types,(AH) - After Hours,""(C) - Coffee, soft drinks and sometimes snacks""","Bars/Clubs,Cruising Areas",,,12/6/2019 6:15pm,12/7/2019 11:27am
975,Santa Fe Junction,(Disco),6322 San Pedro,San Antonio,TX,"(*) - Very popular,(YC) - Young and/or collegiate types,(D) - Dancing",Bars/Clubs,,,12/6/2019 6:15pm,12/7/2019 11:27am
976,Silhouette ,(Hip) (Latins),2522 Culebra,San Antonio,TX,"(RT) - 'Raunchy types' - downtown type places - often hustlers,(*) - Very popular,(AYOR) -  At Your Own Risk - Dangerous - Usually Fuzz",Bars/Clubs,,,12/6/2019 6:15pm,12/7/2019 11:28am
977,Sunset Boulevard,(Disco) (2 bars),1430 N. Main,San Antonio,TX,"(D) - Dancing,(YC) - Young and/or collegiate types,(S) - Shows - impersonators or record pantomime acts - often touristy,(*) - Very popular",Bars/Clubs,,,12/6/2019 6:15pm,12/7/2019 11:28am
983,Capri Adult Theatre,(Cruisy),1319 N. 15th St.,Waco,TX,(M) - Mixed Crowds - Some Straights,"Theatre,Cruising Areas",,,12/6/2019 6:15pm,12/7/2019 11:31am
985,Other End,(Disco) (Some ladies) ,2810 N. 19th St.,Waco,TX,"(D) - Dancing,""(L) - Ladies/Ms, but seldom exclusively unless noted"",(PT) - Pool Table,(BYOB) - Bring your own bottle,(*) - Very popular",Bars/Clubs,,,12/6/2019 6:15pm,12/7/2019 11:32am
986,Steak 'n' Eggs,,1707 Washington,Waco,TX,"(M) - Mixed Crowds - Some Straights,""(R) - Restaurant, usually serving dinner. A '*' after this symbol does not necessarily indicate quality of food served, but popularity of the place. "",""(C) - Coffee, soft drinks and sometimes snacks"",(AH) - After Hours",Restaurant,,,12/6/2019 6:15pm,12/7/2019 11:33am
993,Denny's,,1206 Central Fwy.,Wichita Falls,TX,"(M) - Mixed Crowds - Some Straights,""(R) - Restaurant, usually serving dinner. A '*' after this symbol does not necessarily indicate quality of food served, but popularity of the place. "",""(C) - Coffee, soft drinks and sometimes snacks"",(AH) - After Hours",Restaurant,,,12/6/2019 6:15pm,12/7/2019 11:35am
994,L & M,,3064 Seymour Hwy.,Wichita Falls,TX,"(M) - Mixed Crowds - Some Straights,""(R) - Restaurant, usually serving dinner. A '*' after this symbol does not necessarily indicate quality of food served, but popularity of the place. "",""(C) - Coffee, soft drinks and sometimes snacks"",(AH) - After Hours",Restaurant,,,12/6/2019 6:15pm,12/7/2019 11:35am
995,Mary's Carousel Lounge,(Beer only on Sundays),703 Travis,Wichita Falls,TX,"(*) - Very popular,(D) - Dancing,(PT) - Pool Table",Bars/Clubs,,,12/6/2019 6:15pm,12/7/2019 11:36am
999,Virginian,,1521 W. Main,Charlottesville,VA,"(M) - Mixed Crowds - Some Straights,""(R) - Restaurant, usually serving dinner. A '*' after this symbol does not necessarily indicate quality of food served, but popularity of the place. """,Restaurant,,,12/6/2019 6:15pm,12/7/2019 11:38am
1000,Black Horse Cellar,Downtowner Motor Inn,Main & N. Union,Danville,VA,(M) - Mixed Crowds - Some Straights,"Bars/Clubs,Hotels",,,12/6/2019 6:15pm,12/7/2019 11:39am
1002,Continental,(Some RT) ,111 W. Tazewell,Norfolk,VA,"(D) - Dancing,(RT) - 'Raunchy types' - downtown type places - often hustlers,(B) - Blacks frequent",Bars/Clubs,,,12/6/2019 6:15pm,12/7/2019 11:43am
1003,Cue,(Some ladies) (Disco) ,4601 Killam,Norfolk,VA,"(*) - Very popular,(YC) - Young and/or collegiate types,""(L) - Ladies/Ms, but seldom exclusively unless noted"",(D) - Dancing,""(R) - Restaurant, usually serving dinner. A '*' after this symbol does not necessarily indicate quality of food served, but popularity of the place. "",(PT) - Pool Table","Restaurant,Bars/Clubs",,,12/6/2019 6:15pm,12/7/2019 11:44am
1005,Mickey's,,135 Brooks Ave.,Norfolk,VA,(PT) - Pool Table,Bars/Clubs,,,12/6/2019 6:15pm,12/7/2019 11:45am
1006,Nickelodeon,(Cruisy),118 W. City Hall Ave.,Norfolk,VA,"(*) - Very popular,(YC) - Young and/or collegiate types,(PT) - Pool Table,""(R) - Restaurant, usually serving dinner. A '*' after this symbol does not necessarily indicate quality of food served, but popularity of the place. ""","Restaurant,Bars/Clubs,Cruising Areas",,,12/6/2019 6:15pm,12/7/2019 11:45am
1007,Nutcracker,(Disco) ,846 E. LIttle Creek Rd.,Norfolk,VA,"(*) - Very popular,(YC) - Young and/or collegiate types,(D) - Dancing,""(R) - Restaurant, usually serving dinner. A '*' after this symbol does not necessarily indicate quality of food served, but popularity of the place. ""","Restaurant,Bars/Clubs",,,12/6/2019 6:15pm,12/7/2019 11:46am
1008,Oar House,(Disco) (Looks promising),4107 Colley Ave.,Norfolk,VA,"""(R) - Restaurant, usually serving dinner. A '*' after this symbol does not necessarily indicate quality of food served, but popularity of the place. "",(YC) - Young and/or collegiate types,(D) - Dancing","Restaurant,Bars/Clubs",,,12/6/2019 6:15pm,12/7/2019 11:47am
1009,Paddock Tavern,"(Some W, SM) (Cruisy)",131 Plume St.,Norfolk,VA,"(W) - Western or coyboy types,""(SM) - Some motorcycle. Don't confuse with 'M-S,' which means mixed crowds - shows. "",(*) - Very popular","Bars/Clubs,Cruising Areas",,,12/6/2019 6:15pm,12/7/2019 11:48am
1010,Shirley's,,811 Colley Ave.,Norfolk,VA,"""(L) - Ladies/Ms, but seldom exclusively unless noted"",(D) - Dancing,""(R) - Restaurant, usually serving dinner. A '*' after this symbol does not necessarily indicate quality of food served, but popularity of the place. ""","Restaurant,Bars/Clubs",,,12/6/2019 6:15pm,12/7/2019 11:48am
1011,Steak 'n' Eggs,,1200 Colley Ave.,Norfolk,VA,"(M) - Mixed Crowds - Some Straights,""(R) - Restaurant, usually serving dinner. A '*' after this symbol does not necessarily indicate quality of food served, but popularity of the place. "",""(C) - Coffee, soft drinks and sometimes snacks"",(AH) - After Hours",Restaurant,,,12/6/2019 6:15pm,12/7/2019 11:48am
1012,Y.M.C.A.,,312 W. Butte St.,Norfolk,VA,"(M) - Mixed Crowds - Some Straights,""(H) - Hotel, motel, or other overnight accomodations""",Hotels,,,12/6/2019 6:15pm,12/7/2019 11:49am
1017,Fane,(Unisex) (Disco) (No booze),800 W. Main,Richmond,VA,"(M) - Mixed Crowds - Some Straights,(D) - Dancing",Bars/Clubs,,,12/6/2019 6:15pm,12/7/2019 11:52am
1018,Gatsby's,(liquor),1300 E. Cary,Richmond,VA,"(M) - Mixed Crowds - Some Straights,""(R) - Restaurant, usually serving dinner. A '*' after this symbol does not necessarily indicate quality of food served, but popularity of the place. ""","Restaurant,Bars/Clubs",,,12/6/2019 6:15pm,12/7/2019 11:52am
1019,Lachlan's,"(Disco) (Mixed, restaurant upstairs)- Richmond Shopping Center",3506 W. Cary,Richmond,VA,"(YC) - Young and/or collegiate types,(*) - Very popular,(D) - Dancing,(M) - Mixed Crowds - Some Straights,""(R) - Restaurant, usually serving dinner. A '*' after this symbol does not necessarily indicate quality of food served, but popularity of the place. ""","Bars/Clubs,Restaurant",,,12/6/2019 6:15pm,12/7/2019 11:53am
1020,Taber's,(Some ladies) (Looks promising),204 E. Grace st.,Richmond,VA,"""(L) - Ladies/Ms, but seldom exclusively unless noted""",Bars/Clubs,,,12/6/2019 6:15pm,12/7/2019 11:59am
1027,Murphy's,"(Disco)
",415 1st St.,Roanoke,VA,"(P) - Private club - Inquire locally to admission,(YC) - Young and/or collegiate types,(D) - Dancing",Bars/Clubs,,,12/7/2019 11:36am,12/7/2019 12:02pm
1028,Last Straw,,9 W. Salem Ave.,Roanoke,VA,"""(R) - Restaurant, usually serving dinner. A '*' after this symbol does not necessarily indicate quality of food served, but popularity of the place. """,Restaurant,,,12/7/2019 11:36am,12/7/2019 12:02pm
1029,Pinch's ,(Disco) (Closed Sundays),4728 Virginia Beach Blvd.,Virginia Beach,VA,"(D) - Dancing,""(R) - Restaurant, usually serving dinner. A '*' after this symbol does not necessarily indicate quality of food served, but popularity of the place. ""","Bars/Clubs,Restaurant",,,12/7/2019 11:36am,12/7/2019 12:05pm
1037,Airport Adult News,,2314 E. Palmetto,Florence,SC,,Book Store,,,12/7/2019 11:36am,12/7/2019 12:10pm
1038,Aunt Clara's,(Some ladies),288 Evans St.,Florence,SC,"(D) - Dancing,""(L) - Ladies/Ms, but seldom exclusively unless noted""",Bars/Clubs,,,12/7/2019 11:36am,12/7/2019 12:11pm
1040,Charlie's,(Disco),206 N. Coit St.,Florence,SC,"(P) - Private club - Inquire locally to admission,(YC) - Young and/or collegiate types,(S) - Shows - impersonators or record pantomime acts - often touristy,(*) - Very popular,(D) - Dancing",Bars/Clubs,,,12/7/2019 11:36am,12/7/2019 12:11pm
1041,Venus Pancake House,,550 W. Palmetto,Florence,SC,"(M) - Mixed Crowds - Some Straights,""(R) - Restaurant, usually serving dinner. A '*' after this symbol does not necessarily indicate quality of food served, but popularity of the place. "",""(C) - Coffee, soft drinks and sometimes snacks"",(AH) - After Hours",Restaurant,,,12/7/2019 11:36am,12/7/2019 12:12pm
1042,Club Gemini,(Some ladies) (No sign- just door marked 'Private') ,443 E. Stone,Greenville,SC,"""(L) - Ladies/Ms, but seldom exclusively unless noted"",(M) - Mixed Crowds - Some Straights,(S) - Shows - impersonators or record pantomime acts - often touristy,(B) - Blacks frequent",Bars/Clubs,,,12/7/2019 12:09pm,12/7/2019 12:16pm
1043,Executive Sportsman Club,(Disco) (Some ladies) (Entertainment on weekends),1243 Pleasantburg Rd.,Greenville,SC,"(*) - Very popular,(P) - Private club - Inquire locally to admission,(YC) - Young and/or collegiate types,(D) - Dancing,""(R) - Restaurant, usually serving dinner. A '*' after this symbol does not necessarily indicate quality of food served, but popularity of the place. "",""(L) - Ladies/Ms, but seldom exclusively unless noted"",(PT) - Pool Table,(E) - Entertainment,(WE) = Weekends","Restaurant,Bars/Clubs",,,12/7/2019 12:09pm,12/7/2019 12:17pm
1050,Northside Boutique,"(Books, etc.)",8056 Asheville Hwy.,Spartanburg,SC,,Book Store,,,12/7/2019 12:09pm,12/7/2019 12:19pm
1051,Union Adult Boutique,,1451 Union St.,Spartanburg,SC,,Business,,,12/7/2019 12:09pm,12/7/2019 12:19pm
1053,Cross Keys,(Some ladies) (Disco) (Closed Sun.) ,1409 Market St.,Chattanooga,TN,"""(L) - Ladies/Ms, but seldom exclusively unless noted"",(D) - Dancing,(S) - Shows - impersonators or record pantomime acts - often touristy,(*) - Very popular",Bars/Clubs,,,12/7/2019 12:09pm,12/9/2019 3:45pm
1055,Mr. Bo's,(Disco),2825 Rossville Blvd.,Chattanooga,TN,"(YC) - Young and/or collegiate types,(D) - Dancing,(*) - Very popular",Bars/Clubs,,,12/7/2019 12:09pm,12/9/2019 3:45pm
1056,Sambo's,,2500 Brainerd Rd,Chattanooga,TN,"(M) - Mixed Crowds - Some Straights,""(R) - Restaurant, usually serving dinner. A '*' after this symbol does not necessarily indicate quality of food served, but popularity of the place. "",""(C) - Coffee, soft drinks and sometimes snacks"",(AH) - After Hours",Restaurant,,,12/7/2019 12:09pm,12/9/2019 3:45pm